Store Name,Address,Contact,Latitude,Longitude,Store URL,formatted_address,street_number,route,locality,admin_area_3,admin_area_2,admin_area_1,country,country_code,postal_code,latitude,longitude
Pietramelara,"Via San Pasquale . snc, 81051 Pietramelara , CE","08231211734, ",41.27276,14.181592,https://www.pampanorama.it/punti-vendita/pietramelara,"Via S. Pasquale, 88, 81051 Pietramelara CE, Italy",88,Via San Pasquale,Pietramelara,Pietramelara,Provincia di Caserta,Campania,Italy,IT,81051,41.2728312,14.1819065
Bologna Costa,"Via Andrea Costa, 129, 40134 Bologna , BO","051/6141309, ",44.4953003,11.3148003,https://www.pampanorama.it/punti-vendita/bologna-costa,"Via Montefiorino, 3b, 40134 Bologna BO, Italy",3b,Via Montefiorino,Bologna,Bologna,Città Metropolitana di Bologna,Emilia-Romagna,Italy,IT,40134,44.4952433,11.31483
Bologna San Felice,"Via San Felice, 105, 40121 Bologna , BO","051/0569146, ",44.4981003,11.3283997,https://www.pampanorama.it/punti-vendita/bo-sanfelice,"Via Monaldo Calari, 19/2, 40122 Bologna BO, Italy",19/2,Via Monaldo Calari,Bologna,Bologna,Città Metropolitana di Bologna,Emilia-Romagna,Italy,IT,40122,44.4979727,11.3279423
Bologna Zanardi,"Via Bovi Campeggi - angolo Via Zanardi, 40131 Bologna , BO","051 3781342, ",44.50547,11.335,https://www.pampanorama.it/punti-vendita/bologna-zanardi,"Bovi Campeggi Questura, 40131 Bologna BO, Italy",,,Bologna,Bologna,Città Metropolitana di Bologna,Emilia-Romagna,Italy,IT,40131,44.5053829,11.3349821
Bologna Marconi,"Via Marconi, 20, 40122 Bologna , BO","051/236984, ",44.4982987,11.3380003,https://www.pampanorama.it/punti-vendita/pam-local-bologna-marconi,"Via Guglielmo Marconi, 24, 40122 Bologna BO, Italy",24,Via Guglielmo Marconi,Bologna,Bologna,Città Metropolitana di Bologna,Emilia-Romagna,Italy,IT,40122,44.4983544,11.3379716
Bologna Via Marconi,"Via Marconi, 28/A, 40122 Bologna , BO","051/520404, ",44.4992981,11.3383999,https://www.pampanorama.it/punti-vendita/bologna-marconi,"Via Guglielmo Marconi, 28E, 40122 Bologna BO, Italy",28E,Via Guglielmo Marconi,Bologna,Bologna,Città Metropolitana di Bologna,Emilia-Romagna,Italy,IT,40122,44.4993465,11.3384412
Bologna IV Novembre,"Via IV Novembre, 16, 40123 Bologna , BO","051/3780738, ",44.4938011,11.3388996,https://www.pampanorama.it/punti-vendita/bologna-novembre,"Via Cesare Battisti, 18, 40123 Bologna BO, Italy",18,Via Cesare Battisti,Bologna,Bologna,Città Metropolitana di Bologna,Emilia-Romagna,Italy,IT,40123,44.49396790000001,11.3388606
Bologna D'Azeglio,"Via D'Azeglio, 78, 40123 Bologna , BO","051/3780784, ",44.4887009,11.3402996,https://www.pampanorama.it/punti-vendita/pam-local-bologna-azeglio,"Via D'azeglio Massimo, 60, 40123 Bologna BO, Italy",60,Via D'azeglio Massimo,Bologna,Bologna,Città Metropolitana di Bologna,Emilia-Romagna,Italy,IT,40123,44.4887526,11.3403171
Bologna Clavature,"Clavature, 17B, 40124 Bologna , BO","051/6100852, ",44.4931984,11.3460999,https://www.pampanorama.it/punti-vendita/pam-local-bologna-clavature,"Via Castiglione, 5, 40124 Bologna BO, Italy",5,Via Castiglione,Bologna,Bologna,Città Metropolitana di Bologna,Emilia-Romagna,Italy,IT,40124,44.4931212,11.3462125
Bologna Strada Maggiore,"Strada Maggiore 15, 40125 Bologna , BO","051 3780798, ",44.4935989,11.3484001,https://www.pampanorama.it/punti-vendita/bologna-strada-maggiore,"Str. Maggiore, 20, 40125 Bologna BO, Italy",20,Strada Maggiore,Bologna,Bologna,Città Metropolitana di Bologna,Emilia-Romagna,Italy,IT,40125,44.4935666,11.3483807
Bologna S. Stefano,"Via S. Stefano, 29, 40125 Bologna , BO","051/273039, ",44.4912987,11.3491001,https://www.pampanorama.it/punti-vendita/pam-local-bologna-s-stefano,"Via Santo Stefano, 30, 40125 Bologna BO, Italy",30,Via Santo Stefano,Bologna,Bologna,Città Metropolitana di Bologna,Emilia-Romagna,Italy,IT,40125,44.4913065,11.3491488
Irnerio,"Via Irnerio, 24, 40126 Bologna , BO","051/253398, ",44.4997101,11.3488169,https://www.pampanorama.it/punti-vendita/bologna-irnerio,"Via del Borgo di S. Pietro, 43, 40126 Bologna BO, Italy",43,Via del Borgo di San Pietro,Bologna,Bologna,Città Metropolitana di Bologna,Emilia-Romagna,Italy,IT,40126,44.4996577,11.3488651
Bologna Corticella,"Via di Corticella, 3, 40139 Bologna , BO","051/356403, ",44.5130005,11.3476,https://www.pampanorama.it/punti-vendita/bologna-corticella,"Via di Corticella, 216/7, 40128 Bologna BO, Italy",216/7,Via di Corticella,Bologna,Bologna,Città Metropolitana di Bologna,Emilia-Romagna,Italy,IT,40128,44.5128557,11.3473666
Bologna Berti Pichat,"Viale Carlo Berti Pichat, 32 ang. San Donato, 40132 Bologna , BO","051/5885955, ",44.4987984,11.3546,https://www.pampanorama.it/punti-vendita/bologna-berti-pichat,"Via Irnerio, 48, 40126 Bologna BO, Italy",48,Via Irnerio,Bologna,Bologna,Città Metropolitana di Bologna,Emilia-Romagna,Italy,IT,40126,44.4986721,11.3547908
Bologna Murri,"Via Murri, 4, 40122 Bologna , BO","051344490, ",44.4838944,11.355505,https://www.pampanorama.it/punti-vendita/bologna-murri,"Via Santa Chiara, 6, 40137 Bologna BO, Italy",6,Via Santa Chiara,Bologna,Bologna,Città Metropolitana di Bologna,Emilia-Romagna,Italy,IT,40137,44.4836793,11.3550961
Bologna Piazza Trento e Trieste,"Piazza Trento e Trieste 1, 40137 Bologna , BO","051/3781347, ",44.4878006,11.3624001,https://www.pampanorama.it/punti-vendita/bologna-trento-trieste,"Via Mazzini, 47A, 40137 Bologna BO, Italy",47A,Via Mazzini,Bologna,Bologna,Città Metropolitana di Bologna,Emilia-Romagna,Italy,IT,40137,44.4878383,11.3624907
Bologna Orti,"Via degli Orti, 13, 40137 Bologna , BO","051/5880077, ",44.478199,11.3681002,https://www.pampanorama.it/punti-vendita/pam-local-bologna-orti,"Via degli Orti, 11e, 40137 Bologna BO, Italy",11e,Via degli Orti,Bologna,Bologna,Città Metropolitana di Bologna,Emilia-Romagna,Italy,IT,40137,44.4780812,11.3680394
Bologna Dagnini,"Via Dagnini, 46, 40137 Bologna , BO","051/0563637, ",44.4822998,11.3704996,https://www.pampanorama.it/punti-vendita/bologna-dagnini,"Via Giampietro Zanotti, 22, 40137 Bologna BO, Italy",22,Via Giampietro Zanotti,Bologna,Bologna,Città Metropolitana di Bologna,Emilia-Romagna,Italy,IT,40137,44.4823512,11.370498
Vairano Patenora,"Via Patenara, Vairano Patenora , CE","0823744715, ",41.333468,14.115413,https://www.pampanorama.it/punti-vendita/vairano-patenora,"V. Patenara, snc, 81058 Vairano Patenora CE, Italy",snc,Via Patenara,,Vairano Patenora,Provincia di Caserta,Campania,Italy,IT,81058,41.333641,14.1152982
Pignataro Maggiore,"Via Siani, 7, 81052 Pignataro Maggiore , CE","0823-1444249, ",41.190925,14.159177,https://www.pampanorama.it/punti-vendita/pignataro-maggiore,"Via Giancarlo Siani, 7, 81052 Pignataro Maggiore CE, Italy",7,Via Giancarlo Siani,,Pignataro Maggiore,Provincia di Caserta,Campania,Italy,IT,81052,41.1903832,14.1594506
Ferrara Bersaglieri,"Via Bersaglieri del Po’, 58, 44121 Ferrara , FE","05321864379, ",44.83572,11.621682,https://www.pampanorama.it/punti-vendita/pam-ferrara-bersaglieri,"Via Bersaglieri del Po, 58, 44121 Ferrara FE, Italy",58,Via Bersaglieri del Po,Ferrara,Ferrara,Provincia di Ferrara,Emilia-Romagna,Italy,IT,44121,44.835671,11.6217126
Mazzini,"Via G. Mazzini, 90, 44121 Ferrara , FE","0532229614, ",44.83357,11.62216,https://www.pampanorama.it/punti-vendita/ferrara-mazzini,"Via Giuseppe Mazzini, 90, 44121 Ferrara FE, Italy",90,Via Giuseppe Mazzini,Ferrara,Ferrara,Provincia di Ferrara,Emilia-Romagna,Italy,IT,44121,44.8335769,11.6221889
Curti Biagio Rosato,"Via Biagio Rosato, 86, Curti , CA",", ",41.07449,14.26641,https://www.pampanorama.it/punti-vendita/curti-via-biagio-rosato,"Via Biagio Rosato, 88, 81040 Curti CE, Italy",88,Via Biagio Rosato,Curti,Curti,Provincia di Caserta,Campania,Italy,IT,81040,41.0744795,14.2664229
Giugliano Palumbo,"Via Palumbo, 117, 80014 Giugliano in Campania , NA","081 8941709, ",40.92533,14.198421,https://www.pampanorama.it/punti-vendita/giugliano-via-palumbo-retail-pro,"Via Aniello Palumbo, 119, 80014 Giugliano in Campania NA, Italy",119,Via Aniello Palumbo,Giugliano in Campania,Giugliano in Campania,Città Metropolitana di Napoli,Campania,Italy,IT,80014,40.92534,14.1983135
Marigliano Vittorio Emanuele,"Corso Vittorio Emanuele, 58, 80034 Marigliano , NA","081 8333986, ",40.923441,14.455853,https://www.pampanorama.it/punti-vendita/marigliano-corso-vittorio-emanuele-retail-pro,"Corso V. Emanuele III, 56, 80034 Marigliano NA, Italy",56,Corso V. Emanuele III,Marigliano,Marigliano,Città Metropolitana di Napoli,Campania,Italy,IT,80034,40.9234704,14.4559254
Marigliano S.Francesco,"Via San Francesco, 72, 80034 Merigliano , NA","081 8416374, ",40.92899,14.46249,https://www.pampanorama.it/punti-vendita/marigliano-s-francesco-retail-pro,"Via S. Francesco, 74, 80034 Marigliano NA, Italy",74,Via San Francesco,Marigliano,Marigliano,Città Metropolitana di Napoli,Campania,Italy,IT,80034,40.9289369,14.462589
Melito di Napoli Circumvallazione,"Circumvallazione Esterna, 54, 80017 Melito Di Napoli , NA","0817013148, ",40.91011,14.23015,https://www.pampanorama.it/punti-vendita/melito-di-napoli-circumvallazione,"SP1, 56, 80017 Melito di Napoli NA, Italy",56,Circumvallazione Esterna di Napoli,Melito di Napoli,Melito di Napoli,Città Metropolitana di Napoli,Campania,Italy,IT,80017,40.91012480000001,14.2302499
Mugnano Sp Melito Mugnano,"Strada Provinciale Melito Mugnago, 184, 80018 Mugnano Di Napoli , NA","081 7100080, ",40.91815,14.22507,https://www.pampanorama.it/punti-vendita/mugnano-sp-melito-mugnano-retail-pro,"Via Strada Provinciale Mugnano Melito, 184, 80018 Melito di Napoli NA, Italy",184,Via Strada Provinciale Mugnano Melito,Melito di Napoli,Melito di Napoli,Città Metropolitana di Napoli,Campania,Italy,IT,80018,40.9181062,14.2252003
Retailpro Casoria,"Via Don Luigi Sturzo - 26/36, Casoria , NA","0817580533, ",40.90142,14.28272,https://www.pampanorama.it/punti-vendita/retailpro-casoria,"Via Don Luigi Sturzo, 34, 80026 Casoria NA, Italy",34,Via Don Luigi Sturzo,Casoria,Casoria,Città Metropolitana di Napoli,Campania,Italy,IT,80026,40.9014539,14.282626
Napoli Stadera,"Via Stadera, 76, 80143 Napoli , NA","081 5846434, ",40.87216,14.30169,https://www.pampanorama.it/punti-vendita/napoli-via-stadera-retail-pro,"Via della Stadera, 76a, 80143 Napoli NA, Italy",76a,Via della Stadera,Napoli,Napoli,Città Metropolitana di Napoli,Campania,Italy,IT,80143,40.87207069999999,14.301747
Napoli Bramante,"Via Donato Bramante, 28, 80126 Napoli , NA","081 7145458, ",40.83621,14.21109,https://www.pampanorama.it/punti-vendita/napoli-via-bramante-retail-pro,"Via Donato Bramante, 26, 80126 Napoli NA, Italy",26,Via Donato Bramante,Napoli,Napoli,Città Metropolitana di Napoli,Campania,Italy,IT,80126,40.8361375,14.2110632
Napoli Giordani,"Via Francesco Giordani, 10, 80122 Napoli , NA","081-168142, ",40.83532,14.22105,https://www.pampanorama.it/punti-vendita/napoli-giordani-retail-pro,"Via Francesco Giordani, 8, 80122 Napoli NA, Italy",8,Via Francesco Giordani,Napoli,Napoli,Città Metropolitana di Napoli,Campania,Italy,IT,80122,40.8354243,14.2210169
Angri,"Via Semetelle - 46, Angri , SA","08118098264, ",40.743384,14.572542,https://www.pampanorama.it/punti-vendita/angri,"Via Semetelle, 314, 84012 Angri SA, Italy",314,Via Semetelle,Angri,Angri,Provincia di Salerno,Campania,Italy,IT,84012,40.743385,14.57254
Pagani Tramontano,"Via Guido Tramontano, 34/36, 84016 Pagani , SA","081 5150991, ",40.74506,14.60884,https://www.pampanorama.it/punti-vendita/pagani-via-tramontano-retail-pro,"Via Tramontano Guido, 362, 84016 Pagani SA, Italy",362,Via Tramontano Guido,Pagani,Pagani,Provincia di Salerno,Campania,Italy,IT,84016,40.7450789,14.608897
Pago Del Vallo Di Lauro,"Via Nazionale - 98 , Pago Del Vallo Di Lauro, Pago Del Vallo Di Lauro , AV",", ",,,https://www.pampanorama.it/punti-vendita/pago-del-vallo-di-lauro,"Via Nazionale, 98, 80030 Liveri NA, Italy",98,Via Nazionale,Liveri,Liveri,Città Metropolitana di Napoli,Campania,Italy,IT,80030,40.9028877,14.56602
Napoli Minichini,"Via Abate Minichini, 27 Bis, 80137 Napoli , NA","081 5991679, ",40.8685,14.2268,https://www.pampanorama.it/punti-vendita/napoli-via-minichini-retail-pro,"Via Michele Pietravalle, 28, 80128 Napoli NA, Italy",28,Via Michele Pietravalle,Napoli,Napoli,Città Metropolitana di Napoli,Campania,Italy,IT,80128,40.8684495,14.2265706
Sant'Anastasia Somma,"Via Somma, 74, Sant'Anastasia , NA","081 5315215, ",40.87043,14.41242,https://www.pampanorama.it/punti-vendita/sant-anastasia-via-somma,"Via Somma, 74, 80048 Sant'Anastasia NA, Italy",74,Via Somma,Sant'Anastasia,Sant'Anastasia,Città Metropolitana di Napoli,Campania,Italy,IT,80048,40.8702995,14.4124076
San Salvo San Rocco,"Via San Rocco, SNC, 66100 San Salvo , CH","0873 452541, ",42.05197,14.73417,https://www.pampanorama.it/punti-vendita/san-salvo-via-san-rocco-retail-pro,"Via S. Rocco, 31, 66050 San Salvo CH, Italy",31,Via San Rocco,San Salvo,San Salvo,Provincia di Chieti,Abruzzo,Italy,IT,66050,42.0519126,14.7339971
Pam Castellarano,"Centro commerciale Vittoria Via Radici Nord 31/T 42014 Castellarano (RE), Castellarano , Castellarano",", ",,,https://www.pampanorama.it/punti-vendita/pam-castellarano,"Via Radici Nord, 31, 42014 Castellarano RE, Italy",31,Via Radici Nord,Castellarano,Castellarano,Provincia di Reggio Emilia,Emilia-Romagna,Italy,IT,42014,44.5187411,10.7350823
San Giorgio Galante,"Via Galante, 38/50, 80046 San Giorgio A Cremano , NA","081 275173, ",40.82584,14.33594,https://www.pampanorama.it/punti-vendita/san-giorgio-via-galante-retail-pro,"Via Gennaro Aspreno Galante, 48, 80046 San Giorgio a Cremano NA, Italy",48,Via Gennaro Aspreno Galante,San Giorgio a Cremano,San Giorgio a Cremano,Città Metropolitana di Napoli,Campania,Italy,IT,80046,40.8258411,14.3358978
San Giorgio Manzoni,"Via Manzoni, 116/118, 80046 San Giorgio A C , NA","081 7714589, ",40.83737,14.34301,https://www.pampanorama.it/punti-vendita/san-giorgio-via-manzoni-retail-pro,"Via Alessandro Manzoni, 116, 80046 San Giorgio a Cremano NA, Italy",116,Via Alessandro Manzoni,San Giorgio a Cremano,San Giorgio a Cremano,Città Metropolitana di Napoli,Campania,Italy,IT,80046,40.8374033,14.3430803
San Giorgio a Cremano Cappiello,"Via Cappiello, 39, 80046 San Giorgio A Cremano , NA","081 6075764, ",40.82937,14.32678,https://www.pampanorama.it/punti-vendita/s-g-a-cremano-v-cappiello-retail-pro,"Via Francesco Cappiello, 37, 80046 San Giorgio a Cremano NA, Italy",37,Via Francesco Cappiello,San Giorgio a Cremano,Napoli,Città Metropolitana di Napoli,Campania,Italy,IT,80046,40.8293562,14.3267515
Napoli Rubinacci,"Via Cupa Rubinacci, 103, 80147 Napoli , NA","0812561653, ",40.83574,14.33076,https://www.pampanorama.it/punti-vendita/napoli-via-rubinacci-retail-pro,"Via San Martino, 145, 80046 San Giorgio a Cremano NA, Italy",145,Via San Martino,San Giorgio a Cremano,San Giorgio a Cremano,Città Metropolitana di Napoli,Campania,Italy,IT,80046,40.8356175,14.3307528
San Giorgio Tufarelli,"Via Tufarelli, 78, 80046 San Giorgio A C , NA","081 5960059, ",40.84421,14.34622,https://www.pampanorama.it/punti-vendita/san-giorgio-via-tufarelli-retail-pro,"Via Tufarelli, 78, 80046 San Giorgio a Cremano NA, Italy",78,Via Tufarelli,San Giorgio a Cremano,San Giorgio a Cremano,Città Metropolitana di Napoli,Campania,Italy,IT,80046,40.844182,14.3461642
Napoli Bartolo Longo,"Via Bartolo Longo, 298, 80147 Napoli , NA","081 5965451, ",40.84483,14.33866,https://www.pampanorama.it/punti-vendita/napoli-vi-bartolo-longo-retail-pro,"Via Bartolo Longo, 298, 80147 Napoli NA, Italy",298,Via Bartolo Longo,Napoli,Napoli,Città Metropolitana di Napoli,Campania,Italy,IT,80147,40.8447867,14.3385901
S.Giovanni A Teduccio,"Via Delle Marinare, 222, 80146 Napoli , NA","081 5721988, ",40.83763,14.31342,https://www.pampanorama.it/punti-vendita/s-giovanni-a-teduccio-retail-pro,"Via delle Repubbliche Marinare, 216, 80146 Napoli NA, Italy",216,Via delle Repubbliche Marinare,Napoli,San Giorgio a Cremano,Città Metropolitana di Napoli,Campania,Italy,IT,80146,40.8376083,14.3133171
Napoli Cilea,"Via Francesco Cilea, 85/87/89, 80127 Napoli , NA","0813508750, ",40.84318,14.2241,https://www.pampanorama.it/punti-vendita/napoli-cilea-retail-pro,"Via Francesco Cilea, 85, 80127 Napoli NA, Italy",85,Via Francesco Cilea,Napoli,Napoli,Città Metropolitana di Napoli,Campania,Italy,IT,80127,40.8431472,14.2240946
Pam Casalgrande,"Via Aldo Moro, 2 - 42013 Casalgrande (RE), Casalgrande , RE",", ",44.589649,10.739565,https://www.pampanorama.it/punti-vendita/pam-casalgrande,"Via Aldo Moro, 2, 42013 Casalgrande RE, Italy",2,Via Aldo Moro,Casalgrande,Casalgrande,Provincia di Reggio Emilia,Emilia-Romagna,Italy,IT,42013,44.5895823,10.7396779
Napoli Sigmund Freud,"Sigmund Freud, 81/89, 80131 Napoli , NA","081 5457330, ",40.86035,14.21916,https://www.pampanorama.it/punti-vendita/napoli-via-sigmund-freud-retail-pro,"Via Sigmund Freud, 81/89, 80131 Napoli NA, Italy",81/89,Via Sigmund Freud,Napoli,Napoli,Città Metropolitana di Napoli,Campania,Italy,IT,80131,40.8604133,14.219137
Pam Cercola,"Via Silvio Pellico, 25 Cercola (NA), Cercola ,",", ",,,https://www.pampanorama.it/punti-vendita/pam-cercola,"Via S. Pellico, 25, 80040 Cercola NA, Italy",25,Via S. Pellico,Cercola,Cercola,Città Metropolitana di Napoli,Campania,Italy,IT,80040,40.8587995,14.3595476
Napoli Volpicella,"Via Volpicella, 344, 80147 Napoli , NA","0815962165, ",40.8488,14.32472,https://www.pampanorama.it/punti-vendita/napoli-via-volpicella-retail-pro,"Napoli - Via Volpicella , 429, 80147 Napoli NA, Italy",,,Napoli,Napoli,Città Metropolitana di Napoli,Campania,Italy,IT,80147,40.848839,14.324661
Napoli C.P. Casanova,"Via Calata Ponte Casanova, 05/13, 80143 Napoli , NA","081 283976, ",40.857,14.27093,https://www.pampanorama.it/punti-vendita/napoli-via-c-p-casanova-retail-pro,"Vico Vasto a Casanova, 2, 80143 Napoli NA, Italy",2,Vico Vasto a Casanova,Napoli,Napoli,Città Metropolitana di Napoli,Campania,Italy,IT,80143,40.857048,14.2706984
Napoli Fiumicello,"Via Fiumicello A Loreto, 7, 80142 Napoli , NA","081 281081, ",40.847,14.26992,https://www.pampanorama.it/punti-vendita/napoli-via-fiumicello-retail-pro,"Via Loreto, 7, 80142 Napoli NA, Italy",7,Via Loreto,Napoli,Napoli,Città Metropolitana di Napoli,Campania,Italy,IT,80142,40.8470314,14.2699546
Ottaviano San Leonardo,"Via S.Leonardo, 117, 80044 Ottaviano , NA","081 5289636, ",40.84755,14.48496,https://www.pampanorama.it/punti-vendita/ottaviano-san-leonardo-retail-pro,"Via S. Leonardo, 166, 80044 Ottaviano NA, Italy",166,Via San Leonardo,Ottaviano,Ottaviano,Città Metropolitana di Napoli,Campania,Italy,IT,80044,40.8475325,14.48501
Napoli Caruso,"Via Severo Caruso, 4/8/10, 80129 Napoli , NA","810206295, ",40.84722,14.23204,https://www.pampanorama.it/punti-vendita/napoli-caruso-retail-pro,"Via Settimio Severo Caruso, 6, 80129 Napoli NA, Italy",6,Via Settimio Severo Caruso,Napoli,Napoli,Città Metropolitana di Napoli,Campania,Italy,IT,80129,40.847201,14.232047
Vignola,"Via Falcone e Borsellino, 94, 41058 Vignola , MO","059/9772451, ",44.4888992,11.0018997,https://www.pampanorama.it/punti-vendita/vignola,"Via per Sassuolo, 968, 41058 Vignola MO, Italy",968,Via per Sassuolo,Vignola,Vignola,Provincia di Modena,Emilia-Romagna,Italy,IT,41058,44.4887924,11.0018073
Pianura - Napoli,"Via Parmenide - 4/6, Napoli, Napoli , NA","0815888956, ",40.854813,14.174683,https://www.pampanorama.it/punti-vendita/pianura-napoli,"Via Parmenide, 10, 80126 Napoli NA, Italy",10,Via Parmenide,Napoli,Napoli,Città Metropolitana di Napoli,Campania,Italy,IT,80126,40.8546944,14.1746912
Napoli Francesco Arnaldi,"Via Francesco Arnaldi, 44/46, Napoli , NA",", ",40.8582,14.16774,https://www.pampanorama.it/punti-vendita/napoli-francesco-arnaldi,"Via Carlo Carrà, 46, 80126 Napoli NA, Italy",46,Via Carlo Carrà,Napoli,Napoli,Città Metropolitana di Napoli,Campania,Italy,IT,80126,40.8581521,14.1677096
Parma,"Via Silvio Pellico, 20, 43100 Parma , PR","0521/947811, ",44.7937012,10.3048,https://www.pampanorama.it/punti-vendita/parma,"Via Silvio Pellico, 28, 43125 Parma PR, Italy",28,Via Silvio Pellico,Parma,Parma,Provincia di Parma,Emilia-Romagna,Italy,IT,43125,44.7941098,10.3046465
Pam Carpaneto,"Via Pallastrelli, 1 – 29013 Carpaneto Piacentino (PC), Piacenza ,",", ",,,https://www.pampanorama.it/punti-vendita/pam-carpaneto,"Via Pallastrelli, 1, 29013 Carpaneto Piacentino PC, Italy",1,Via Pallastrelli,Carpaneto Piacentino,Carpaneto Piacentino,Provincia di Piacenza,Emilia-Romagna,Italy,IT,29013,44.9137366,9.785902499999999
PAM XXIV Maggio,"Via XXIV Maggio, 20 - 29021 Bettola (PC), Bettola , Piacenza",", ",,,https://www.pampanorama.it/punti-vendita/pam-xxiv-maggio,"Via XXIV Maggio, 20, 29012 Bettola PC, Italy",20,Via XXIV Maggio,Bettola,Bettola,Provincia di Piacenza,Emilia-Romagna,Italy,IT,29012,44.7771955,9.6051395
Pam Gossolengo,"Via dei Rivi, 62 - 29020 Gossolengo (PC), Gossolengo , Piacenza",", ",44.999954,9.61959,https://www.pampanorama.it/punti-vendita/pam-gossolengo,"Via Grazia Deledda, 25, 29020 Gossolengo PC, Italy",25,Via Grazia Deledda,Gossolengo,Gossolengo,Provincia di Piacenza,Emilia-Romagna,Italy,IT,29020,44.9998809,9.6197305
Battipaglia,"Corso Garibaldi - 21, Battipaglia , SA","334 94 10 261, ",40.61022,14.98476,https://www.pampanorama.it/punti-vendita/battipaglia,"Via Giuseppe Garibaldi, 39, 84091 Battipaglia SA, Italy",39,Via Giuseppe Garibaldi,Battipaglia,Battipaglia,Provincia di Salerno,Campania,Italy,IT,84091,40.6102449,14.984783
Eboli Bruno Buozzi,"Via Bruno Buozzi, 9, 84025 Eboli , SA","0828-1892524, ",40.615665,15.054671,https://www.pampanorama.it/punti-vendita/eboli-via-bruno-buozzi-retail-pro,"Via Bruno Buozzi, 9, 84025 Eboli SA, Italy",9,Via Bruno Buozzi,Eboli,Eboli,Provincia di Salerno,Campania,Italy,IT,84025,40.6156538,15.0546605
Eboli,"Via Veneto, 63, Eboli , SA",", ",40.61774,15.061038,https://www.pampanorama.it/punti-vendita/eboli-veneto,"Via Vittorio Veneto, 55, 84025 Eboli SA, Italy",55,Via Vittorio Veneto,Eboli,Eboli,Provincia di Salerno,Campania,Italy,IT,84025,40.6177859,15.0609607
Eboli Tavoliello,"Via Tavoliello, 195, 84025 Eboli , SA","0828 366397, ",40.61653,15.07191,https://www.pampanorama.it/punti-vendita/eboli-via-tavoliello-retail-pro,"Viale Tavoliello, 195, 84025 Eboli SA, Italy",195,Viale Tavoliello,Eboli,Eboli,Provincia di Salerno,Campania,Italy,IT,84025,40.6167168,15.0715347
Imola,"Via Zello, 1/A, 40026 Imola , BO","054/231054, ",44.3440018,11.7396002,https://www.pampanorama.it/punti-vendita/imola,"Viale Carlo Pisacane, 999, 40026 Imola BO, Italy",999,Viale Carlo Pisacane,Imola,Imola,Città Metropolitana di Bologna,Emilia-Romagna,Italy,IT,40026,44.3439089,11.7394169
Imola Punta,"Via Punta, 1 – 40026 Imola (BO), Imola , BO",", ",,,https://www.pampanorama.it/punti-vendita/imola-punta,"Via Punta, 1, 40026 Imola BO, Italy",1,Via Punta,Imola,Imola,Città Metropolitana di Bologna,Emilia-Romagna,Italy,IT,40026,44.3417357,11.6866017
Omignano Scalo Via Nazionale,"Via Nazionale, 6, 84070 Omignano Scalo , SA","0974 716028, ",40.25736,15.13359,https://www.pampanorama.it/punti-vendita/omignano-scalo-via-nazionale-retail-pro,"Via Nazionale, 9, 84060 Fasana SA, Italy",9,Via Nazionale,Fasana,Omignano,Provincia di Salerno,Campania,Italy,IT,84060,40.2573042,15.133656
Capaccio Fraz. Licinella,"Via Cesare Pavese, 48, 84047 Capaccio Paestum , SA","0828 721155, ",40.40413,15.00495,https://www.pampanorama.it/punti-vendita/capaccio-fraz-licinella-retail-pro,"Via Cesare Pavese, 48, 84047 Capaccio Paestum SA, Italy",48,Via Cesare Pavese,Licinella-Torre di Paestum,Capaccio Paestum,Provincia di Salerno,Campania,Italy,IT,84047,40.4041529,15.0049614
Ravenna Diaz,"Via Armando Diaz, 19-21, 48121 Ravenna , RA","0544 1881618, ",44.418054,12.201348,https://www.pampanorama.it/punti-vendita/pam-local-ravenna-diaz,"Via Armando Diaz, 17, 48121 Ravenna RA, Italy",17,Via Armando Diaz,Ravenna,Ravenna,Provincia di Ravenna,Emilia-Romagna,Italy,IT,48121,44.4180726,12.2013771
Pam Fogliano,"Via Louis Daniel Armstrong 2, 42122 Fogliano (RE), Fogliano , RE",", ",44.651803,10.643837,https://www.pampanorama.it/punti-vendita/pam-fogliano,"Via Louis Daniel Armstrong, 2/L, 42123 Fogliano RE, Italy",2,Via Louis Daniel Armstrong,Fogliano,Reggio nell'Emilia,Provincia di Reggio Emilia,Emilia-Romagna,Italy,IT,42123,44.65185109999999,10.64395
Pam Quinzio,"Via Alberto Ferioli, 18 – 42122 Reggio nell’Emilia (RE) Centro commerciale Quinzio, Reggio Emilia , reggio emilia",", ",,,https://www.pampanorama.it/punti-vendita/pam-quinzio,"Via Alberto Ferioli, 18, 42122 Reggio Emilia RE, Italy",18,Via Alberto Ferioli,Reggio Emilia,Reggio nell'Emilia,Provincia di Reggio Emilia,Emilia-Romagna,Italy,IT,42122,44.6831061,10.6626219
Reggio Emilia,"Via Emilia San Pietro, 49, 42121 Reggio Emilia , RE","0522/046413, ",44.6959,10.6377001,https://www.pampanorama.it/punti-vendita/reggio-emilia,"Via Giorgione, 2, 42121 Reggio Emilia RE, Italy",2,Via Giorgione,Reggio Emilia,Reggio nell'Emilia,Provincia di Reggio Emilia,Emilia-Romagna,Italy,IT,42121,44.69584,10.637631
Atripalda Cassese,"Piazza Cassese, 10, 83042 Atripalda , AV","0825 610237, ",40.91825,14.82955,https://www.pampanorama.it/punti-vendita/atripalda-p-zza-cassese-retail-pro,"Via Leopoldo Cassese, 14, 83042 Atripalda AV, Italy",14,Via Leopoldo Cassese,Atripalda,Atripalda,Provincia di Avellino,Campania,Italy,IT,83042,40.918199,14.8295486
Atripalda San Lorenzo,"Via San Lorenzo, 36, 83042 Atripalda , AV","0825 1728016, ",40.9201964,14.8248815,https://www.pampanorama.it/punti-vendita/atripalda-san-lorenzo,"Contrada S. Lorenzo, 36, 83042 Atripalda AV, Italy",36,Contrada San Lorenzo,Atripalda,Atripalda,Provincia di Avellino,Campania,Italy,IT,83042,40.9202277,14.8254795
Avellino Due Principati,"Via Due Principati, 32, 83100 Avellino , AV","0825 769123, ",40.91306,14.79231,https://www.pampanorama.it/punti-vendita/avellino-san-tommaso-retail-pro,"Via dei Due Principati, 34, 83100 Avellino AV, Italy",34,Via dei Due Principati,Avellino,Avellino,Provincia di Avellino,Campania,Italy,IT,83100,40.913025,14.7923584
Contrada Nazionale,"Via Nazionale, 27, 83020 Contrada , AV","0825 674492, ",40.87047,14.77744,https://www.pampanorama.it/punti-vendita/contrada-via-nazionale-retail-pro,"PAM Franchising, Via Nazionale, 27, 83020 Contrada AV, Italy",27,Via Nazionale,Contrada,Contrada,Provincia di Avellino,Campania,Italy,IT,83020,40.8702932,14.7775012
Ariano Irpino Fontananuova,"Via Fontananuova, SNC, 83031 Ariano Irpino , AV","0825872203, ",41.1552,15.09833,https://www.pampanorama.it/punti-vendita/ariano-irpino-fontananuova-retail-pro,"Via Fontananuova, 68, 83031 Ariano Irpino AV, Italy",68,Via Fontananuova,,Ariano Irpino,Provincia di Avellino,Campania,Italy,IT,83031,41.1550695,15.098451
Ariano Irpino Cda Cardito,"Via Cardito, SNC, 83031 Ariano Irpino , AV","0825892222, ",41.13713,15.08192,https://www.pampanorama.it/punti-vendita/ariano-irpino-cda-cardito-retail-pro,"Via Cardito, 96, 83031 Ariano Irpino AV, Italy",96,Via Cardito,Ariano Irpino,Ariano Irpino,Provincia di Avellino,Campania,Italy,IT,83031,41.1371071,15.0818748
Ariano Irpino Martiri,"Via dei Martiri, SNC, 83031 Ariano Irpino , AV","0825824521, ",41.16162,15.11185,https://www.pampanorama.it/punti-vendita/ariano-irpino-via-martiri-retail-pro,"Via Martiri, snc, 83031 Ariano Irpino AV, Italy",snc,Via Martiri,Ariano Irpino,Ariano Irpino,Provincia di Avellino,Campania,Italy,IT,83031,41.1615066,15.1118512
Avellino Cda Scrofeta,"Contrada Scrofeta, SNC, 83100 Avellino , AV","0825 39565, ",40.93344,14.80068,https://www.pampanorama.it/punti-vendita/avellino-cda-scrofeta-retail-pro,"Contrada Scrofeta, 4, 83100 Avellino AV, Italy",4,Contrada Scrofeta,,Avellino,Provincia di Avellino,Campania,Italy,IT,83100,40.9333764,14.8005376
Grottaminarda Cda Piani,"Contrada Piani, SNC, 83035 Grottaminarda , AV","0825445375, ",41.0671,15.0793,https://www.pampanorama.it/punti-vendita/grottaminarda-cda-piani-retail-pro,"Contrada Piani, 42, 83035 Grottaminarda AV, Italy",42,Contrada Piani,,Grottaminarda,Provincia di Avellino,Campania,Italy,IT,83035,41.0670406,15.079262
Mirabella San Michele,"Via S.Michele C/C. Il Carro, SNC, 83036 Mirabella Eclano , AV","0825 449849, ",41.0534,15.0223,https://www.pampanorama.it/punti-vendita/mirabella-via-san-michele-retail-pro,"SS303, 48, 83036 Passo di Mirabella-pianopantano AV, Italy",48,SS303,Passo di Mirabella-pianopantano,Mirabella Eclano,Provincia di Avellino,Campania,Italy,IT,83036,41.0534045,15.0223152
Mirabella Calore,"Via Nazionale Calore, SNC, 83036 Mirabella Eclano , AV","0285-431015, ",41.05343,14.95453,https://www.pampanorama.it/punti-vendita/mirabella-via-calore-retail-pro,"SS90, 90, 83036 Calore AV, Italy",90,SS90,Calore,Mirabella Eclano,Provincia di Avellino,Campania,Italy,IT,83036,41.05331899999999,14.954388
Pietradefusi Industrie,"Via Delle Industrie Zona Pip, SNC, 83030 Pietradefusi , AV","0825 962604, ",41.04017,14.89898,https://www.pampanorama.it/punti-vendita/pietradefusi-v-industrie-retail-pro,"Via dell'Industria, 8, 83030 Pietradefusi AV, Italy",8,Via dell'Industria,P.i.p. Dentecane,Pietradefusi,Provincia di Avellino,Campania,Italy,IT,83030,41.0399748,14.8989254
Lioni Serro di Morra,"Via Serro di Morra, 6, Avellino , AV",", ",40.87874,15.19116,https://www.pampanorama.it/punti-vendita/lioni-serro-di-morra,"Via Serro di Morra, 6, 83047 Lioni AV, Italy",6,Via Serro di Morra,Lioni,Lioni,Provincia di Avellino,Campania,Italy,IT,83047,40.8786037,15.1910797
Bentivoglio,"Via Marconi 48, 40010 Bentivoglio , BO","0516643224, ",44.63572,11.418095,https://www.pampanorama.it/punti-vendita/pam-bentivoglio,"Via Marconi, 48/A, 40010 Bentivoglio BO, Italy",48/A,Via Marconi,Bentivoglio,Bentivoglio,Città Metropolitana di Bologna,Emilia-Romagna,Italy,IT,40010,44.6357581,11.4181296
Bologna Bellaria,"Via Bellaria, 47, 40139 Bologna , BO","051/544759, ",44.4760017,11.3870001,https://www.pampanorama.it/punti-vendita/bologna-bellaria,"Via Bellaria, 47, 40139 Bologna BO, Italy",47,Via Bellaria,Bologna,Bologna,Città Metropolitana di Bologna,Emilia-Romagna,Italy,IT,40139,44.4759552,11.3870762
San Giorgio Del Sannio,"Via Falcone E Borsellino, SNC, 82018 San Giorgio Del Sannio , BN",", ",41.0678,14.85626,https://www.pampanorama.it/punti-vendita/san-giorgio-del-sannio-retail-pro,"Via Falcone - Borsellino, 9, 82018 San Giorgio del Sannio BN, Italy",9,Via Falcone - Borsellino,San Giorgio del Sannio,San Giorgio del Sannio,Provincia di Benevento,Campania,Italy,IT,82018,41.0678904,14.8562537
Taurasi Maffei,"Via Maffei, SNC, 83030 Taurasi , AV",", ",41.00909,14.95492,https://www.pampanorama.it/punti-vendita/taurasi-via-maffei-retail-pro,"Via Ettore Maffei, 6A, 83030 Taurasi AV, Italy",6A,Via Ettore Maffei,Taurasi,Taurasi,Provincia di Avellino,Campania,Italy,IT,83030,41.0090069,14.9550307
Lignano Sabbiadoro,"V.le Europa, 33/34, 33054 Lignano Sabbiadoro , UD","0431/722151, ",45.6809998,13.1149998,https://www.pampanorama.it/punti-vendita/lignano-sabbiadoro,"Villaggio Tarvisio, 2, 33054 Lignano Sabbiadoro UD, Italy",2,Villaggio Tarvisio,Lignano Sabbiadoro,Lignano Sabbiadoro,Ente di decentramento regionale di Udine,Friuli-Venezia Giulia,Italy,IT,33054,45.68090489999999,13.115597
Bologna Corticella 2,"Via di Corticella, 101, Bologna , BO",", ",44.5490591,11.3551801,https://www.pampanorama.it/punti-vendita/pam-di-bologna,"Via di Corticella, 295/2, 40128 Bologna BO, Italy",295/2,Via di Corticella,Bologna,Bologna,Città Metropolitana di Bologna,Emilia-Romagna,Italy,IT,40128,44.5490494,11.3551905
Bologna Castel San Pietro Terme,"Via Emilia Ponente, 211, 40024 Bologna , BO","05119987531, ",44.41706,11.54953,https://www.pampanorama.it/punti-vendita/bologna-castelpietro,"Gallo, Gallo BO, Italy",,,Gallo,Castel San Pietro Terme,Città Metropolitana di Bologna,Emilia-Romagna,Italy,IT,,44.417082,11.549541
Pam Imola,"Via G. Di Vittorio, 70 - 40026 Imola (BO), Imola , BO",", ",,,https://www.pampanorama.it/punti-vendita/pam-imola,"Via Giuseppe di Vittorio, 70, 40026 Imola BO, Italy",70,Via Giuseppe di Vittorio,Imola,Dozza,Città Metropolitana di Bologna,Emilia-Romagna,Italy,IT,40026,44.3819896,11.6502909
Spilimbergo,"Via Cavour, 57, 33097 Spilimbergo , PN","0427/40259, ",46.1110001,12.8936005,https://www.pampanorama.it/punti-vendita/spilimbergo,"via della repubblica, 49, 33097 Spilimbergo PN, Italy",49,via della repubblica,Spilimbergo,Spilimbergo,Provincia di Pordenone,Friuli-Venezia Giulia,Italy,IT,33097,46.11102500000001,12.8934833
Sturno Aufiero,"Via Aufiero, 7, 83055 Sturno , AV","0825-448524, ",41.01741,15.10984,https://www.pampanorama.it/punti-vendita/sturno-via-f-aufiero-retail-pro,"Via Francesco Aufiero, 10, 83055 Sturno AV, Italy",10,Via Francesco Aufiero,Sturno,Sturno,Provincia di Avellino,Campania,Italy,IT,83055,41.0173994,15.1097135
Benevento,"Via Ruffilli - 3, Benevento , BN",", ",41.11746250423804,14.79645392763751,https://www.pampanorama.it/punti-vendita/benevento,"Via Roberto Ruffilli, 3, 82100 Benevento BN, Italy",3,Via Roberto Ruffilli,Benevento,Benevento,Provincia di Benevento,Campania,Italy,IT,82100,41.1175424,14.7964576
Benevento Oderisio,"Via Oderisio, 3/5, 82100 Benevento , BN","0824315524, ",41.13052,14.78364,https://www.pampanorama.it/punti-vendita/benevento-via-oderisio,"Via Oderisio da Benevento, 3, 82100 Benevento BN, Italy",3,Via Oderisio da Benevento,Benevento,Benevento,Provincia di Benevento,Campania,Italy,IT,82100,41.1305156,14.7835385
Benevento Napoli,"Via Napoli, 123, 82100 Benevento , BN","0824 363144, ",41.1232,14.7734,https://www.pampanorama.it/punti-vendita/benevento-via-napoli-retail-pro,"Via Napoli, 121, 82100 Benevento BN, Italy",121,Via Napoli,Benevento,Benevento,Provincia di Benevento,Campania,Italy,IT,82100,41.1232274,14.7735698
Pordenone Garibaldi,"C.so Garibaldi, 30, 33170 Pordenone , PN","0434/28016, ",45.9603005,12.6569004,https://www.pampanorama.it/punti-vendita/pordenone-garibaldi,"Corso Garibaldi, 30, 33170 Pordenone PN, Italy",30,Corso Garibaldi,Pordenone,Pordenone,Provincia di Pordenone,Friuli-Venezia Giulia,Italy,IT,33170,45.9603,12.6569
Pordenone Grigoletti,"Via Grigoletti, 74, 33170 Pordenone , PN","0434/366892, ",45.96551330263758,12.64464736445893,https://www.pampanorama.it/punti-vendita/pordenone-grigoletti,"Viale Michelangelo Grigoletti, 74, 33170 Pordenone PN, Italy",74,Viale Michelangelo Grigoletti,Pordenone,Pordenone,Provincia di Pordenone,Friuli-Venezia Giulia,Italy,IT,33170,45.9655772,12.6447621
Airola,"Via Lavatoio - 104, Airola , BN",", ",41.061903,14.567714,https://www.pampanorama.it/punti-vendita/airola,"Via Lavatoio, 104, 82011 Airola BN, Italy",104,Via Lavatoio,Airola,Airola,Provincia di Benevento,Campania,Italy,IT,82011,41.0620046,14.5675553
Moiano Variante,"Via Variante Caudina SP16, 26, 80069 Moiano , BN","3516913052, ",41.07637,14.54996,https://www.pampanorama.it/punti-vendita/moiano-via-variante-retail-pro,"Via Variante Caudina, SP16, 26, 82010 Moiano BN, Italy",26,SP16,,Moiano,Provincia di Benevento,Campania,Italy,IT,82010,41.0760084,14.5501144
Cervinara Rettifilo,"Via Rettifilo, 38, 83012 Cervinara , AV","0824 1810464, ",41.02543,14.61502,https://www.pampanorama.it/punti-vendita/cervinara-via-rettifilo-retail-pro,"Via Rettifilo, 51, 83012 Cervinara AV, Italy",51,Via Rettifilo,Cervinara,Cervinara,Provincia di Avellino,Campania,Italy,IT,83012,41.0253723,14.6148573
Montesarchio,"Via Napoli, 82016 Montesarchio BN, Montesarchio , BN",", ",41.061424,14.635149,https://www.pampanorama.it/punti-vendita/montesarchio,"Via Napoli, 34, 82016 Montesarchio BN, Italy",34,Via Napoli,Montesarchio,Montesarchio,Provincia di Benevento,Campania,Italy,IT,82016,41.0613317,14.6350205
Montesarchio S.Martino,"Via San Martino Vescovo, 149A, 82016 Montesarchio , BN",", ",41.05833,14.64431,https://www.pampanorama.it/punti-vendita/montesarchio-v-smartino-retail-pro,"Via S. Martino, 149A, 82016 Montesarchio BN, Italy",149A,Via San Martino,Montesarchio,Montesarchio,Provincia di Benevento,Campania,Italy,IT,82016,41.058252,14.6445166
San Martino Valle Caudina,"Via San Martino Vescovo, 5, 83018 San Martino Valle Caudina , AV","0824 841034, ",41.02713,14.66325,https://www.pampanorama.it/punti-vendita/san-martino-valle-caudina-retail-pro,"Via S. Martino Vescovo, 5, 83018 San Martino Valle Caudina AV, Italy",5,Via San Martino Vescovo,San Martino Valle Caudina,San Martino Valle Caudina,Provincia di Avellino,Campania,Italy,IT,83018,41.0270713,14.6632787
Foglianise Provinciale Vitulanese,"Via Provinciale Vitulanese SNC, 82030 Foglianise , BN",", ",41.16018,14.67107,https://www.pampanorama.it/punti-vendita/foglianise-via-provinciale-vitulanese-snc-retail-pro,"Via Roma, 27, 82030 Foglianise BN, Italy",27,Via Roma,Foglianise,Foglianise,Provincia di Benevento,Campania,Italy,IT,82030,41.1602747,14.670853
Sant'Agata Dei Goti Cap.,"Via Cappellino, SNC, 82019 Sant'Agata De' Goti , BN","3791338758, ",41.09522,14.48992,https://www.pampanorama.it/punti-vendita/sant-agata-dei-goti-cap-retail-pro,"Via Capellino, Snc, 82019 Sant'Agata de' Goti BN, Italy",Snc,Via Capellino,,Sant'Agata de' Goti,Provincia di Benevento,Campania,Italy,IT,82019,41.0949282,14.4902964
Torrecuso Cda Collepiano,"Contrada Collepiano, SNC, 82030 Torrecuso , BN","0824 875485, ",41.20752,14.69851,https://www.pampanorama.it/punti-vendita/torrecuso-cda-collepiano-retail-pro,"SP4, 82030 Torrecuso BN, Italy",,Strada Provinciale 4,,Torrecuso,Provincia di Benevento,Campania,Italy,IT,82030,41.2074852,14.6985237
Udine Sud,"Viale Palmanova, 109, 33100 Udine , UD","0432/627011, ",46.0523987,13.2468996,https://www.pampanorama.it/punti-vendita/panorama-udine-sud,"Via Melegnano, 110, 33100 Udine UD, Italy",110,Via Melegnano,Udine,Udine,Ente di decentramento regionale di Udine,Friuli-Venezia Giulia,Italy,IT,33100,46.0524587,13.2468498
Udine Battisti,"Via Battisti, 9, 33100 Udine , UD","373 8864192, ",46.060512,13.233766,https://www.pampanorama.it/punti-vendita/pam-udine-battisti,"Via Cesare Battisti, 19, 33100 Udine UD, Italy",19,Via Cesare Battisti,Udine,Udine,Ente di decentramento regionale di Udine,Friuli-Venezia Giulia,Italy,IT,33100,46.0605129,13.2337472
Udine,"Viale Venezia, 327/329, 33010 Udine , UD","0432537600, ",46.0536995,13.2135,https://www.pampanorama.it/punti-vendita/panorama-udine,"Viale Venezia, 328, 33100 Udine UD, Italy",328,Viale Venezia,Udine,Udine,Ente di decentramento regionale di Udine,Friuli-Venezia Giulia,Italy,IT,33100,46.0536869,13.2135387
Trieste Elisi,"Via Campi Elisi-ang.Via D'Aviano, 34143 Trieste , TS","040/767923, ",45.6419983,13.7679997,https://www.pampanorama.it/punti-vendita/trieste-elisi,"Via Antonio Madonizza, 7, 34143 Trieste TS, Italy",7,Via Antonio Madonizza,Trieste,Trieste,Provincia di Trieste,Friuli-Venezia Giulia,Italy,IT,34143,45.6418536,13.7678681
Trieste Battisti,"Via Battisti, 22, 34125 Trieste , TS","040/9852437, ",45.6534004,13.7792997,https://www.pampanorama.it/punti-vendita/trieste-battisti,"Via S. Francesco D'Assisi, 20, 34133 Trieste TS, Italy",20,Via San Francesco D'Assisi,Trieste,Trieste,Provincia di Trieste,Friuli-Venezia Giulia,Italy,IT,34133,45.65332739999999,13.7792528
Trieste Miramare,"Via Miramare, 1, 34135 Trieste , TS","040/4261004, ",45.6577988,13.7728005,https://www.pampanorama.it/punti-vendita/trieste-miramare-ra,"V.le Miramare, 3/B, 34135 Trieste TS, Italy",3/B,Viale Miramare,Trieste,Trieste,Provincia di Trieste,Friuli-Venezia Giulia,Italy,IT,34135,45.6577577,13.772816
Trieste Giulia,"Via Giulia, 75/3, 34126 Trieste , TS","040/571470, ",45.6553001,13.7945995,https://www.pampanorama.it/punti-vendita/trieste-giulia,"Via Giulia, 75/3, 34126 Trieste TS, Italy",75/3,Via Giulia,Trieste,Trieste,Provincia di Trieste,Friuli-Venezia Giulia,Italy,IT,34126,45.65529360000001,13.7947123
Trieste Stock,"Via Lionello Stock, 4, 34135 Trieste , TS","040/4528146, ",45.6649017,13.7707005,https://www.pampanorama.it/punti-vendita/trieste-stock,"Via Lionello Stock, 44, 34135 Trieste TS, Italy",44,Via Lionello Stock,Trieste,Trieste,Provincia di Trieste,Friuli-Venezia Giulia,Italy,IT,34135,45.6650093,13.7706657
Cassino,"Viale Dante, 65, 03043 Cassino , FR","077621391, ",41.489159,13.830384,https://www.pampanorama.it/punti-vendita/pam-cassino,"Viale Dante, 65, 03043 Cassino FR, Italy",65,Viale Dante,Cassino,Cassino,Provincia di Frosinone,Lazio,Italy,IT,03043,41.4892219,13.8304045
Cassino,"Via Casilina Sud, 141, 03043 Cassino , FR","0776/37081, ",41.4840012,13.8610001,https://www.pampanorama.it/punti-vendita/panorama-cassino,"Via Casilina, 50, 03043 San Bartolomeo FR, Italy",50,Via Casilina,San Bartolomeo,Cassino,Provincia di Frosinone,Lazio,Italy,IT,03043,41.48375670000001,13.8617884
Genova Archi,"Via alla Porta degli Archi, 48 - salita Salvatore Viale 11r, 16121 Genova , GE","010 0954181‬, ",44.4057,8.93796,https://www.pampanorama.it/punti-vendita/pam-genova-archi,"Via alla Porta degli Archi, 54, 16128 Genova GE, Italy",54,Via alla Porta degli Archi,Genova,Genova,Città Metropolitana di Genova,Liguria,Italy,IT,16128,44.4057332,8.9379169
Genova Fiasella,"Via Fiasella, 81, 16121 Genova , GE","010/0898120, ",44.40399,8.94134,https://www.pampanorama.it/punti-vendita/pam-fiasella,"5/R. Via Fiasella Domenico, Genova, GE 16121, 16121 Genova GE, Italy",,,Genova,Genova,Città Metropolitana di Genova,Liguria,Italy,IT,16121,44.40394999999999,8.94131
Genova Galata,"Via Galata, 50b rosso, 16121 Genova , GE","010/8174164, ",44.4067993,8.9436503,https://www.pampanorama.it/punti-vendita/genova-galata,"Via S. Vincenzo, 76r, 16121 Genova GE, Italy",76r,Via San Vincenzo,Genova,Genova,Città Metropolitana di Genova,Liguria,Italy,IT,16121,44.4068677,8.9436383
Genova Ruspoli,"Via Ruspoli, 53, 16129 Genova , GE","010 7967171, ",44.398897,8.94679,https://www.pampanorama.it/punti-vendita/genova-ruspoli,"Via Eugenio Ruspoli, 53, 16129 Genova GE, Italy",53,Via Eugenio Ruspoli,Genova,Genova,Città Metropolitana di Genova,Liguria,Italy,IT,16129,44.3988591,8.946989199999999
Genova Lagaccio,"Via Lagaccio, 48/R, 16158 Genova , GE","010/2850054, ",44.4244995,8.9163704,https://www.pampanorama.it/punti-vendita/genova-lagaccio,"Via del Lagaccio, 46, 16127 Genova GE, Italy",46,Via del Lagaccio,Genova,Genova,Città Metropolitana di Genova,Liguria,Italy,IT,16127,44.4244486,8.9163614
Genova Manuzio,"Via Manuzio, 11, 16143 Genova , GE","010/500044, ",44.408699,8.9658804,https://www.pampanorama.it/punti-vendita/genova-manuzio,"Via Aldo Manuzio, 11, 16143 Genova GE, Italy",11,Via Aldo Manuzio,Genova,Genova,Città Metropolitana di Genova,Liguria,Italy,IT,16143,44.4086897,8.965849799999999
Genova Cantore,"via Cantore 99 Rosso, 16149 Genova , GE","010/8174760, ",44.4108009,8.9035397,https://www.pampanorama.it/punti-vendita/genova-cantore,"Via Antonio Cantore, 11/A/Int.3, 16149 Genova GE, Italy",11/A,Via Antonio Cantore,Genova,Genova,Città Metropolitana di Genova,Liguria,Italy,IT,16149,44.4107908,8.9035814
Genova Ragazzi,"Piazza Ragazzi del '99, 5, 16132 Genova , GE","010392549, ",44.400341,8.98162,https://www.pampanorama.it/punti-vendita/pam-genova-ragazzi,"Via Brenta, 3, 16147 Genova GE, Italy",3,Via Brenta,Genova,Genova,Città Metropolitana di Genova,Liguria,Italy,IT,16147,44.4003629,8.9815965
Genova Chiaravagna,"Via Chiaravagna, 54R, 16153 Genova , GE","010/8981109, ",44.4337006,8.8545303,https://www.pampanorama.it/punti-vendita/genova-chiaravagna,"V. Chiaravagna, 22 R, 16153 Genova GE, Italy",22 R,Via Chiaravagna,Genova,Genova,Città Metropolitana di Genova,Liguria,Italy,IT,16153,44.4336664,8.8545205
Genova Sestri,"Via Sestri Ponente, 46, 16154 Genova , GE","010/2899008, ",44.425117,8.847595,https://www.pampanorama.it/punti-vendita/genova-sestri,"Via Sestri, 19/3, 16154 Genova GE, Italy",19/3,Via Sestri,Genova,Genova,Città Metropolitana di Genova,Liguria,Italy,IT,16154,44.42514620000001,8.8477116
Brescia,"Via F.lli Porcellaga, 26 - ang. Via Malvezzi, 25122 Brescia , BS","030/40325, ",45.5387993,10.2168999,https://www.pampanorama.it/punti-vendita/brescia,"Via Giacomo Malvezzi, 3, 25122 Brescia BS, Italy",3,Via Giacomo Malvezzi,Brescia,Brescia,Provincia di Brescia,Lombardia,Italy,IT,25122,45.53879500000001,10.2169065
Alatri,"Via Casilina Nord, Km 81,6, 03011 Alatri , FR","0775/8271, ",41.6570015,13.3233995,https://www.pampanorama.it/punti-vendita/panorama-alatri,"Via Casilina, 81.600, 03011 Alatri FR, Italy",81.600,Via Casilina,Alatri,Frosinone,Provincia di Frosinone,Lazio,Italy,IT,03011,41.6570363,13.321806
Quinzano D'Oglio,"Via De Gasperi, 3, 25027 Quinzano D'Oglio , BS","030933002, ",45.312458,10.007159,https://www.pampanorama.it/punti-vendita/pam-quinzano-d-oglio,"Via Alcide de Gasperi, 3, 25027 Quinzano d'Oglio BS, Italy",3,Via Alcide de Gasperi,Quinzano d'Oglio,Quinzano d'Oglio,Provincia di Brescia,Lombardia,Italy,IT,25027,45.3124319,10.0072159
Bordighera,"Via dei Colli, 3, 18012 Bordighera , IM","0184 260737, ",,,https://www.pampanorama.it/punti-vendita/bordighera,"Via dei Colli, 3, 18012 Bordighera IM, Italy",3,Via dei Colli,Bordighera,Bordighera,Provincia di Imperia,Liguria,Italy,IT,18012,43.7800202,7.673993
Sanremo Agosti,"Via Pietro Agosti, 307, 18038 Sanremo , IM","0184 1912048, ",43.82293,7.76586,https://www.pampanorama.it/punti-vendita/pam-sanremo-agosti,"Via Pietro Agosti, 213, 18038 Sanremo IM, Italy",213,Via Pietro Agosti,Sanremo,Sanremo,Provincia di Imperia,Liguria,Italy,IT,18038,43.82286209999999,7.765769799999999
Sanremo,"Piazza Colombo, ang. Via Canessa, 1, Sanremo , IM","0184 1914484‬, ",43.8187,7.77774,https://www.pampanorama.it/punti-vendita/sanremo,"Piazza Cristoforo Colombo, 17, 18038 Sanremo IM, Italy",17,Piazza Cristoforo Colombo,Sanremo,Sanremo,Provincia di Imperia,Liguria,Italy,IT,18038,43.818705,7.7777154
Cervo,"Piazza Martiri della Libertà, 3, 18018 Cervo , IM","0183/409486, ",43.92546,8.11005,https://www.pampanorama.it/punti-vendita/cervo,"Piazza Martiri della Libertà, 2, 18010 Cervo IM, Italy",2,Piazza Martiri della Libertà,Cervo,Cervo,Provincia di Imperia,Liguria,Italy,IT,18010,43.9254435,8.1101528
San Bartolomeo al Mare,"Via Aurelia, 136, 18016 San Bartolomeo al mare , IM","0183 408300, ",43.92049,8.09859,https://www.pampanorama.it/punti-vendita/san-bartolomeo,"Via Aurelia, 128, 18016 San Bartolomeo al Mare IM, Italy",128,Via Aurelia,San Bartolomeo al Mare,San Bartolomeo al Mare,Provincia di Imperia,Liguria,Italy,IT,18016,43.9204932,8.0986396
Diano Marina Kennedy,"Viale Kennedy, 107, 18013 Diano Marina , IM","0183 402924, ",43.913475,8.086075,https://www.pampanorama.it/punti-vendita/diano-marina-kennedy-107,"Viale Kennedy, 103, 18013 Diano Marina IM, Italy",103,Viale Kennedy,Diano Marina,Diano Marina,Provincia di Imperia,Liguria,Italy,IT,18013,43.9134505,8.086029
Diano Marina,"Via Biancheri, 32, 18013 Diano Marina , IM","0183 493127, ",43.91022,8.08203,https://www.pampanorama.it/punti-vendita/diano-marina,"Via Biancheri, 4, 18013 Diano Marina IM, Italy",4,Via Biancheri,Diano Marina,Diano Marina,Provincia di Imperia,Liguria,Italy,IT,18013,43.9102003,8.0820666
Imperia Bianchi,"Piazza Bianchi, 13, 18100 Imperia , IM","0183 753799, ",43.88933,8.04251,https://www.pampanorama.it/punti-vendita/imperia-bianchi,"Piazza G. Bianchi, 13, 18100 Imperia IM, Italy",13,Piazza G. Bianchi,Imperia,Imperia,Provincia di Imperia,Liguria,Italy,IT,18100,43.8893415,8.042549
Imperia Repubblica,"Via della Repubblica, 28, 18100 Imperia , IM","0183 754219, ",43.88999,8.03827,https://www.pampanorama.it/punti-vendita/imperia-repubblica,"Via della Repubblica, 28, 18100 Imperia IM, Italy",28,Via della Repubblica,Imperia,Imperia,Provincia di Imperia,Liguria,Italy,IT,18100,43.8899887,8.0382664
Laigueglia,"Via Roma, 36D, 17053 Liguria , SV","0182 1905360, ",43.97624,8.15781,https://www.pampanorama.it/punti-vendita/laigueglia,"Via Roma, 36D, 17053 Laigueglia SV, Italy",36D,Via Roma,Laigueglia,Laigueglia,Provincia di Savona,Liguria,Italy,IT,17053,43.9761903,8.1578074
Imperia Aurelia,"via Aurelia, 2, 18100 Imperia , IM","0183 654125, ",43.86965,8.0015,https://www.pampanorama.it/punti-vendita/imperia-aurelia,"SS 1, 2/7, 18100 Imperia IM, Italy",2/7,Strada Statale 1,Imperia,Imperia,Provincia di Imperia,Liguria,Italy,IT,18100,43.86976,8.001351
Taggia,"Viale Mazzini, 12, 18018 TAGGIA , IM","0184 462464, ",43.860633,7.853687,https://www.pampanorama.it/punti-vendita/taggia,"Viale Giuseppe Mazzini, 28, 18018 Taggia IM, Italy",28,Viale Giuseppe Mazzini,Taggia,Taggia,Provincia di Imperia,Liguria,Italy,IT,18018,43.8606477,7.853669600000001
Molteno,"Via Alcide de Gasperi 14 – 23847 Molteno (LC), Molteno , LC",", ",45.777129,9.309877,https://www.pampanorama.it/punti-vendita/pam-molteno,"Via A. De Gasperi, 8, 23847 Molteno LC, Italy",8,Via A. De Gasperi,Molteno,Molteno,Provincia di Lecco,Lombardia,Italy,IT,23847,45.7771622,9.3101556
Formia,"Via del Commercio, 3 - Località Santa Croce, 04023 Formia , LT","0771/738800, ",41.2672005,13.6724997,https://www.pampanorama.it/punti-vendita/formia,"Via Mamurrano, Formia, LT 04023, 04023 Formia LT, Italy",,,,Formia,Provincia di Latina,Lazio,Italy,IT,04023,41.2672006,13.6723915
La Spezia,"Piazza Kennedy, 34, 19124 La Spezia , SP","0187026181, ",44.112516,9.835811,https://www.pampanorama.it/punti-vendita/pam-la-spezia,"Piazza John Fitzgerald Kennedy, 33, 19124 La Spezia SP, Italy",33,Piazza John Fitzgerald Kennedy,La Spezia,La Spezia,Provincia della Spezia,Liguria,Italy,IT,19124,44.1125506,9.8357824
Fosdinovo,"V.le Malaspina, 1, 54035 Fosdinovo , MS","0187/675428, ",44.0974999,9.9869604,https://www.pampanorama.it/punti-vendita/fosdinovo,"Viale Malaspina, 13, 54035 Borghetto-melara MS, Italy",13,Viale Malaspina,Borghetto-melara,Fosdinovo,Provincia di Massa e Carrara,Toscana,Italy,IT,54035,44.0975599,9.9869646
Monza Italia,"Via Italia 39, 20900 Monza , MB","0399718807, ",45.5812988,9.2738104,https://www.pampanorama.it/punti-vendita/monza,"V. Italia, 39, 20900 Monza MB, Italy",39,Via Italia,Monza,Monza,Provincia di Monza e della Brianza,Lombardia,Italy,IT,20900,45.58130389999999,9.273887799999999
Milano Tartini,"via Tartini 3, Milano, Milano , MI","02 39314929, ",45.503734,9.176437,https://www.pampanorama.it/punti-vendita/milano-tartini,"Via Giuseppe Tartini, 13C, 20158 Milano MI, Italy",13C,Via Giuseppe Tartini,Milano,Milano,Città metropolitana di Milano,Lombardia,Italy,IT,20158,45.50366200000001,9.1764368
Milano Padova,"Via Padova, 111, 20131 Milano , MI","02/2827892, ",45.4967995,9.2306805,https://www.pampanorama.it/punti-vendita/milano-padova,"Via Padova, 111, 20127 Milano MI, Italy",111,Via Padova,Milano,Milano,Città metropolitana di Milano,Lombardia,Italy,IT,20127,45.4968626,9.230668099999999
Milano Teodosio,"Via Teodosio 52, 20131 Milano , MI",", ",45.48637,9.23011,https://www.pampanorama.it/punti-vendita/local-milano-teodosio,"Via Teodosio, 52, 20131 Milano MI, Italy",52,Via Teodosio,Milano,Milano,Città metropolitana di Milano,Lombardia,Italy,IT,20131,45.48638099999999,9.230161599999999
Milano Bazzini,"Via Bazzini, 33, 20131 Milano , MI","02/2363551, ",45.4835014,9.2249899,https://www.pampanorama.it/punti-vendita/milano-bazzini,"Via Vallazze, 72-78, 20131 Milano MI, Italy",72-78,Via Vallazze,Milano,Milano,Città metropolitana di Milano,Lombardia,Italy,IT,20131,45.4835214,9.224926499999999
Milano Costa,"Via Padova, 22, 20127 Milano , MI","02/2827786, ",45.4878998,9.2191095,https://www.pampanorama.it/punti-vendita/milano-costa,"Via Padova, 18, 20127 Milano MI, Italy",18,Via Padova,Milano,Milano,Città metropolitana di Milano,Lombardia,Italy,IT,20127,45.4877975,9.2190745
Milano Monza,"Viale Monza 43/A, 20127 Milano , MI","02/32329715, ",45.49051,9.21776,https://www.pampanorama.it/punti-vendita/milano-monza,"Viale Monza, 43, 20127 Milano MI, Italy",43,Viale Monza,Milano,Milano,Città metropolitana di Milano,Lombardia,Italy,IT,20127,45.4905268,9.2177616
Milano Piccinni,"Via Piccinni, 2, 20131 Milano , MI","02/29512715, ",45.4832993,9.2138901,https://www.pampanorama.it/punti-vendita/milano-piccinni,"Via Nicola Piccinni, 1, 20124 Milano MI, Italy",1,Via Nicola Piccinni,Milano,Milano,Città metropolitana di Milano,Lombardia,Italy,IT,20124,45.4832019,9.2138039
Milano Settembrini,"Via Settembrini, 46, 20124 Milano , MI","02/45388676, ",45.4844017,9.2072697,https://www.pampanorama.it/punti-vendita/milano-settembrini,"Via Mauro Macchi, 42, 20124 Milano MI, Italy",42,Via Mauro Macchi,Milano,Milano,Città metropolitana di Milano,Lombardia,Italy,IT,20124,45.4844693,9.2071758
Milano Filzi,"Via Fabio Filzi, 12, 20124 Milano , MI","02/91976219, ",45.4832358,9.1976757,https://www.pampanorama.it/punti-vendita/milano-filzi,"Via Adda, 10, 20124 Milano MI, Italy",10,Via Adda,Milano,Milano,Città metropolitana di Milano,Lombardia,Italy,IT,20124,45.483304,9.197676
Milano Stelvio,"Viale Stelvio, 3, 20159 Milano , MI","0236552023, ",45.492627,9.191948,https://www.pampanorama.it/punti-vendita/milano-stelvio,"Viale Stelvio, 1, 20159 Milano MI, Italy",1,Viale Stelvio,Milano,Milano,Città metropolitana di Milano,Lombardia,Italy,IT,20159,45.4926493,9.191995499999999
Milano Mac Mahon,"Via Mac Mahon 8 - Ang. Via Cucchiari, 20155 Milano , MI",", ",45.4886017,9.1649399,https://www.pampanorama.it/punti-vendita/milano-mahon,"Via Domenico Cucchiari, 7, 20155 Milano MI, Italy",7,Via Domenico Cucchiari,Milano,Milano,Città metropolitana di Milano,Lombardia,Italy,IT,20155,45.4885361,9.1647652
Milano Varesina,"Via Varesina, 92, 20156 Milano , MI","0222179514, ",45.498914,9.144027,https://www.pampanorama.it/punti-vendita/pam-milano-varesina,"Via Varesina, 92, 20156 Milano MI, Italy",92,Via Varesina,Milano,Milano,Città metropolitana di Milano,Lombardia,Italy,IT,20156,45.4989625,9.1440772
Milano Inganni,"Via Inganni, 87, 20147 Milano , MI","02/48302966, ",45.4553986,9.1232204,https://www.pampanorama.it/punti-vendita/milano-inganni,"Via Angelo Inganni, 83, 20147 Milano MI, Italy",83,Via Angelo Inganni,Milano,Milano,Città metropolitana di Milano,Lombardia,Italy,IT,20147,45.4551841,9.123237999999999
Milano Forze Armate,"Via Forze Armate, 44, 20147 Milano , MI","02/40090184, ",45.4631996,9.1325998,https://www.pampanorama.it/punti-vendita/milano-forze-armate,"Via delle Forze Armate, 44, 20147 Milano MI, Italy",44,Via delle Forze Armate,Milano,Milano,Città metropolitana di Milano,Lombardia,Italy,IT,20147,45.46316059999999,9.1325792
Milano De Angeli,"Piazza De Angeli, 3, 20146 Milano , MI",", ",45.46653,9.14941,https://www.pampanorama.it/punti-vendita/milano-de-angeli,"P.za de Angeli Ernesto, 1, 20146 Milano MI, Italy",1,Piazza de Angeli Ernesto,Milano,Milano,Città metropolitana di Milano,Lombardia,Italy,IT,20146,45.4664148,9.1495819
Milano Tolstoi,"Via Tolstoi, 61, 20146 Milano , MI","02/48952997, ",45.4542007,9.1491404,https://www.pampanorama.it/punti-vendita/milano-tolstoi,"Lorenteggio - Tolstoi, 20146 Milano MI, Italy",,,Milano,Milano,Città metropolitana di Milano,Lombardia,Italy,IT,20146,45.45399,9.1492
Milano Giambellino,"Via Giambellino, 7, 20144 Milano , MI","02/83419447, ",45.4516983,9.1525402,https://www.pampanorama.it/punti-vendita/pam-giambellino,"Via Giambellino, 7, 20144 Milano MI, Italy",7,Via Giambellino,Milano,Milano,Città metropolitana di Milano,Lombardia,Italy,IT,20144,45.4517,9.15254
Milano Foppa,"Via Foppa, 33, 20144 Milano , MI","02/48952220, ",45.4570007,9.1587095,https://www.pampanorama.it/punti-vendita/milano-foppa,"Via Vincenzo Foppa, 33, 20144 Milano MI, Italy",33,Via Vincenzo Foppa,Milano,Milano,Città metropolitana di Milano,Lombardia,Italy,IT,20144,45.45700220000001,9.158752
Milano Olona,"V.le Olona, 1/3, 20123 Milano , MI","02/58104009, ",45.4612999,9.1729498,https://www.pampanorama.it/punti-vendita/milano-olona,"Via Olona, 1/3, 20123 Milano MI, Italy",1/3,Via Olona,Milano,Milano,Città metropolitana di Milano,Lombardia,Italy,IT,20123,45.46122510000001,9.1730103
Milano De Amicis,"Via E. De Amicis, 59, 20123 Milano , MI","02/91975696, ",45.46141,9.17343,https://www.pampanorama.it/punti-vendita/de-amicis,"Via Edmondo de Amicis, 61, 20123 Milano MI, Italy",61,Via Edmondo de Amicis,Milano,Milano,Città metropolitana di Milano,Lombardia,Italy,IT,20123,45.46145,9.173359999999999
Milano Gorizia,"Corso Colombo - angolo Viale Gorizia, 20144 Milano , MI",", ",45.45473,9.172147,https://www.pampanorama.it/punti-vendita/milano-gorizia,"Corso Cristoforo Colombo, 5, 20144 Milano MI, Italy",5,Corso Cristoforo Colombo,Milano,Milano,Città metropolitana di Milano,Lombardia,Italy,IT,20144,45.4547314,9.1721328
Milano Vigna,", , MI",", ",45.464105,9.179349,https://www.pampanorama.it/punti-vendita/milano-vigna,"Via Bernardino Luini, 11, 20123 Milano MI, Italy",11,Via Bernardino Luini,Milano,Milano,Città metropolitana di Milano,Lombardia,Italy,IT,20123,45.4641519,9.1793745
Milano Correnti,"Via Correnti, 6, Milano , MI",", ",45.45996540182299,9.180377402477005,https://www.pampanorama.it/punti-vendita/milano-correnti,"Via Cesare Correnti, 6, 20123 Milano MI, Italy",6,Via Cesare Correnti,Milano,Milano,Città metropolitana di Milano,Lombardia,Italy,IT,20123,45.4599964,9.180392399999999
Milano Medici,"via Medici 10 ⁰⁵, ang. via Circo, Milano , MI","0280500025, ",45.461363,9.180836,https://www.pampanorama.it/punti-vendita/pam-local-via-medici,"Via Medici, 13, 20123 Milano MI, Italy",13,Via Medici,Milano,Milano,Città metropolitana di Milano,Lombardia,Italy,IT,20123,45.4613192,9.1809018
Milano Porta Ticinese,"Corso di Porta Ticinese, 62, 20123 Milano , MI","0236705359, ",45.45543,9.18052,https://www.pampanorama.it/punti-vendita/milano-cso-porta-ticinese,"Corso di Porta Ticinese, 62, 20123 Milano MI, Italy",62,Corso di Porta Ticinese,Milano,Milano,Città metropolitana di Milano,Lombardia,Italy,IT,20123,45.4554591,9.180330200000002
Milano Col di Lana,"Viale Col di Lana, 7, 20136 Milano , MI",", ",45.45214,9.18358,https://www.pampanorama.it/punti-vendita/milano-col-di-lana,"V.le Col di Lana, 7, 20136 Milano MI, Italy",7,Viale Col di Lana,Milano,Milano,Città metropolitana di Milano,Lombardia,Italy,IT,20136,45.4521672,9.1835331
Milano Beltrade,"Piazza Beltrade, 1, 20123 Milano , MI","02/45402570, ",45.46276,9.18648,https://www.pampanorama.it/punti-vendita/milano-beltrade,"Via Torino, 22, 20123 Milano MI, Italy",22,Via Torino,Milano,Milano,Città metropolitana di Milano,Lombardia,Italy,IT,20123,45.4627452,9.186434499999999
Milano Corso Porta Romana,"Corso di Porta Romana 51, 20122 Milano , MI",", ",45.45708,9.19438,https://www.pampanorama.it/punti-vendita/local-milano-corso-porta-romana,"Corso di Porta Romana, 51, 20122 Milano MI, Italy",51,Corso di Porta Romana,Milano,Milano,Città metropolitana di Milano,Lombardia,Italy,IT,20122,45.4571236,9.1943665
Milano Porta Vigentina,"Corso di Porta Vigentina, 33, 20122 Milano , MI",", ",45.452807,9.196461,https://www.pampanorama.it/punti-vendita/milano-porta-vigentina,"Via Carlo Crivelli, 39, 20122 Milano MI, Italy",39,Via Carlo Crivelli,Milano,Milano,Città metropolitana di Milano,Lombardia,Italy,IT,20122,45.4528828,9.1964271
Milano Freguglia,"Via Freguglia, 2, 20122 Milano , MI","02/36728867, ",45.46161,9.20024,https://www.pampanorama.it/punti-vendita/milano-freguglia,"Via Carlo Freguglia, 2, 20122 Milano MI, Italy",2,Via Carlo Freguglia,Milano,Milano,Città metropolitana di Milano,Lombardia,Italy,IT,20122,45.46163840000001,9.200216100000002
Milano Corso di Porta Vittoria,"Corso di Porta Vittoria, 56, 20122 Milano , MI","02/45375795, ",45.462101,9.2059803,https://www.pampanorama.it/punti-vendita/milano-vittoria,"Viale Regina Margherita, 43, 20122 Milano MI, Italy",43,Viale Regina Margherita,Milano,Milano,Città metropolitana di Milano,Lombardia,Italy,IT,20122,45.4621005,9.2060024
Milano XXII Marzo,"Corso XXII Marzo, 5, 20129 Milano , MI","02 36525238, ",45.46239,9.20819,https://www.pampanorama.it/punti-vendita/milano-xxii-marzo,"Corso Ventidue Marzo, 5, 20129 Milano MI, Italy",5,Corso Ventidue Marzo,Milano,Milano,Città metropolitana di Milano,Lombardia,Italy,IT,20129,45.4624284,9.208215299999999
Milano VIII Novembre,"Piazza VIII Novembre, 6, 20129 Milano , MI","02/36697514, ",45.4743004,9.2107401,https://www.pampanorama.it/punti-vendita/milano-otto-novembre,"Piazza Otto Novembre, 8, 20129 Milano MI, Italy",8,Piazza Otto Novembre,Milano,Milano,Città metropolitana di Milano,Lombardia,Italy,IT,20129,45.4743,9.2107359
Milano Archimede,"Via Archimede, 8, 20129 Milano , MI","02/55196003, ",45.4645996,9.2093697,https://www.pampanorama.it/punti-vendita/milano-archimede,"Via Archimede, 21, 20129 Milano MI, Italy",21,Via Archimede,Milano,Milano,Città metropolitana di Milano,Lombardia,Italy,IT,20129,45.4646086,9.2093376
Milano Morosini,"Via Morosini 7, 20135 Milano , MI","02 3651 8933, ",45.4612007,9.2114401,https://www.pampanorama.it/punti-vendita/morosini,"Via Emilio Morosini, 7, 20135 Milano MI, Italy",7,Via Emilio Morosini,Milano,Milano,Città metropolitana di Milano,Lombardia,Italy,IT,20135,45.4611998,9.2115455
Milano Indipendenza,"Corso Indipendenza 24, 20129 Milano , MI","02/32329731, ",45.4674988,9.2160502,https://www.pampanorama.it/punti-vendita/milano-indipendenza,"Piazzale Dateo, 2, 20129 Milano MI, Italy",2,Piazzale Dateo,Milano,Milano,Città metropolitana di Milano,Lombardia,Italy,IT,20129,45.4675001,9.2158976
Milano Strigelli,"Via Strigelli, 8, 20135 Milano , MI","02/59900511, ",45.4560013,9.2180405,https://www.pampanorama.it/punti-vendita/milano-strigelli,"Via Gaetano Strigelli, 9, 20135 Milano MI, Italy",9,Via Gaetano Strigelli,Milano,Milano,Città metropolitana di Milano,Lombardia,Italy,IT,20135,45.4561082,9.2180722
Milano Aselli,"Via Aselli, 7, 20133 Milano , MI",", ",45.46953,9.22989,https://www.pampanorama.it/punti-vendita/milano-aselli,"Via Gaspare Aselli, 7, 20133 Milano MI, Italy",7,Via Gaspare Aselli,Milano,Milano,Città metropolitana di Milano,Lombardia,Italy,IT,20133,45.4695376,9.229871400000002
Rozzano,"V.le Liguria, 15, 20089 Milano , MI","02/8254229, ",45.3811989,9.1576996,https://www.pampanorama.it/punti-vendita/rozzano,"Via delle Zinnie, 6, 20089 Rozzano MI, Italy",6,Via delle Zinnie,Rozzano,Rozzano,Città metropolitana di Milano,Lombardia,Italy,IT,20089,45.3812136,9.1579958
Milano Medeghino,"Via Medeghino, 11, 20141 Milano , MI","02/84894640, ",45.4319992,9.1822395,https://www.pampanorama.it/punti-vendita/milano-medeghino,"Via Medeghino, 11, 20141 Milano MI, Italy",11,Via Medeghino,Milano,Milano,Città metropolitana di Milano,Lombardia,Italy,IT,20141,45.4319399,9.1822213
Milano Tibaldi,"Via Tibaldi, 35, 20136 Milano , MI","02/89407883, ",45.4441986,9.1820698,https://www.pampanorama.it/punti-vendita/milano-tibaldi,"SPexSS11, 35, 20136 Milano MI, Italy",35,Strada Provinciale ex Strada Statale 11,Milano,Milano,Città metropolitana di Milano,Lombardia,Italy,IT,20136,45.4442381,9.1819734
Milano Sabotino,"V.le Sabotino, 6, 20135 Milano , MI","02/58320536, ",45.450901,9.1990604,https://www.pampanorama.it/punti-vendita/milano-sabotino,"V.le Sabotino, 10, 20135 Milano MI, Italy",10,Viale Sabotino,Milano,Milano,Città metropolitana di Milano,Lombardia,Italy,IT,20135,45.45084620000001,9.199079099999999
Milano Lodi,"Corso Lodi, 9, 20135 Milano , MI",", ",45.451,9.20462,https://www.pampanorama.it/punti-vendita/milano-corso-lodi,"C.so Lodi, 9, 20135 Milano MI, Italy",9,Corso Lodi,Milano,Milano,Città metropolitana di Milano,Lombardia,Italy,IT,20135,45.45100050000001,9.204602
Albenga Mazzini,"Via Mazzini, 17031 Albenga , SV","0182 190 7945, ",44.049571,8.216331,https://www.pampanorama.it/punti-vendita/albenga-mazzini,"Via Edmondo de Amicis, 22, 17031 Albenga SV, Italy",22,Via Edmondo de Amicis,Albenga,Albenga,Provincia di Savona,Liguria,Italy,IT,17031,44.0495852,8.2162059
Albenga Martiri della Libertà,"Viale Martiri della Libertà, 37/39, 17031 Albenga , SV","0182019025, ",44.04748,8.21883,https://www.pampanorama.it/punti-vendita/albenga-martiri-liberta,"Viale Martiri della Libertà, 35, 17031 Albenga SV, Italy",35,Viale Martiri della Libertà,Albenga,Albenga,Provincia di Savona,Liguria,Italy,IT,17031,44.0474857,8.218876
Villanova d'Albenga,"Via Albenga, 18, 17038 Villanova d'Albenga , SV","0182 583959, ",44.04638,8.14278,https://www.pampanorama.it/punti-vendita/villanova,"Via Barbacana, 61, 17038 Villanova d'Albenga SV, Italy",61,Via Barbacana,Villanova d'Albenga,Villanova d'Albenga,Provincia di Savona,Liguria,Italy,IT,17038,44.046353,8.142809999999999
Albisola,"Corso Filippo Ferrari, 99, 17011 Savona , SV","019.8892088, ",44.33069,8.51232,https://www.pampanorama.it/punti-vendita/pam-savona-albisola,"Via dei Seirullo, 27, 17011 Albisola Superiore SV, Italy",27,Via dei Seirullo,Albisola Superiore,Albisola Superiore,Provincia di Savona,Liguria,Italy,IT,17011,44.3307492,8.5122512
Finalborgo,"Via per Calice, 14 Finalborgo, 17024 Finale Ligure , SV","0192046382, ",44.17578,8.32411,https://www.pampanorama.it/punti-vendita/finalborgo,"Via per Calice, 14, 17024 Finale Ligure SV, Italy",14,Via per Calice,Finale Ligure,Finale Ligure,Provincia di Savona,Liguria,Italy,IT,17024,44.1758013,8.3241589
Finale,"Via Torino, 10, 17024 Finale , SV","019 680417, ",44.16961,8.34283,https://www.pampanorama.it/punti-vendita/finale,"Via Torino, 12, 17024 Finale Ligure SV, Italy",12,Via Torino,Finale Ligure,Finale Ligure,Provincia di Savona,Liguria,Italy,IT,17024,44.1696131,8.3428439
Loano,"Via all'Orto, 6, 17025 Loano , SV","019 8895346, ",44.12617,8.25829,https://www.pampanorama.it/punti-vendita/pam-loano,"Via All'orto, 6, 17025 Loano SV, Italy",6,Via All'orto,Loano,Loano,Provincia di Savona,Liguria,Italy,IT,17025,44.1261549,8.2583827
Toirano,"Via Mainero, 8, 17055 Toirano , SV","0182 98372, ",44.124741,8.210707,https://www.pampanorama.it/punti-vendita/toirano,"Via Pietro Mainero, 28, 17055 Toirano SV, Italy",28,Via Pietro Mainero,Toirano,Toirano,Provincia di Savona,Liguria,Italy,IT,17055,44.1247428,8.2107159
Borghetto Santo Spirito,"Via Ponti, 53/R, 17052 Borghetto Santo Spirito , SV","0182973362, ",44.115801,8.246224,https://www.pampanorama.it/punti-vendita/pam-borghetto-santo-spirito,"Via Ponti, 39, 17052 Borghetto Santo Spirito SV, Italy",39,Via Ponti,Borghetto Santo Spirito,Borghetto Santo Spirito,Provincia di Savona,Liguria,Italy,IT,17052,44.115757,8.24624
Ispra Fermi,"Via Enrico Fermi, 857, 21027 Ispra , VA","0332780092, ",45.800374,8.627888,https://www.pampanorama.it/punti-vendita/ispra-fermi,"Via Enrico Fermi, 933, 21020 Ispra VA, Italy",933,Via Enrico Fermi,,Ispra,Provincia di Varese,Lombardia,Italy,IT,21020,45.8004032,8.6279316
Vado,"Via Diaz, 23, 17047 Vado Ligure , SV","019 882274, ",44.2701,8.43751,https://www.pampanorama.it/punti-vendita/vado,"Via Vittorio Emanuele II, 10, 17047 Vado Ligure SV, Italy",10,Via Vittorio Emanuele II,Vado Ligure,Vado Ligure,Provincia di Savona,Liguria,Italy,IT,17047,44.2701107,8.4375322
Bergamo Largo Porta Nuova,"Via Largo Porta Nuova, 9, 24122 Bergamo , BG",", ",45.69371,9.67015,https://www.pampanorama.it/punti-vendita/pam-largo-porta-nuova,"Largo Porta Nuova, 9, 24122 Bergamo BG, Italy",9,Largo Porta Nuova,Bergamo,Bergamo,Provincia di Bergamo,Lombardia,Italy,IT,24122,45.6937171,9.670174099999999
Bergamo,"Via Camozzi, 115, 24121 Bergamo , BG","0351/9909238, ",45.698101,9.6768904,https://www.pampanorama.it/punti-vendita/bergamo-metro,"Via G. Camozzi, 119, 24121 Bergamo BG, Italy",119,Via G. Camozzi,Bergamo,Bergamo,Provincia di Bergamo,Lombardia,Italy,IT,24121,45.69814280000001,9.676970899999999
Bergamo Borgo Palazzo,"via Borgo Palazzo 35, 24125 Bergamo , BG","035/19909288, ",45.6973991,9.6810303,https://www.pampanorama.it/punti-vendita/borgo-palazzo,"Via Borgo Palazzo, 35, 24125 Bergamo BG, Italy",35,Via Borgo Palazzo,Bergamo,Bergamo,Provincia di Bergamo,Lombardia,Italy,IT,24125,45.6973414,9.68107
Albano Laziale,"Corso Matteotti, 66, 00041 Albano Laziale , RM","0693269567, ",41.72763,12.65984,https://www.pampanorama.it/punti-vendita/albano-laziale,"Corso Giacomo Matteotti, 191, 00041 Albano Laziale RM, Italy",191,Corso Giacomo Matteotti,Albano Laziale,Albano Laziale,Città metropolitana di Roma Capitale,Lazio,Italy,IT,00041,41.7276457,12.6598809
Albano Risorgimento,"Piazza Risorgimento, 9, 00041 Albano Laziale , RM","069321476, ",41.72528,12.66357,https://www.pampanorama.it/punti-vendita/albano-risorgimento,"Via Risorgimento, 4, 00041 Albano Laziale RM, Italy",4,Via Risorgimento,Albano Laziale,Albano Laziale,Città metropolitana di Roma Capitale,Lazio,Italy,IT,00041,41.7252661,12.6635752
Ariccia,"Via Nettunense, 25, 00072 Ariccia - Pavona , RM","06/930182200, ",41.7168999,12.6240997,https://www.pampanorama.it/punti-vendita/panorama-ariccia,"Via Nettunense, 25-27, 00040 Ariccia RM, Italy",25-27,Via Nettunense,Ariccia,Albano Laziale,Città metropolitana di Roma Capitale,Lazio,Italy,IT,00040,41.7169391,12.6242603
Formello,"V.le Africa, 134 - Loc. Le Rughe, 00060 Formello , RM","06/9087280, ",42.0684013,12.3779001,https://www.pampanorama.it/punti-vendita/formello,"Viale delle Rughe, 154, 00060 Le Rughe RM, Italy",154,Viale delle Rughe,Le Rughe,Formello,Città metropolitana di Roma Capitale,Lazio,Italy,IT,00060,42.06833779999999,12.3778503
Nettuno,"Via Ugo La Malfa, 48, 00048 Nettuno , RM","06/9807386, ",41.4632988,12.6669998,https://www.pampanorama.it/punti-vendita/roma-nettuno,"Via Ugo la Malfa, 7, 00048 Nettuno RM, Italy",7,Via Ugo la Malfa,Nettuno,Nettuno,Città metropolitana di Roma Capitale,Lazio,Italy,IT,00048,41.46338,12.6676675
Marino,"Via Costa Batocchi, 24, 00047 Marino , RM","069367482, ",41.77041,12.65582,https://www.pampanorama.it/punti-vendita/marino-batocchi,"Via Costa Batocchi, 5, 00047 Marino RM, Italy",5,Via Costa Batocchi,Marino,Marino,Città metropolitana di Roma Capitale,Lazio,Italy,IT,00047,41.7704383,12.6558194
Roma Meldola,"Via Meldola 57/63, 00143 Roma , RM","0689371426, ",41.823626,12.505654,https://www.pampanorama.it/punti-vendita/pam-roma-meldola,"Via Andrea Meldola, 55, 00143 Roma RM, Italy",55,Via Andrea Meldola,Roma,Roma,Città metropolitana di Roma Capitale,Lazio,Italy,IT,00143,41.8236606,12.5056598
Granai,"Via M. Rigamonti, 100, 00142 Roma , RM","06/5159011, ",41.8370018,12.5037003,https://www.pampanorama.it/punti-vendita/roma-granai,"Via Mario Rigamonti, 100, 00142 Roma RM, Italy",100,Via Mario Rigamonti,Roma,Roma,Città metropolitana di Roma Capitale,Lazio,Italy,IT,00142,41.8369267,12.5036337
Roma Biondi,"Via Gian Francesco Biondi, 15, 00143 Roma , RM","065012545, ",41.8171997,12.4896002,https://www.pampanorama.it/punti-vendita/roma-biondi,"Piazza Lodovico Cerva, 7, 00143 Roma RM, Italy",7,Piazza Lodovico Cerva,Roma,Roma,Città metropolitana di Roma Capitale,Lazio,Italy,IT,00143,41.8170698,12.4894973
Roma Simone Martini,"Via Simone Martini 19, 00142 Roma , RM","06 51963498, ",41.8302002,12.4883003,https://www.pampanorama.it/punti-vendita/roma-simonemartini,"Via Simone Martini, 7, 00142 Roma RM, Italy",7,Via Simone Martini,Roma,Roma,Città metropolitana di Roma Capitale,Lazio,Italy,IT,00142,41.8301648,12.4883981
Roma Laurentino,"Via Laurentina, 865, 00143 Roma , RM","06/93379290, ",41.83922,12.48074,https://www.pampanorama.it/punti-vendita/roma-laurentino,"Via Laurentina, 132, 00142 Roma RM, Italy",132,Via Laurentina,Roma,Roma,Città metropolitana di Roma Capitale,Lazio,Italy,IT,00142,41.8394033,12.4805569
Roma Montagne Rocciose,"Via Montagne Rocciose, 95, 00144 Roma , RM","06/89371448, ",41.82488,12.47541,https://www.pampanorama.it/punti-vendita/roma-montagne-rocciose,"Via delle Montagne Rocciose, 95, 00144 Roma RM, Italy",95,Via delle Montagne Rocciose,Roma,Roma,Città metropolitana di Roma Capitale,Lazio,Italy,IT,00144,41.8248785,12.4754845
ROMA Cesare Pavese,"Via Cesare Pavese, 397, Roma , RM",", ",,,https://www.pampanorama.it/punti-vendita/roma-cesare-pavese,"Viale Cesare Pavese, 397, 00144 Roma RM, Italy",397,Viale Cesare Pavese,Roma,Roma,Città metropolitana di Roma Capitale,Lazio,Italy,IT,00144,41.8171776,12.4684651
Roma Torrino,"Via A. di Decima - ang. Via C. Troiani, 00144 Roma , RM","06/52205596, ",41.8129997,12.4518004,https://www.pampanorama.it/punti-vendita/roma-torrino,"NUOVO NEGOZIO: Via di Decima 216/218 VIVAIO:, Via Caterina Troiani, 6, 00144 Roma RM, Italy",6,Via Caterina Troiani,Roma,Roma,Città metropolitana di Roma Capitale,Lazio,Italy,IT,00144,41.8129483,12.4519282
Roma Fiume Bianco,"Via Fiume Bianco, 42, 00144 Roma , RM","06 44245302, ",41.814963,12.440235,https://www.pampanorama.it/punti-vendita/roma-fiume-bianco,"Via Fiume Bianco, 42, 00144 Roma RM, Italy",42,Via Fiume Bianco,Roma,Roma,Città metropolitana di Roma Capitale,Lazio,Italy,IT,00144,41.814826,12.440294
Civitavecchia,"Piazza Vittorio Emanuele 11/13, 00053 Civitavecchia , RM",", ",42.0920982,11.7908001,https://www.pampanorama.it/punti-vendita/civitavecchia,"Calata Principe Tommaso, 18, 00053 Civitavecchia RM, Italy",18,Calata Principe Tommaso,Civitavecchia,Civitavecchia,Città metropolitana di Roma Capitale,Lazio,Italy,IT,00053,42.0920627,11.7909527
Civitavecchia Nenni,"Via Nenni 32, 00053 Civitavecchia , RM","0766546226, ",42.095092,11.816212,https://www.pampanorama.it/punti-vendita/pam-civitavecchia-nenni,"Via Pietro Nenni, 49, 00053 Civitavecchia RM, Italy",49,Via Pietro Nenni,Civitavecchia,Civitavecchia,Città metropolitana di Roma Capitale,Lazio,Italy,IT,00053,42.0949009,11.8163281
Ostia,"Via dell'Appagliatore, 00121 Roma , RM","06/56200311, ",41.7412987,12.2735996,https://www.pampanorama.it/punti-vendita/panorama-ostia,"Via delle Azzorre, 179, 00121 Lido di Ostia RM, Italy",179,Via delle Azzorre,Lido di Ostia,Roma,Città metropolitana di Roma Capitale,Lazio,Italy,IT,00121,41.7412086,12.2736171
Ostia Gondole,"Via delle Gondole, 94, 00121 Ostia , RM","06/89320375, ",41.7356987,12.2764998,https://www.pampanorama.it/punti-vendita/pam-local-ostia-gondole,"Via dei Panfili, 59, 00100 Lido di Ostia RM, Italy",59,Via dei Panfili,Lido di Ostia,Roma,Città metropolitana di Roma Capitale,Lazio,Italy,IT,00100,41.7356443,12.276526
Roma Acilia,"Via G. Usellini, 287, 00125 Roma , RM","06/52453334, ",41.7723999,12.3781004,https://www.pampanorama.it/punti-vendita/roma-acilia,"Via Gianfilippo Usellini, 412, 00125 Roma RM, Italy",412,Via Gianfilippo Usellini,,Roma,Città metropolitana di Roma Capitale,Lazio,Italy,IT,00125,41.77242589999999,12.3782836
Roma Bufalotta,"Via Passo di Falzarego, 19, 00139 Roma , RM","06/87132627, ",41.9869003,12.5642004,https://www.pampanorama.it/punti-vendita/roma-bufalotta,"Via Nicola Stenone, 87, 00139 La Cinquina - Bufalotta RM, Italy",87,Via Nicola Stenone,La Cinquina - Bufalotta,Roma,Città metropolitana di Roma Capitale,Lazio,Italy,IT,00139,41.9874439,12.5639287
Roma Camerata Picena,"Via Camerata Picena, 385, 00138 Roma , RM","06 81177524, ",41.98515,12.51365,https://www.pampanorama.it/punti-vendita/roma-via-camerata-picena-retail-pro,"Via Camerata Picena, 375, 00138 Roma RM, Italy",375,Via Camerata Picena,Roma,Roma,Città metropolitana di Roma Capitale,Lazio,Italy,IT,00138,41.9853135,12.513792
Roma De Filippo,"Via Titina De Filippo, 101, 00139 Roma , RM","06 8811837, ",41.96899,12.51589,https://www.pampanorama.it/punti-vendita/roma-via-de-filippo-retail-pro,"Viale Titina de Filippo, 101, 00139 Roma RM, Italy",101,Viale Titina de Filippo,Roma,Roma,Città metropolitana di Roma Capitale,Lazio,Italy,IT,00139,41.9690693,12.5159371
Pavia XX Settembre,"Via XX Settembre, 22, 27100 Pavia , PV","0382 1755164, ",45.186318,9.15336,https://www.pampanorama.it/punti-vendita/pavia-xx-settembre,"Via XX Settembre, 20, 27100 Pavia PV, Italy",20,Via XX Settembre,Pavia,Pavia,Provincia di Pavia,Lombardia,Italy,IT,27100,45.1862985,9.1533438
Pavia Via Varese,"Via Varese, 5, 27100 Pavia , PV","3757095383, ",45.184650418179466,9.156041002421034,https://www.pampanorama.it/punti-vendita/pam-pavia-varese,"Piazza del Lino, 2, 27100 Pavia PV, Italy",2,Piazza del Lino,Pavia,Pavia,Provincia di Pavia,Lombardia,Italy,IT,27100,45.1846634,9.1560288
Torrimpietra,"Via Aurelia Km 28, 00050 Torrimpietra , RM","0661697385, ",41.916836,12.200711,https://www.pampanorama.it/punti-vendita/pam-torrimpietra,"Via Eucario Siber, 21, 00050 Centro Tre Denari RM, Italy",21,Via Eucario Siber,Centro Tre Denari,Fiumicino,Città metropolitana di Roma Capitale,Lazio,Italy,IT,00050,41.916967,12.2007525
Monterotondo,"Viale Bruno Buozzi, 15, 00015 Monterotondo , RM","06/90624007, ",42.0498009,12.6248999,https://www.pampanorama.it/punti-vendita/monterotondo,"Viale Bruno Buozzi, 35, 00015 Monterotondo RM, Italy",35,Viale Bruno Buozzi,Monterotondo,Monterotondo,Città metropolitana di Roma Capitale,Lazio,Italy,IT,00015,42.0497812,12.6249544
Torvaianica Dora Riparia,"Via Dora Riparia, 36A ang. Via Lambro, 3, 00071 Pomezia Loc. Torvaianica , RM","333.9316719, ",41.656003,12.427767,https://www.pampanorama.it/punti-vendita/torvaianica-dora-riparia-pam,"Via Dora Riparia, 36a, 00071 Torvaianica RM, Italy",36a,Via Dora Riparia,Torvaianica,Pomezia,Città metropolitana di Roma Capitale,Lazio,Italy,IT,00071,41.65590760000001,12.4278373
Roma Botteghe Oscure,"Via delle Botteghe Oscure, 3, 00186 Roma , RM","06/89320361, ",41.8951988,12.4797001,https://www.pampanorama.it/punti-vendita/pam-local-roma-botteghe-oscure,"Via d'Aracoeli, 27, 00186 Roma RM, Italy",27,Via d'Aracoeli,Roma,Roma,Città metropolitana di Roma Capitale,Lazio,Italy,IT,00186,41.8952027,12.4797073
Roma Funari,"Via dei Funari 21, Roma, Roma , RM",", ",41.89382042144752,12.478327164840602,https://www.pampanorama.it/punti-vendita/roma-funari,"Via dei Funari, 21, 00186 Roma RM, Italy",21,Via dei Funari,Roma,Roma,Città metropolitana di Roma Capitale,Lazio,Italy,IT,00186,41.89377650000001,12.4783218
Roma Fontanella di Borghese,"Via della Fontanella di Borghese, 20, 00186 Roma , RM","066876392, ",41.903901,12.47704,https://www.pampanorama.it/punti-vendita/pam-roma-fontanella-di-borghese,"Piazza del Porto di Ripetta, 1, 00186 Roma RM, Italy",1,Piazza del Porto di Ripetta,Roma,Roma,Città metropolitana di Roma Capitale,Lazio,Italy,IT,00186,41.903921,12.4770392
Roma Panisperna,"Via Panisperna, 75, 00184 Roma , RM","06 45502583, ",41.896643,12.491728,https://www.pampanorama.it/punti-vendita/roma-panisperna,"Via Panisperna, 77, 00184 Roma RM, Italy",77,Via Panisperna,Roma,Roma,Città metropolitana di Roma Capitale,Lazio,Italy,IT,00184,41.8966666,12.4917908
Roma Barberini,"via Barberini 10-16, 00187 Roma , RM","0645751857, ",41.9040985,12.4884996,https://www.pampanorama.it/punti-vendita/roma-barberini,"Barberini, 00187 Roma RM, Italy",,,Roma,Roma,Città metropolitana di Roma Capitale,Lazio,Italy,IT,00187,41.904138,12.4887446
Roma Quattro Fontane,"Via delle Quattro Fontane, 38, 00184 Roma , RM","06 / 45519032, ",41.9007988,12.4927998,https://www.pampanorama.it/punti-vendita/pam-local-roma-quattro-fontane,"Via delle Quattro Fontane, 108, 00184 Roma RM, Italy",108,Via delle Quattro Fontane,Roma,Roma,Città metropolitana di Roma Capitale,Lazio,Italy,IT,00184,41.9007428,12.4927345
Roma Urbana,"via Urbana, 9, 00184 Roma , RM","06/93567284, ",41.8975983,12.4942999,https://www.pampanorama.it/punti-vendita/roma-urbana,"Via Caprareccia, 13, 00184 Roma RM, Italy",13,Via Caprareccia,Roma,Roma,Città metropolitana di Roma Capitale,Lazio,Italy,IT,00184,41.89763310000001,12.4944698
Roma C.so V. Emanuele,"C.so Vittorio Emanuele II, 235, 00186 Roma , RM","0645424663, ",41.8978996,12.4693003,https://www.pampanorama.it/punti-vendita/pam-local-roma-c-so,"Via della Chiesa Nuova, 21, 00186 Roma RM, Italy",21,Via della Chiesa Nuova,Roma,Roma,Città metropolitana di Roma Capitale,Lazio,Italy,IT,00186,41.8980049,12.4694039
Roma Santi Quattro,"Via dei Santi Quattro 35/A – 00184 Roma (RM), Roma , RM",", ",41.88920473947076,12.495694093635125,https://www.pampanorama.it/punti-vendita/roma-santi-quattro,"Via dei SS. Quattro, 73, 00184 Roma RM, Italy",73,Via dei SS. Quattro,Roma,Roma,Città metropolitana di Roma Capitale,Lazio,Italy,IT,00184,41.8892587,12.4956804
Roma XX Settembre,"Via XX Settembre, 20/E, 00187 Roma , RM","06/87936937, ",41.9053001,12.4953003,https://www.pampanorama.it/punti-vendita/roma-settembre,"Via Venti Settembre, 20, 00187 Roma RM, Italy",20,Via Venti Settembre,Roma,Roma,Città metropolitana di Roma Capitale,Lazio,Italy,IT,00187,41.90529189999999,12.4953565
Roma Boncompagni,"Via Boncompagni, 95, 00187 Roma , RM","06/45674227, ",41.9090004,12.4951,https://www.pampanorama.it/punti-vendita/pam-local-boncompagni,"Via Boncompagni, 71m, 00187 Roma RM, Italy",71m,Via Boncompagni,Roma,Roma,Città metropolitana di Roma Capitale,Lazio,Italy,IT,00187,41.9090646,12.4953376
Roma Vitelleschi,"Via Giovanni Vitelleschi, 2, 00193 Roma , RM","06/45654972, ",41.904392,12.46286,https://www.pampanorama.it/punti-vendita/roma-vitelleschi,"Via Giovanni Vitelleschi, 2, 00193 Roma RM, Italy",2,Via Giovanni Vitelleschi,Roma,Roma,Città metropolitana di Roma Capitale,Lazio,Italy,IT,00193,41.904398,12.4628625
Roma Terenzio,"Via Terenzio, 29, 00186 Roma , RM","06/45493276, ",41.9063988,12.4632998,https://www.pampanorama.it/punti-vendita/pam-local-terenzio,"Via Terenzio, 27, 00193 Roma RM, Italy",27,Via Terenzio,Roma,Roma,Città metropolitana di Roma Capitale,Lazio,Italy,IT,00193,41.9063467,12.463313
Roma Piave,"Via Piave 45, 00187 Roma , RM","06/45751859, ",41.9099999,12.4990997,https://www.pampanorama.it/punti-vendita/roma-piave,"Via Augusto Valenziani, 15, 00187 Roma RM, Italy",15,Via Augusto Valenziani,Roma,Roma,Città metropolitana di Roma Capitale,Lazio,Italy,IT,00187,41.9100751,12.4990132
Roma Salaria,"Via Salaria 55-57, 00198 Roma , RM","06 45519198, ",41.9124985,12.4976997,https://www.pampanorama.it/punti-vendita/roma-salaria,"Via Salaria, 51, 00198 Roma RM, Italy",51,Via Salaria,Roma,Roma,Città metropolitana di Roma Capitale,Lazio,Italy,IT,00198,41.9124843,12.4976757
Roma S.M. della Battaglia,"Via San Martino della Battaglia, 30, 00185 Roma , RM","06/87720478, ",41.9057999,12.5044003,https://www.pampanorama.it/punti-vendita/pam-local-roma-s-m,"Via Sommacampagna, 4, 00185 Roma RM, Italy",4,Via Sommacampagna,Roma,Roma,Città metropolitana di Roma Capitale,Lazio,Italy,IT,00185,41.9057884,12.5044538
Roma Mordini,"Via Antonio Mordini 11, 00195 Roma , RM","06/87716036, ",41.9138985,12.4640999,https://www.pampanorama.it/punti-vendita/roma-mordini,"Via Antonio Mordini, 11, 00195 Roma RM, Italy",11,Via Antonio Mordini,Roma,Roma,Città metropolitana di Roma Capitale,Lazio,Italy,IT,00195,41.9139219,12.4640999
Roma Alessandria,"Via Alessandria 177, 00198 Roma , RM","06/45569783, ",41.9134995,12.5027012,https://www.pampanorama.it/punti-vendita/roma-alessandria,"V. Nizza, 136a, 00187 Roma RM, Italy",136a,Via Nizza,Roma,Roma,Città metropolitana di Roma Capitale,Lazio,Italy,IT,00187,41.9134559,12.5026435
Roma Carini,"Via Carini 85, 00152 Roma , RM","06 45552392, ",41.8832016,12.4588003,https://www.pampanorama.it/punti-vendita/local-carini,"Viale dei Quattro Venti, 47, 00152 Roma RM, Italy",47,Viale dei Quattro Venti,Roma,Roma,Città metropolitana di Roma Capitale,Lazio,Italy,IT,00152,41.8832272,12.4588228
Roma Quattro Venti,"Viale dei Quattro Venti 81 - 83, 00152 Roma , RM","06/45751870, ",41.8820992,12.4588003,https://www.pampanorama.it/punti-vendita/roma-quattroventi,"Viale dei Quattro Venti, 79, 00152 Roma RM, Italy",79,Viale dei Quattro Venti,Roma,Roma,Città metropolitana di Roma Capitale,Lazio,Italy,IT,00152,41.8821286,12.4589224
Roma Filiberto,"Via Emanuele Filiberto, 180, 00185 Roma , RM",", ",41.8872986,12.5086002,https://www.pampanorama.it/punti-vendita/roma-filiberto,"Via Emanuele Filiberto, 180, 00185 Roma RM, Italy",180,Via Emanuele Filiberto,Roma,Roma,Città metropolitana di Roma Capitale,Lazio,Italy,IT,00185,41.8872519,12.508559
Roma San Paolo II,"Via San Paolo II, 9a, 00165 Roma , RM","06 94358039, ",41.89816,12.453519,https://www.pampanorama.it/punti-vendita/city-roma-san-paolo-ii,"Via Paolo II, 9a, 00165 Roma RM, Italy",9a,Via Paolo II,Roma,Roma,Città metropolitana di Roma Capitale,Lazio,Italy,IT,00165,41.8982004,12.4535694
Roma Taranto,"Via Taranto, 2, 00182 Roma , RM",", ",41.885163,12.511522,https://www.pampanorama.it/punti-vendita/pam-local-roma-taranto,"Via Taranto, 6, 00182 Roma RM, Italy",6,Via Taranto,Roma,Roma,Città metropolitana di Roma Capitale,Lazio,Italy,IT,00182,41.8851344,12.5115768
Roma Circonvallazione Ostiense,"Circonvallazione Ostiense, 270/280, 00154 Roma , RM","0645519304, ",41.8670998,12.4940996,https://www.pampanorama.it/punti-vendita/roma-ostiense,"Largo Angelo Fochetti, 347, 00154 Roma RM, Italy",347,Largo Angelo Fochetti,Roma,Roma,Città metropolitana di Roma Capitale,Lazio,Italy,IT,00154,41.8674584,12.4941833
Roma Caselli,"Via Caselli 71, 00149 Roma , RM","065561945, ",41.86964,12.463702,https://www.pampanorama.it/punti-vendita/pam-roma-caselli,"Via Giovanni Caselli, 67, 00149 Roma RM, Italy",67,Via Giovanni Caselli,Roma,Roma,Città metropolitana di Roma Capitale,Lazio,Italy,IT,00149,41.8696505,12.46364
Roma Fermi,"via Fermi, 29, Roma , RM",", ",41.864552,12.47044,https://www.pampanorama.it/punti-vendita/roma-fermi,"Via Roberto Marcolongo, 1, 00146 Roma RM, Italy",1,Via Roberto Marcolongo,Roma,Roma,Città metropolitana di Roma Capitale,Lazio,Italy,IT,00146,41.8645634,12.4704067
Roma Appia,"Via Appia Nuova, 189, 00183 Roma , RM","0642990495, ",41.88034,12.51621,https://www.pampanorama.it/punti-vendita/roma-appia,"Via Appia Nuova, 189, 00182 Roma RM, Italy",189,Via Appia Nuova,Roma,Roma,Città metropolitana di Roma Capitale,Lazio,Italy,IT,00182,41.8803497,12.5162156
Roma Baccarini,"Via Baccarini 22a, angolo via Amari 1, 00149 Roma , RM","0687663377, ",41.8753014,12.5165005,https://www.pampanorama.it/punti-vendita/roma-baccarini,"Via Michele Amari, 10, 00179 Roma RM, Italy",10,Via Michele Amari,Roma,Roma,Città metropolitana di Roma Capitale,Lazio,Italy,IT,00179,41.8753166,12.516417
Roma Ravenna,"Via Ravenna, 47, 00161 Roma , RM","06/45590545, ",41.91332,12.51954,https://www.pampanorama.it/punti-vendita/roma-ravenna,"Via Ravenna, 45, 00161 Roma RM, Italy",45,Via Ravenna,Roma,Roma,Città metropolitana di Roma Capitale,Lazio,Italy,IT,00161,41.9133285,12.5195074
Valle Aurelia,"Viale di Valle Aurelia, 32, 00147 Roma , RM","06 9667 8013, ",41.9025993,12.4389,https://www.pampanorama.it/punti-vendita/pam-valle-aurelia,"Via di Valle Aurelia, 62, 00167 Roma RM, Italy",62,Via di Valle Aurelia,Roma,Roma,Città metropolitana di Roma Capitale,Lazio,Italy,IT,00167,41.9024625,12.438935
Roma Colli Portuensi,"Via dei Colli Portuensi, 191, 00151 Roma , RM","065373736, ",41.870679,12.443484,https://www.pampanorama.it/punti-vendita/pam-roma-colli-portuensi,"Viale dei Colli Portuensi, 187/6, 00151 Roma RM, Italy",187/6,Viale dei Colli Portuensi,Roma,Roma,Città metropolitana di Roma Capitale,Lazio,Italy,IT,00151,41.870611,12.4434752
Roma Furio Camillo,"Viale Furio Camillo, 57, 00179 Roma , RM",", ",41.87582,12.52419,https://www.pampanorama.it/punti-vendita/furio-camillo,"Viale Furio Camillo, 65, 00181 Roma RM, Italy",65,Viale Furio Camillo,Roma,Roma,Città metropolitana di Roma Capitale,Lazio,Italy,IT,00181,41.8758287,12.5241292
Roma Balduina,"Piazza della Balduina, 48, 00136 Roma , RM","0635340309, ",41.9189987,12.4407997,https://www.pampanorama.it/punti-vendita/roma-balduina,"Piazza della Balduina, 52, 00136 Roma RM, Italy",52,Piazza della Balduina,Roma,Roma,Città metropolitana di Roma Capitale,Lazio,Italy,IT,00136,41.9189684,12.4409759
Roma Tiburtina,"P.le della Stazione Tiburtina 11, 00162 Roma , RM","06/45519210, ",41.9098015,12.5305004,https://www.pampanorama.it/punti-vendita/roma-tiburtina,"Staz.Ne Tiburtina (Mb), 00162 Roma RM, Italy",,,Roma,Roma,Città metropolitana di Roma Capitale,Lazio,Italy,IT,00162,41.9098039,12.5304761
Roma Boccea,"Via Di Boccea, 45, 00165 Roma , RM","06 / 89371431, ",41.9000015,12.4285002,https://www.pampanorama.it/punti-vendita/pam-local-roma-boccea,"Via di Boccea, 45, 00165 Roma RM, Italy",45,Via di Boccea,Roma,Roma,Città metropolitana di Roma Capitale,Lazio,Italy,IT,00165,41.89994919999999,12.4284754
Roma Serafini,"Via Serafini, 98, 00164 Roma , RM","0645429270, ",41.877194,12.428505,https://www.pampanorama.it/punti-vendita/roma-serafini,"Via Camillo Serafini, 98, 00164 Roma RM, Italy",98,Via Camillo Serafini,Roma,Roma,Città metropolitana di Roma Capitale,Lazio,Italy,IT,00164,41.8772053,12.428458
Tiburtina,"Via Tiburtina, 757, 00159 Roma , RM","06/41790701, ",41.9126015,12.5542002,https://www.pampanorama.it/punti-vendita/tiburtina,"Via Tiburtina, 755, 00157 Roma RM, Italy",755,Via Tiburtina,Roma,Roma,Città metropolitana di Roma Capitale,Lazio,Italy,IT,00157,41.9126087,12.5539709
Aurelia,"Via Aurelia, 822, 00165 Roma , RM","06 6650051, ",41.8879013,12.4041004,https://www.pampanorama.it/punti-vendita/aurelia,"V. Aurelia, 830, 00165 Roma RM, Italy",830,Via Aurelia,Roma,Roma,Città metropolitana di Roma Capitale,Lazio,Italy,IT,00165,41.888002,12.4039333
Boccea,"Via G. Frontali, 14, 00166 Roma , RM","06/61523811, ",41.9123993,12.3896999,https://www.pampanorama.it/punti-vendita/boccea,"Via Gino Frontali, 9, 00166 Roma RM, Italy",9,Via Gino Frontali,,Roma,Città metropolitana di Roma Capitale,Lazio,Italy,IT,00166,41.9119804,12.3893461
Santa Marinella,"Via Etruria 70, 00058 Santa Marinella , RM","0766536700, ",42.039594,11.832954,https://www.pampanorama.it/punti-vendita/pam-santa-marinella,"Via dell' Etruria, 70/1, 00058 Santa Marinella RM, Italy",70/1,Via dell' Etruria,Santa Marinella,Santa Marinella,Città metropolitana di Roma Capitale,Lazio,Italy,IT,00058,42.0395663,11.8329024
Altopascio,"Via Romana, 55011 Altopascio , LU","0583/276053, ",43.8282013,10.6477003,https://www.pampanorama.it/punti-vendita/altopascio,"Via Romana, 102, 55015 Turchetto LU, Italy",102,Via Romana,Turchetto,Montecarlo,Provincia di Lucca,Toscana,Italy,IT,55015,43.828346,10.6476469
Grosio,"Via Roma, 41 – 23033 Grosio (S0), Grosio , SO",", ",46.298654,10.274893,https://www.pampanorama.it/punti-vendita/pam-grosio,"Via Roma, 41, 23033 Grosio SO, Italy",41,Via Roma,Grosio,Grosio,Provincia di Sondrio,Lombardia,Italy,IT,23033,46.2985659,10.2748975
Genova Voltri,"Via Don Giovanni Verità, 6/R, 16158 Genova , GE","010/6121304, ",44.428299,8.7527504,https://www.pampanorama.it/punti-vendita/genova-voltri,"Via Don Giovanni Verità, 45, 16158 Genova GE, Italy",45,Via Don Giovanni Verità,Genova,Genova,Città Metropolitana di Genova,Liguria,Italy,IT,16158,44.4282748,8.752757599999999
Roma Giulio Agricola,"Viale Giulio Agricola 20, 00174 Roma , RM","06/96678489, ",41.8562631,12.5595542,https://www.pampanorama.it/punti-vendita/roma-giulio-agricola,"Via Marco Valerio Corvo, 116, 00174 Roma RM, Italy",116,Via Marco Valerio Corvo,Roma,Roma,Città metropolitana di Roma Capitale,Lazio,Italy,IT,00174,41.8565704,12.5597977
Roma Anicio Gallo,"Viale Anicio Gallo, 96, 00174 Roma , RM","06/45751869, ",41.853199,12.5628996,https://www.pampanorama.it/punti-vendita/roma-anicio-gallo,"Viale Anicio Gallo, 96-98, 00174 Roma RM, Italy",96-98,Viale Anicio Gallo,Roma,Roma,Città metropolitana di Roma Capitale,Lazio,Italy,IT,00174,41.8532027,12.5628832
Roma Lemonia,"Via Lemonia, 183, 00174 Roma , RM","067108214, ",41.852791,12.559048,https://www.pampanorama.it/punti-vendita/pam-roma-lemonia,"Via Lemonia, 183, 00174 Roma RM, Italy",183,Via Lemonia,Roma,Roma,Città metropolitana di Roma Capitale,Lazio,Italy,IT,00174,41.8527711,12.5590839
Alessandria Corso Roma,"Corso Roma, 74, 15121 Alessandria , AL",", ",44.91159,8.61277,https://www.pampanorama.it/punti-vendita/alessandria-corso-roma,"Corso Roma, 74, 15121 Alessandria AL, Italy",74,Corso Roma,Alessandria,Alessandria,Provincia di Alessandria,Piemonte,Italy,IT,15121,44.9115903,8.6128172
Alessandria,"Corso Romita, 15121 Alessandria , AL","0131/281611, ",44.907299,8.61168,https://www.pampanorama.it/punti-vendita/panorama-alessandria,"Via Savona, 38, 15121 Alessandria AL, Italy",38,Via Savona,Alessandria,Alessandria,Provincia di Alessandria,Piemonte,Italy,IT,15121,44.90742729999999,8.6117796
Asti,"Corso Torino, 30, 14010 Asti , AT","0141/419417, ",44.9023018,8.1909504,https://www.pampanorama.it/punti-vendita/asti,"Corso Torino, 113, 14100 Asti AT, Italy",113,Corso Torino,Asti,Asti,Provincia di Asti,Piemonte,Italy,IT,14100,44.9024069,8.1910632
Gignese,"Vicolo Balilla 1, 28836 Gignese , VB","032320708, ",45.860843,8.508743,https://www.pampanorama.it/punti-vendita/pam-gignese,"Via Regina Margherita, 25, 28836 Gignese VB, Italy",25,Via Regina Margherita,Gignese,Gignese,Provincia del Verbano-Cusio-Ossola,Piemonte,Italy,IT,28836,45.8608894,8.5088701
Pino Torinese,"via Chieri, 96, 10025 Pino Torinese , TO","011/8112977, ",45.028801,7.7975798,https://www.pampanorama.it/punti-vendita/pino-torinese,"Via Chieri, 96, 10025 Pino Torinese TO, Italy",96,Via Chieri,Pino Torinese,Pino Torinese,Città Metropolitana di Torino,Piemonte,Italy,IT,10025,45.0287428,7.7972686
Torino Volturno,"Via Volturno, 14, 10133 Torino , TO","0116602005, ",45.056103,7.695204,https://www.pampanorama.it/punti-vendita/pam-torino-volturno,"Via Bicocca, 2, 10133 Torino TO, Italy",2,Via Bicocca,Torino,Torino,Città Metropolitana di Torino,Piemonte,Italy,IT,10133,45.0560728,7.695095299999998
Torino Montebello,"Via Montebello, 21, 10121 Torino , TO","011-19239947, ",45.0704002,7.6935,https://www.pampanorama.it/punti-vendita/pam-local-torino-montebello,"Corso S. Maurizio, 12C, 10124 Torino TO, Italy",12C,Corso San Maurizio,Torino,Torino,Città Metropolitana di Torino,Piemonte,Italy,IT,10124,45.07039109999999,7.6935687
Torino Bogino,"Via Giambattista Bogino, 15, 10123 Torino , TO","327.7580201, ",45.067698,7.687134,https://www.pampanorama.it/punti-vendita/pam-torino-bogino,"Via Gianbattista Bogino, 15, 10123 Torino TO, Italy",15,Via Gianbattista Bogino,Torino,Torino,Città Metropolitana di Torino,Piemonte,Italy,IT,10123,45.0677088,7.687160399999999
Torino Madama Cristina,"Via Madama Cristina, 24, Torino , TO",", ",45.0569,7.6820698,https://www.pampanorama.it/punti-vendita/torino-madamacristina,"Via Madama Cristina, 26, 10125 Torino TO, Italy",26,Via Madama Cristina,Torino,Torino,Città Metropolitana di Torino,Piemonte,Italy,IT,10125,45.0568556,7.6820701
Torino Bramante,"C.so Bramante, 93, 10126 Torino , TO","011/6963626, ",45.0419998,7.6757898,https://www.pampanorama.it/punti-vendita/torino-bramante,"Via Pio Foà, 92, 10126 Torino TO, Italy",92,Via Pio Foà,Torino,Torino,Città Metropolitana di Torino,Piemonte,Italy,IT,10126,45.0421551,7.6757894
Torino Lagrange,"Via Lagrange, 47/A, 10123 Torino , TO","011/19697066, ",45.0633011,7.6811199,https://www.pampanorama.it/punti-vendita/torino-lagrange,"Via Guarino Guarini, 4, 10123 Torino TO, Italy",4,Via Guarino Guarini,Torino,Torino,Città Metropolitana di Torino,Piemonte,Italy,IT,10123,45.063331,7.681092599999999
Torino XX Settembre,"Via XX Settembre, 64, 10121 Torino , TO","011/19529739, ",45.0699005,7.6821799,https://www.pampanorama.it/punti-vendita/pam-local-torino-xx-settembre,"V. Antonio Bertola, 8, 10121 Torino TO, Italy",8,Via Antonio Bertola,Torino,Torino,Città Metropolitana di Torino,Piemonte,Italy,IT,10121,45.0698857,7.6821666
Torino Nizza,"Via Nizza 111, 10126 Torino , TO","011/19235131, ",45.0485001,7.6735301,https://www.pampanorama.it/punti-vendita/torino-nizza,"Via Nizza, 111/E, 10126 Torino TO, Italy",111/E,Via Nizza,Torino,Torino,Città Metropolitana di Torino,Piemonte,Italy,IT,10126,45.0484736,7.673629
Torino Nizza 162,"Via Nizza 162 - ang. Via Alassio, 10125 Torino , TO",", ",45.03906,7.66974,https://www.pampanorama.it/punti-vendita/torino-nizza-162,"Via Nizza, 162, 10126 Torino TO, Italy",162,Via Nizza,Torino,Torino,Città Metropolitana di Torino,Piemonte,Italy,IT,10126,45.0390828,7.669728999999998
Torino Filiberto,"Piazza Emanuele Filiberto, 12, 10122 Torino , TO","011 19235171, ",45.0772018,7.6809502,https://www.pampanorama.it/punti-vendita/torino-filiberto,"Corso Regina Margherita, 125, 10122 Torino TO, Italy",125,Corso Regina Margherita,Torino,Torino,Città Metropolitana di Torino,Piemonte,Italy,IT,10122,45.0772395,7.6810506
Torino Botero,"Via Botero, 18, 10122 Torino , TO","011/0464562, ",45.0707016,7.6778498,https://www.pampanorama.it/punti-vendita/pam-local-torino-botero,"Via Rodi, 2, 10122 Torino TO, Italy",2,Via Rodi,Torino,Torino,Città Metropolitana di Torino,Piemonte,Italy,IT,10122,45.0706605,7.677886900000001
Torino Lingotto,"Via Nizza, 230, 10126 Torino , TO","011/6648661, ",45.0343018,7.6679802,https://www.pampanorama.it/punti-vendita/torino-lingotto,"Via Nizza, 242, 10126 Torino TO, Italy",242,Via Nizza,Torino,Torino,Città Metropolitana di Torino,Piemonte,Italy,IT,10126,45.0342977,7.6679844
Torino San Secondo,"Via San Secondo, 33, 10100 Torino , TO","011/5683428, ",45.0587006,7.6728101,https://www.pampanorama.it/punti-vendita/pam-local-torino-san-secondo,"Via S. Secondo, 46, 10128 Torino TO, Italy",46,Via San Secondo,Torino,Torino,Città Metropolitana di Torino,Piemonte,Italy,IT,10128,45.0587247,7.6728144
Torino Carmine,"Via del Carmine, ang. Via Bligny, 10122 Torino , TO","011/19697029, ",45.0752983,7.6746302,https://www.pampanorama.it/punti-vendita/torino-carmine,"Via dei Quartieri, 0/H, 10122 Torino TO, Italy",0/H,Via dei Quartieri,Torino,Torino,Città Metropolitana di Torino,Piemonte,Italy,IT,10122,45.07532579999999,7.674521399999999
Torino Palestro,"Corso Palestro, 3, 10122 Torino , TO","011/19524296, ",45.0746002,7.6730099,https://www.pampanorama.it/punti-vendita/pam-local-torino-palestro,"Corso Palestro, 6, 10122 Torino TO, Italy",6,Corso Palestro,Torino,Torino,Città Metropolitana di Torino,Piemonte,Italy,IT,10122,45.0745217,7.672917299999999
San Domenico,"Via San Domenico, 35, 10122 Torino , TO","0114362008, ",45.0772018,7.6707301,https://www.pampanorama.it/punti-vendita/local-san-domenico,"Corso Giambattista Beccaria, 28, 10122 Torino TO, Italy",28,Corso Giambattista Beccaria,Torino,Torino,Città Metropolitana di Torino,Piemonte,Italy,IT,10122,45.0771644,7.670717100000001
Torino Corso Francia,"Corso Francia, 3, 10138 Torino , TO",", ",45.076266,7.667061,https://www.pampanorama.it/punti-vendita/torino-corso-francia,"C.so Francia, 3/a, 10138 Torino TO, Italy",3/a,Corso Francia,Torino,Torino,Città Metropolitana di Torino,Piemonte,Italy,IT,10138,45.0762821,7.6670976
Torino Acaja,"via Principi d'Acaja, 45/A, 10138 Torino , TO","011/19687998, ",45.0727997,7.6623001,https://www.pampanorama.it/punti-vendita/torino-acaja,"Via Pietro Palmieri, 51, 10138 Torino TO, Italy",51,Via Pietro Palmieri,Torino,Torino,Città Metropolitana di Torino,Piemonte,Italy,IT,10138,45.072781,7.662299300000001
Torino Cibrario,"Via Cibrario, 35, 10144 Torino , TO","011/19529770, ",45.0788002,7.6645098,https://www.pampanorama.it/punti-vendita/pam-local-torino-cibrario,"Via Michele Schina, 26, 10144 Torino TO, Italy",26,Via Michele Schina,Torino,Torino,Città Metropolitana di Torino,Piemonte,Italy,IT,10144,45.0789479,7.664432499999998
Torino Racconigi,"Corso Racconigi, 236/A, Torino , TO","011/19697041, ",45.0526009,7.6504202,https://www.pampanorama.it/punti-vendita/torino-racconigi,"Corso Racconigi, 270, 10141 Torino TO, Italy",270,Corso Racconigi,Torino,Torino,Città Metropolitana di Torino,Piemonte,Italy,IT,10141,45.052584,7.6504234
Torino Traiano,"C.so Traiano, 58, 10135 Torino , TO","011/615379, ",45.0237999,7.6445298,https://www.pampanorama.it/punti-vendita/torino-traiano,"Corso Traiano, 60/A, 10135 Torino TO, Italy",60/A,Corso Traiano,Torino,Torino,Città Metropolitana di Torino,Piemonte,Italy,IT,10135,45.0237274,7.644638699999999
Torino Santa Rita da Cascia,"Piazza Santa Rita Da Cascia 9, 10136 Torino , TO","011/19697053, ",45.0475998,7.6469402,https://www.pampanorama.it/punti-vendita/torino-cascia,"Via Tripoli, 72/A, 10136 Torino TO, Italy",72/A,Via Tripoli,Torino,Torino,Città Metropolitana di Torino,Piemonte,Italy,IT,10136,45.0475857,7.6470198
Torino San Paolo,"Via S. Paolo, 36, 10141 Torino , TO","011/3352820, ",45.0629997,7.6505199,https://www.pampanorama.it/punti-vendita/torino-san-paolo,"Via S Paolo, 36/D, 10141 Torino TO, Italy",36/D,Via San Paolo,Torino,Torino,Città Metropolitana di Torino,Piemonte,Italy,IT,10141,45.0630731,7.650509299999999
Torino Cosenza,"C.so Cosenza, 46/B, 10137 Torino , TO","011/322581, ",45.0355988,7.64218,https://www.pampanorama.it/punti-vendita/torino-cosenza,"Corso Cosenza, 46, 10137 Torino TO, Italy",46,Corso Cosenza,Torino,Torino,Città Metropolitana di Torino,Piemonte,Italy,IT,10137,45.0356088,7.642174799999999
Torino Svizzera,"C.so Svizzera, 52, 10143 Torino , TO","011/7764110, ",45.0806007,7.65066,https://www.pampanorama.it/punti-vendita/torino-svizzera,"Corso Svizzera, 52, 10143 Torino TO, Italy",52,Corso Svizzera,Torino,Torino,Città Metropolitana di Torino,Piemonte,Italy,IT,10143,45.0805371,7.650652200000001
Torino Orbassano,"C.so Orbassano, 212, 10137 Torino , TO","011/396061, ",45.042099,7.6378102,https://www.pampanorama.it/punti-vendita/torino-orbassano,"C.so Orbassano, 212, 10137 Torino TO, Italy",212,Corso Orbassano,Torino,Torino,Città Metropolitana di Torino,Piemonte,Italy,IT,10137,45.0421142,7.637790000000001
Torino Frejus 92,"Via Frejus, 92, 10100 Torino , TO","01119239936, ",45.070449,7.643841,https://www.pampanorama.it/punti-vendita/pam-torino-frejus-92,"Via Fréjus, 92A, 10139 Torino TO, Italy",92A,Via Fréjus,Torino,Torino,Città Metropolitana di Torino,Piemonte,Italy,IT,10139,45.07046320000001,7.643844700000001
Torino Delleani,"Via Lorenzo Delleani, 8, 10141 Torino , TO","01119524248, ",45.06732,7.636415,https://www.pampanorama.it/punti-vendita/pam-torino-delleani,"Via Lorenzo Delleani, 8, 10141 Torino TO, Italy",8,Via Lorenzo Delleani,Torino,Torino,Città Metropolitana di Torino,Piemonte,Italy,IT,10141,45.06734460000001,7.6363599
Torino Salbertrand,"Via Salbertrand, 67, 10146 Torino , TO","011/7493362, ",45.0811997,7.6363902,https://www.pampanorama.it/punti-vendita/torino-salbertrand,"Via Salbertrand, 67, 10146 Torino TO, Italy",67,Via Salbertrand,Torino,Torino,Città Metropolitana di Torino,Piemonte,Italy,IT,10146,45.0812459,7.6363767
Torino Peschiera,"Corso Peschiera 325, 10141 Torino , TO","011/0362012, ",45.073004,7.6274,https://www.pampanorama.it/punti-vendita/torino-peschiera,"Corso Peschiera, 325, 10141 Torino TO, Italy",325,Corso Peschiera,Torino,Torino,Città Metropolitana di Torino,Piemonte,Italy,IT,10141,45.07300799999999,7.6273866
Collegno,"V.le Piemonte, 32/34, 10093 Collegno , TO","011-19687912, ",45.0765991,7.5759702,https://www.pampanorama.it/punti-vendita/collegno,"Viale Piemonte, 15, 10093 Collegno TO, Italy",15,Viale Piemonte,Collegno,Collegno,Città Metropolitana di Torino,Piemonte,Italy,IT,10093,45.07655399999999,7.5759401
Torino,"Strada Settimo Torinese, 371, 10099 San Mauro Torinese , TO","011/2230811, ",45.1183014,7.7386198,https://www.pampanorama.it/punti-vendita/torino,"Str. di Settimo, 336a, 10099 San Mauro Torinese TO, Italy",336a,Strada di Settimo,San Mauro Torinese,San Mauro Torinese,Città Metropolitana di Torino,Piemonte,Italy,IT,10099,45.1179615,7.739181599999999
Leinì,"Viale Europa, 10040 Leinì , TO","011/9982189, ",45.1838989,7.7199998,https://www.pampanorama.it/punti-vendita/leini,"Viale Europa, 42 A, 10040 Leini TO, Italy",42 A,Viale Europa,Leini,Leini,Città Metropolitana di Torino,Piemonte,Italy,IT,10040,45.18400099999999,7.720057
Venaria Reale,"Via Goito, 8, 10078 Venaria Reale , TO","0114591343, ",45.129724,7.63264,https://www.pampanorama.it/punti-vendita/pam-venaria-reale,"Via Goito, 11A, 10078 Venaria Reale TO, Italy",11A,Via Goito,Venaria Reale,Venaria Reale,Città Metropolitana di Torino,Piemonte,Italy,IT,10078,45.1296891,7.6326231
Torino Potenza,"C.so Potenza, 60, 10149 Torino , TO","011/2629581, ",45.0942993,7.6564899,https://www.pampanorama.it/punti-vendita/torino-potenza,"Via Val della Torre, 69/A, 10149 Torino TO, Italy",69/A,Via Val della Torre,Torino,Torino,Città Metropolitana di Torino,Piemonte,Italy,IT,10149,45.0941937,7.6565803
Torino Porpora,"Via Porpora, 38/bis C, 10154 Torino , TO","011/201030, ",45.0980988,7.6984801,https://www.pampanorama.it/punti-vendita/torino-porpora,"Via Nicola Porpora, 38 bis/C, 10154 Torino TO, Italy",38 bis/C,Via Nicola Porpora,Torino,Torino,Città Metropolitana di Torino,Piemonte,Italy,IT,10154,45.0980903,7.6984491
Piobesi Torinese,"Piazza Primo Maggio, 6, 10040 Piobesi Torinese , TO","0119657944, ",44.931292,7.61286,https://www.pampanorama.it/punti-vendita/pam-piobesi-torinese,"PIOBESI T.SE - P.za 1 Maggio 8, 10040 Piobesi Torinese TO, Italy",,,Piobesi Torinese,Piobesi Torinese,Città Metropolitana di Torino,Piemonte,Italy,IT,10040,44.93136,7.612859999999999
Rivarolo,"C.so Indipendenza, 50, 10086 Rivarolo Canavese , TO","0124/26738, ",45.3345985,7.7217498,https://www.pampanorama.it/punti-vendita/rivarolo,"C.so Indipendenza, 50, 10086 Rivarolo Canavese TO, Italy",50,Corso Indipendenza,Rivarolo Canavese,Rivarolo Canavese,Città Metropolitana di Torino,Piemonte,Italy,IT,10086,45.33472219999999,7.7219444
San Severo Terranova,"Via Terranova, SNC, 71016 San Severo , FG","0882 433780, ",41.68759,15.37,https://www.pampanorama.it/punti-vendita/san-severo-via-terranova-retail-pro,"Via C. Terranova, 61, 71016 San Severo FG, Italy",61,Via C. Terranova,San Severo,San Severo,Provincia di Foggia,Puglia,Italy,IT,71016,41.6877377,15.3702399
San Severo Togliatti,"Via Togliatti, 34, 71121 San Severo , FG","0882-248098, ",41.69444,15.37587,https://www.pampanorama.it/punti-vendita/san-severo-via-togliatti-retail-pro,"Via D'Orso, 13, 71016 San Severo FG, Italy",13,Via D'Orso,San Severo,San Severo,Provincia di Foggia,Puglia,Italy,IT,71016,41.69448,15.3758035
Craveggia,"Via Provinciale, 12, 28852 Craveggia , VB",", ",46.134546,8.326354,https://www.pampanorama.it/punti-vendita/pam-craveggia,"Via Provinciale, 10, 28855 Masera VB, Italy",10,Via Provinciale,Masera,Masera,Provincia del Verbano-Cusio-Ossola,Piemonte,Italy,IT,28855,46.1345725,8.32633
Guglionesi Molise,"Via Molise, SNC, 86034 Guglionesi , CB","0875 81878, ",41.91565,14.9188,https://www.pampanorama.it/punti-vendita/guglionesi-via-molise-retail-pro,"Via Basilicata, 10, 86034 Guglionesi CB, Italy",10,Via Basilicata,Guglionesi,Guglionesi,Provincia di Campobasso,Molise,Italy,IT,86034,41.9154832,14.9186313
Termoli Elba,"Via Elba, Snc, 86039 Termoli , CB",", ",41.99078,14.99448,https://www.pampanorama.it/punti-vendita/termoli-via-elba-retail-pro,"Via Elba, 28, 86039 Termoli CB, Italy",28,Via Elba,Termoli,Termoli,Provincia di Campobasso,Molise,Italy,IT,86039,41.9908387,14.9945625
Foggia Spagna,"Viale Spagna, 4 D/E/F, 71122 Foggia , FG","0881 662930, ",41.44571,15.5587,https://www.pampanorama.it/punti-vendita/foggia-via-spagna-retail-pro,"Viale Francia, 23, 71122 Foggia FG, Italy",23,Viale Francia,Foggia,Foggia,Provincia di Foggia,Puglia,Italy,IT,71122,41.445716,15.5586587
Foggia,"Via Annino Gentile, 60 - Angolo Via Lucera SNC, Foggia , FG",", ",41.468427,15.523006,https://www.pampanorama.it/punti-vendita/foggia,"Via Annino Gentile, 259, 71122 Foggia FG, Italy",259,Via Annino Gentile,,Foggia,Provincia di Foggia,Puglia,Italy,IT,71122,41.4684259,15.5231487
Foggia Gentile,"Via Gentile, 9, 71122 Foggia , FG","0881 663577, ",41.43936,15.5584,https://www.pampanorama.it/punti-vendita/foggia-via-gentile-retail-pro,"Viale Giovanni Gentile, 5, 71122 Foggia FG, Italy",5,Viale Giovanni Gentile,Foggia,Foggia,Provincia di Foggia,Puglia,Italy,IT,71122,41.4394195,15.5582813
Arezzo San Lorentino,"Via M. Perennio, 23, 52100 Arezzo , AR","0575047924, ",43.4688988,11.8736,https://www.pampanorama.it/punti-vendita/arezzo-san-lorentino,"Via Marco Perennio, 23, 52100 Arezzo AR, Italy",23,Via Marco Perennio,Arezzo,Arezzo,Provincia di Arezzo,Toscana,Italy,IT,52100,43.468883,11.8735931
Arezzo Campo Marzio,"Via Calò, 12 - ang. Via Curina, 52100 Arezzo , AR","0575/354455, ",43.4616013,11.8964005,https://www.pampanorama.it/punti-vendita/arezzo-campo-marzio,"Via Antonio Curina, 36, 52100 Arezzo AR, Italy",36,Via Antonio Curina,Arezzo,Arezzo,Provincia di Arezzo,Toscana,Italy,IT,52100,43.4616581,11.896548
San Giovanni Valdarno,"V.le Giotto, 28, 52027 San Giovanni Valdarno , AR","0559/121857, ",43.5676994,11.5398998,https://www.pampanorama.it/punti-vendita/san-giovanni-valdarno,"Viale Giotto, 28, 52027 San Giovanni Valdarno AR, Italy",28,Viale Giotto,San Giovanni Valdarno,San Giovanni Valdarno,Provincia di Arezzo,Toscana,Italy,IT,52027,43.5676295,11.5398452
Sansepolcro,"Via Montefeltro, 1/C, 52037 Sansepolcro , AR","0575/735493, ",43.5713005,12.1450996,https://www.pampanorama.it/punti-vendita/sansepolcro,"Ssp082 sansepolcro Centro Comm.Le, 52037 Sansepolcro AR, Italy",,,Sansepolcro,Sansepolcro,Provincia di Arezzo,Toscana,Italy,IT,52037,43.57117,12.1449824
Firenze Nazionale,"Via Nazionale, 108, 50123 Firenze , FI","055/9060558, ",43.75241,11.318558,https://www.pampanorama.it/punti-vendita/firenze-nazionale,"Via Roma, 108, 50012 Bagno A Ripoli FI, Italy",108,Via Roma,Bagno A Ripoli,Bagno a Ripoli,Città Metropolitana di Firenze,Toscana,Italy,IT,50012,43.7523905,11.31856
Firenze Mazzini,"Viale G. Mazzini, 15/R, Firenze , FI","055 – 1998 8470, ",43.7742596,11.2699218,https://www.pampanorama.it/punti-vendita/firenze-mazzini,"Via della Mattonaia, 70, 50121 Firenze FI, Italy",70,Via della Mattonaia,Firenze,Firenze,Città Metropolitana di Firenze,Toscana,Italy,IT,50121,43.7742161,11.2699569
Firenze dei Mille,"Viale dei Mille, 62, 50131 Firenze , FI","0555300093, ",43.78412,11.27326,https://www.pampanorama.it/punti-vendita/firenze-viale-dei-mille,"Viale dei Mille, 60 rosso, 50131 Firenze FI, Italy",60 rosso,Viale dei Mille,Firenze,Firenze,Città Metropolitana di Firenze,Toscana,Italy,IT,50131,43.7841072,11.2732309
Firenze Proconsolo,"Via del Proconsolo 85, Firenze , FI",", ",43.772128,11.257814,https://www.pampanorama.it/punti-vendita/firenze-proconsolo,"Via del Proconsolo, 85, 50122 Firenze FI, Italy",85,Via del Proconsolo,Firenze,Firenze,Città Metropolitana di Firenze,Toscana,Italy,IT,50122,43.7721328,11.2578108
Firenze Cavour,"Via Cavour 64/R, 50121 Firenze , FI","055 0944672, ",43.7761993,11.2568998,https://www.pampanorama.it/punti-vendita/pam-local-cavour,"Via Camillo Cavour, 72 R, 50122 Firenze FI, Italy",72 R,Via Camillo Cavour,Firenze,Firenze,Città Metropolitana di Firenze,Toscana,Italy,IT,50122,43.7761886,11.2569856
Firenze Ottaviani,"Piazza degli Ottaviani 13/R, 50123 Firenze , FI","055/5308553, ",43.7725983,11.2489004,https://www.pampanorama.it/punti-vendita/firenze-ottaviani,"Via Palazzuolo, 4 R, 50123 Firenze FI, Italy",4 R,Via Palazzuolo,Firenze,Firenze,Città Metropolitana di Firenze,Toscana,Italy,IT,50123,43.7725665,11.248865
Firenze Francavilla,"Via Francavilla, 13/15, 50142 Firenze , FI","055/0518445, ",43.7733994,11.2242003,https://www.pampanorama.it/punti-vendita/firenze-francavilla,"Via Pietro Francavilla, 13/A, 50142 Firenze FI, Italy",13/A,Via Pietro Francavilla,Firenze,Firenze,Città Metropolitana di Firenze,Toscana,Italy,IT,50142,43.7733485,11.2241984
Firenze Legnaia,"Via Andrea da Pontedera, 30, 50143 Firenze , FI","0559061526, ",43.7683983,11.2110996,https://www.pampanorama.it/punti-vendita/firenze-legnaia,"Via Andrea da Pontedera, 32, 50143 Firenze FI, Italy",32,Via Andrea da Pontedera,Firenze,Firenze,Città Metropolitana di Firenze,Toscana,Italy,IT,50143,43.768337,11.2110142
Trento,"Via G. B. Trener, 16, 38121 Trento , TN","0461/821256, ",46.0936012,11.1146002,https://www.pampanorama.it/punti-vendita/trento,"Via del Brennero, 175, 38121 Trento TN, Italy",175,Via del Brennero,Trento,Trento,Provincia autonoma di Trento,Trentino-Alto Adige,Italy,IT,38121,46.0936262,11.1138397
Borgo San Lorenzo,"Piazza Gramsci, 12, 50032 Borgo San Lorenzo , FI","0555370524, ",43.954119,11.3891,https://www.pampanorama.it/punti-vendita/pam-borgo-san-lorenzo,"Piazza Antonio Gramsci, 11, 50032 Borgo San Lorenzo FI, Italy",11,Piazza Antonio Gramsci,Borgo San Lorenzo,Borgo San Lorenzo,Città Metropolitana di Firenze,Toscana,Italy,IT,50032,43.9541096,11.3890751
Campi Bisenzio,"Via S.Quirico, 165, 50121 Firenze , FI","055/897651, ",43.8465996,11.1431999,https://www.pampanorama.it/punti-vendita/panorama-campi-bisenzio,"Via San Quirico, 165, 50013 Campi Bisenzio FI, Italy",165,Via San Quirico,Campi Bisenzio,Campi Bisenzio,Città Metropolitana di Firenze,Toscana,Italy,IT,50013,43.8466514,11.1431791
Prato Ferrucci,"Via Ferrucci, 132, 59100 Prato , PO","0574/593356, ",43.873322,11.10517,https://www.pampanorama.it/punti-vendita/prato-ferrucci,"Via Emilio Boni, 2, 59100 Prato PO, Italy",2,Via Emilio Boni,Prato,Prato,Provincia di Prato,Toscana,Italy,IT,59100,43.8733443,11.1049534
Poggio a Caiano,"V.le Matteotti, 18, 59016 Poggio a Caiano , PO","055/8778939, ",43.8190002,11.0509996,https://www.pampanorama.it/punti-vendita/poggio-a-caiano,"Via Risorgimento, 301, 59016 Poggio a Caiano PO, Italy",301,Via Risorgimento,Poggio a Caiano,Poggio a Caiano,Provincia di Prato,Toscana,Italy,IT,59016,43.8188835,11.0505866
San Miniato,"Via Pestalozzi, 10/12, 56028 San Miniato , PI","0571/43763, ",43.6935005,10.8343,https://www.pampanorama.it/punti-vendita/san-miniato,"S.Miniato B. V.Pestalozzi Supermercato, 56028 San Miniato Basso PI, Italy",,,San Miniato Basso,San Miniato,Provincia di Pisa,Toscana,Italy,IT,56028,43.6935367,10.8344306
Follonica,"Via Massetana - Loc. Le Corti Nuove, 58022 Follonica , GR","0566/264158, ",42.922699,10.7593002,https://www.pampanorama.it/punti-vendita/follonica,"Località Santa Corinna, 58022 Follonica GR, Italy",,,Follonica,Follonica,Provincia di Grosseto,Toscana,Italy,IT,58022,42.9226887,10.7593003
Grosseto Barberi,"Via De Barberi, 58100 Grosseto , GR","0564/417200, ",42.7560005,11.1162996,https://www.pampanorama.it/punti-vendita/grosseto-barberi,"Via Tito Speri, 42, 58100 Grosseto GR, Italy",42,Via Tito Speri,Grosseto,Grosseto,Provincia di Grosseto,Toscana,Italy,IT,58100,42.7559692,11.1162794
Grosseto Sabotino,"Via del Sabotino, 6, 58100 Grosseto , GR","0564/455318, ",42.7714005,11.1069002,https://www.pampanorama.it/punti-vendita/grosseto-sabotino,"Strada Statale 1 Vecchia Aurelia, 75, 58100 Grosseto GR, Italy",75,Strada Statale 1 Vecchia Aurelia,Grosseto,Grosseto,Provincia di Grosseto,Toscana,Italy,IT,58100,42.7713056,11.1069149
Piove di Sacco,"Via Michiel, 5, 35028 Piove di Sacco , PD","0495841049, ",45.295187,12.03836,https://www.pampanorama.it/punti-vendita/pam-piove-di-sacco,"Via Michiel, 3, 35028 Piove di Sacco PD, Italy",3,Via Michiel,Piove di Sacco,Piove di Sacco,Provincia di Padova,Veneto,Italy,IT,35028,45.2952211,12.0383915
Padova Santa Croce,"P.tta S. Croce, 17/18, 35123 Padova , PD","049/8803222, ",45.3917007,11.8706999,https://www.pampanorama.it/punti-vendita/padova-santa-croce,"Piazzale Santa Croce, 29, 35124 Padova PD, Italy",29,Piazzale Santa Croce,Padova,Padova,Provincia di Padova,Veneto,Italy,IT,35124,45.391746,11.870544
Padova Corso Milano,"Corso Milano, 90, 1241 Padova , PD",", ",45.4110985,11.8670998,https://www.pampanorama.it/punti-vendita/padova-milano,"35137, Corso Milano, 96, 35139 Padova PD, Italy",96,Corso Milano,Padova,Padova,Provincia di Padova,Veneto,Italy,IT,35139,45.4111139,11.8671276
Cadorna,"Via Cadorna, 22, 35123 Padova , PD",", ",45.39665,11.87042,https://www.pampanorama.it/punti-vendita/padova-cadorna,"Via Luigi Cadorna, 22A, 35123 Padova PD, Italy",22A,Via Luigi Cadorna,Padova,Padova,Provincia di Padova,Veneto,Italy,IT,35123,45.39661299999999,11.8704891
Umberto I,"Via Umberto I, 14, 35123 Padova , PD","0499863586, ",45.402832,11.8733511,https://www.pampanorama.it/punti-vendita/padova-umberto,"Via 20 Settembre, 37, 35122 Padova PD, Italy",37,Via 20 Settembre,Padova,Padova,Provincia di Padova,Veneto,Italy,IT,35122,45.4028674,11.8733737
Padova Mazzini,"Piazzale Mazzini, 10, 35137 Padova , PD","049 7300419, ",45.41378,11.87337,https://www.pampanorama.it/punti-vendita/padova-mazzini,"Piazzale Mazzini, 9, 35137 Padova PD, Italy",9,Piazzale Mazzini,Padova,Padova,Provincia di Padova,Veneto,Italy,IT,35137,45.4137582,11.8733532
Padova Piazza delle Erbe,"Piazza delle Erbe, 19, 35122 Padova , PD",", ",45.4075012,11.8752003,https://www.pampanorama.it/punti-vendita/pam-erbe,"Sotto Il Salone, 8, 35122 Padova PD, Italy",8,Sotto Il Salone,Padova,Padova,Provincia di Padova,Veneto,Italy,IT,35122,45.4074506,11.8752281
Padova Garzeria,"P.tta Garzeria, 3, 35122 Padova , PD","049/657006, ",45.4075012,11.8774004,https://www.pampanorama.it/punti-vendita/padova-garzeria,"P.za della Garzeria, 2, 35121 Padova PD, Italy",2,Piazzetta della Garzeria,Padova,Padova,Provincia di Padova,Veneto,Italy,IT,35121,45.4075332,11.8773399
Padova San Francesco 32/B,"Via San Francesco, 32/B, 35121 Padova , PD",", ",45.4058991,11.8786001,https://www.pampanorama.it/punti-vendita/padova-sanfrancesco32,"Via S. Francesco, 28, 35123 Padova PD, Italy",28,Via San Francesco,Padova,Padova,Provincia di Padova,Veneto,Italy,IT,35123,45.405947,11.878636
Padova San Francesco,"Via San Francesco, 181, 35121 Padova , PD","049 7446211, ",45.4021988,11.8834,https://www.pampanorama.it/punti-vendita/padova-sanfrancesco,"Via S. Francesco, 234, 35121 Padova PD, Italy",234,Via San Francesco,Padova,Padova,Provincia di Padova,Veneto,Italy,IT,35121,45.4022015,11.8833677
Padova Altinate,"Via Altinate, 121, 35121 Padova , PD","049.9863591, ",45.4076996,11.8835001,https://www.pampanorama.it/punti-vendita/padova-altinate,"Via Altinate, 119, 35121 Padova PD, Italy",119,Via Altinate,Padova,Padova,Provincia di Padova,Veneto,Italy,IT,35121,45.4077117,11.8835056
Padova Scrovegni,"Via Enrico degli Scrovegni 20/22/24 – 35131 Padova (PD), Padova , PD",", pamlocal2022@pamfranchising.it",45.412617,11.885856,https://www.pampanorama.it/punti-vendita/padova-scrovegni,"Via Enrico degli Scrovegni, 22, 35131 Padova PD, Italy",22,Via Enrico degli Scrovegni,Padova,Padova,Provincia di Padova,Veneto,Italy,IT,35131,45.4125939,11.8858515
Padova Portello,"Via del Portello, 13, 35129 Padova , PD","049 9863554, ",45.4077988,11.8920002,https://www.pampanorama.it/punti-vendita/padova-portello,"Via del Portello, 10, 35129 Padova PD, Italy",10,Via del Portello,Padova,Padova,Provincia di Padova,Veneto,Italy,IT,35129,45.4077291,11.8920358
Padova San Carlo,"Galleria San Carlo, 15 (zona Arcella), 35133 Padova , PD","049/8644761, ",45.4300995,11.8900003,https://www.pampanorama.it/punti-vendita/padova-san-carlo,"Via Antonio Zanchi, 11, 35133 Padova PD, Italy",11,Via Antonio Zanchi,Padova,Padova,Provincia di Padova,Veneto,Italy,IT,35133,45.4301206,11.8899725
Padova Grassi,"Via Maroncelli, 25 - ang. via A. Grassi, 35129 Padova , PD","0497300406, ",45.414148,11.902386,https://www.pampanorama.it/punti-vendita/padova-grassi,"Via Pietro Maroncelli, 23, 35129 Padova PD, Italy",23,Via Pietro Maroncelli,Padova,Padova,Provincia di Padova,Veneto,Italy,IT,35129,45.4139066,11.9022193
Enrico degli Scrovegni,"Via Enrico degli Scrovegni 20,22,24 35131 Padova, Padova , PD","3426160172, pamlocal2022@pamfranchising.it",45.435418,11.950242,https://www.pampanorama.it/punti-vendita/pam-local-enrico-degli-scrovegni,"Via Germania, 17, 35010 Vigonza PD, Italy",17,Via Germania,,Vigonza,Provincia di Padova,Veneto,Italy,IT,35010,45.4353929,11.9500734
Livorno Corea,"P.zza Saragat, 10/2, 57121 Livorno , LI","0586/423481, ",43.5634995,10.3262997,https://www.pampanorama.it/punti-vendita/livorno-corea,"Piazza Giuseppe Saragat, 10, 57121 Livorno LI, Italy",10,Piazza Giuseppe Saragat,Livorno,Livorno,Provincia di Livorno,Toscana,Italy,IT,57121,43.5634995,10.3261986
Livorno,"Piazza Grande, 33/37, 57123 Livorno , LI","02/55196003, ",43.5503998,10.3066998,https://www.pampanorama.it/punti-vendita/pam-local-livorno,"Via Fiume, 71, 57123 Livorno LI, Italy",71,Via Fiume,Livorno,Livorno,Provincia di Livorno,Toscana,Italy,IT,57123,43.5504891,10.3065779
Livorno Capuccini,"Borgo Cappuccini 24, Livorno, Livorno , LI",", ",43.54595214124554,10.304985328836148,https://www.pampanorama.it/punti-vendita/pam-local-livorno-capiccini,"Borgo dei Cappuccini, 22, 57126 Livorno LI, Italy",22,Borgo dei Cappuccini,Livorno,Livorno,Provincia di Livorno,Toscana,Italy,IT,57126,43.5459694,10.3049519
Livorno Corso Amedeo,"Corso Amedeo, 227, 57125 Livorno , LI",", ",43.548544,10.317191,https://www.pampanorama.it/punti-vendita/pam-local-livorno-corso-amedeo,"Corso Amedeo, 227, 57125 Livorno LI, Italy",227,Corso Amedeo,Livorno,Livorno,Provincia di Livorno,Toscana,Italy,IT,57125,43.5485443,10.3172037
Livorno Roma,"Via del Bosco - ang. Via Roma, 57126 Livorno , LI","0586/808306, ",43.542099,10.3132,https://www.pampanorama.it/punti-vendita/livorno-roma,"Via Roma, 43, 57126 Livorno LI, Italy",43,Via Roma,Livorno,Livorno,Provincia di Livorno,Toscana,Italy,IT,57126,43.5421077,10.3132201
Spinea,"Via delle Industrie, 10/B, 30038 Venezia , VE","041/5413761, ",45.4931984,12.1455002,https://www.pampanorama.it/punti-vendita/spinea,"Via delle Industrie, 12, 30038 Spinea VE, Italy",12,Via delle Industrie,Spinea,Spinea,Città Metropolitana di Venezia,Veneto,Italy,IT,30038,45.4931815,12.1453891
Oriago,"Via Venezia 216, Oriago , VE","0418944714, ",45.453454,12.177968,https://www.pampanorama.it/punti-vendita/pam-oriago,"Oriago Romagna, 30034 Oriago VE, Italy",,,Oriago,Mira,Città Metropolitana di Venezia,Veneto,Italy,IT,30034,45.453426,12.177616
Marghera,"Via S. Orsato, 13, 30100 Venezia , VE","041/2584211, ",45.4693985,12.2400999,https://www.pampanorama.it/punti-vendita/panorama-marghera,"F69R+Q2 Venice, Metropolitan City of Venice, Italy",,,Venice,Venice,Metropolitan City of Venice,Veneto,Italy,IT,,45.4693985,12.2400999
Mestre Popolo,"C.so del Popolo, 209, 30172 Venezia , VE","041/5310448, ",45.4833984,12.2405005,https://www.pampanorama.it/punti-vendita/mestre-popolo,"Corso del Popolo, 116, 30172 Venezia VE, Italy",116,Corso del Popolo,Venezia,Venezia,Città Metropolitana di Venezia,Veneto,Italy,IT,30172,45.4834118,12.2405181
Mestre local Popolo,"Corso del popolo 54/B, 30172 Mestre , VE","0419654617, ",45.488219,12.243083,https://www.pampanorama.it/punti-vendita/mestre-local-popolo,"Corso del Popolo, 54B, 30172 Venezia VE, Italy",54B,Corso del Popolo,Venezia,Venezia,Città Metropolitana di Venezia,Veneto,Italy,IT,30172,45.4882961,12.2430038
Mestre Barche,"P.zza XXVII ottobre, 1, 30172 Venezia , VE","041/956670, ",45.4920006,12.2428999,https://www.pampanorama.it/punti-vendita/mestre-barche,"Galleria Teatro Vecchio, 5, 30172 Venezia VE, Italy",5,Galleria Teatro Vecchio,Venezia,Venezia,Città Metropolitana di Venezia,Veneto,Italy,IT,30172,45.4919452,12.242777
Mestre local Garibaldi,"Viale Garibaldi, 61/b, 30170 Mestre , VE","0415349291, ",45.4995995,12.2442999,https://www.pampanorama.it/punti-vendita/mestre-local-garibaldi,"Via Santa Maria dei Battuti, 5, 30173 Venezia VE, Italy",5,Via Santa Maria dei Battuti,Venezia,Venezia,Città Metropolitana di Venezia,Veneto,Italy,IT,30173,45.4995214,12.2442367
Vicenza Trento,"Viale Trento - ang. Via Pecori Giraldi, 36100 Vicenza , VI","0444/288396, ",45.5551987,11.5222998,https://www.pampanorama.it/punti-vendita/vicenza-trento,"Via Brigata Liguria, 6, 36100 Vicenza VI, Italy",6,Via Brigata Liguria,Vicenza,Vicenza,Provincia di Vicenza,Veneto,Italy,IT,36100,45.55510810000001,11.5221858
Lucca San Paolino,"Via San Paolino 16/18, 55100 Lucca , LU",", ",43.8428993,10.5017996,https://www.pampanorama.it/punti-vendita/lucca-paolino,"Via S. Paolino, 16, 55100 Lucca LU, Italy",16,Via San Paolino,Lucca,Lucca,Provincia di Lucca,Toscana,Italy,IT,55100,43.8429592,10.5018418
Viareggio Risorgimento,"Largo Risorgimento, 13, 55049 Viareggio , LU","0584/1760181, ",43.868415,10.257329,https://www.pampanorama.it/punti-vendita/pam-viareggio-risorgimento-1,"Largo Risorgimento, 13, 55049 Viareggio LU, Italy",13,Largo Risorgimento,Viareggio,Viareggio,Provincia di Lucca,Toscana,Italy,IT,55049,43.8685072,10.2573483
Treviso,"Via Zorzetto, 12, 31100 Treviso , TV","0422/583913, ",45.6638985,12.2449999,https://www.pampanorama.it/punti-vendita/treviso,"Corso del Popolo, 48, 31100 Treviso TV, Italy",48,Corso del Popolo,Treviso,Treviso,Provincia di Treviso,Veneto,Italy,IT,31100,45.6638919,12.2451105
Treviso,"Viale della Repubblica, 11, 31100 Treviso , TV","0422/214511, ",45.6687012,12.2248001,https://www.pampanorama.it/punti-vendita/panorama-treviso,"Vicolo XXIV Maggio, 4-6, 31100 Treviso TV, Italy",4-6,Vicolo XXIV Maggio,Treviso,Treviso,Provincia di Treviso,Veneto,Italy,IT,31100,45.6685955,12.2252726
Pontedera,"Via del Gelso, 6A, 56025 Pontedera , PI","0587/21061, ",43.6624985,10.6364002,https://www.pampanorama.it/punti-vendita/panorama-pontedera,"Piazza Caduti Divisione Acqui Cefalonia e Corfu, 40, 56025 Pontedera PI, Italy",40,Piazza Caduti Divisione Acqui Cefalonia e Corfu,Pontedera,Pontedera,Provincia di Pisa,Toscana,Italy,IT,56025,43.66228479999999,10.6364132
Fornacette,"P.zza Kolbe, 2-15 Loc. Fornacette, 56012 Calcinaia , PI","0587/422240, ",43.6706009,10.5811997,https://www.pampanorama.it/punti-vendita/fornacette,"Via Tosco Romagnola Ovest, 169, 56012 Fornacette PI, Italy",169,Via Tosco Romagnola Ovest,Fornacette,Calcinaia,Provincia di Pisa,Toscana,Italy,IT,56012,43.6705692,10.581188
Perugia Olmo,"Str. Fontana La Trinità , 2/A - Loc.Olmo, 06074 Perugia , PG","0755171700, ",43.10896,12.329604,https://www.pampanorama.it/punti-vendita/perugia-olmo,"Str. Fontana la Trinità, 36, 06132 Perugia PG, Italy",36,Strada Fontana la Trinità,Perugia,Perugia,Provincia di Perugia,Umbria,Italy,IT,06132,43.1091578,12.3293023
Perugia San Marco,"Str. Com. Perugia S. Marco, 85/A, 6100 Perugia , PG","0755/848579, ",43.129083,12.364311,https://www.pampanorama.it/punti-vendita/perugia-san-marco,"Str. Perugia - S. Marco, 85, 06125 Perugia PG, Italy",85,Strada Perugia - San Marco,Perugia,Perugia,Provincia di Perugia,Umbria,Italy,IT,06125,43.1290353,12.3641926
Baglioni,"Via Baglioni, 7, 06121 Perugia , PG","0754659610, ",43.11031,12.38934,https://www.pampanorama.it/punti-vendita/perugia-baglioni,"Via Baglioni, 7, 06121 Perugia PG, Italy",7,Via Baglioni,Perugia,Perugia,Provincia di Perugia,Umbria,Italy,IT,06121,43.1102837,12.3892917
Marconi,"Via Guglielmo Marconi, 16, 06121 Perugia , PG","0755727456, ",43.1074,12.39017,https://www.pampanorama.it/punti-vendita/perugia-marconi,"Via Guglielmo Marconi, 14, 06121 Perugia PG, Italy",14,Via Guglielmo Marconi,Perugia,Perugia,Provincia di Perugia,Umbria,Italy,IT,06121,43.107392,12.3902107
Pisa San Lorenzo,"Via San Lorenzo, 77, 56127 Pisa , PI",", ",43.71965,10.40261,https://www.pampanorama.it/punti-vendita/pam-san-lorenzo,"Via S. Lorenzo, 77/A, 56127 Pisa PI, Italy",77/A,Via San Lorenzo,Pisa,Pisa,Provincia di Pisa,Toscana,Italy,IT,56127,43.71962449999999,10.4025419
Pisa Santa Maria,"Via Santa Maria, 84, 56126 Pisa , PI","050 9910587, ",43.72059,10.39713,https://www.pampanorama.it/punti-vendita/pisa-santa-maria,"Via Santa Maria, 80, 56126 Pisa PI, Italy",80,Via Santa Maria,Pisa,Pisa,Provincia di Pisa,Toscana,Italy,IT,56126,43.7205588,10.3971692
Pisa Borgo Stretto,"Borgo Stretto, 40, 56127 Pisa , PI","050/8933397, ",43.717617,10.402306,https://www.pampanorama.it/punti-vendita/pisa-borgo-stretto,"Largo Ciro Menotti, 40, 56127 Pisa PI, Italy",40,Largo Ciro Menotti,Pisa,Pisa,Provincia di Pisa,Toscana,Italy,IT,56127,43.7176074,10.4022866
Pisa Cascine,"V.le delle Cascine, 1, 56122 Pisa , PI","050/562255, ",43.7246018,10.3895998,https://www.pampanorama.it/punti-vendita/pisa-cascine,"Viale delle Cascine, 10, 56122 Pisa PI, Italy",10,Viale delle Cascine,Pisa,Pisa,Provincia di Pisa,Toscana,Italy,IT,56122,43.7246313,10.3899178
Gubbio,"Via Giotto, 9, 06024 Gubbio , PG","0759/220223, ",43.3562012,12.5637999,https://www.pampanorama.it/punti-vendita/gubbio,"Via Giotto, 5, 06024 Gubbio PG, Italy",5,Via Giotto,Gubbio,Gubbio,Provincia di Perugia,Umbria,Italy,IT,06024,43.3562618,12.5638566
Chiusi,"Loc. Querce al Pino, 53043 Chiusi , SI","0578/274611, ",43.0149994,11.9068003,https://www.pampanorama.it/punti-vendita/chiusi,"Querce Al Pino Km. 0,115, 53043 Chiusi SI, Italy",,,,Chiusi,Provincia di Siena,Toscana,Italy,IT,53043,43.0150102,11.9067974
Castrette,"Via della Cartiera, 5 (Castrette), 31020 Villorba , TV","0422/920511, ",45.7308006,12.2605,https://www.pampanorama.it/punti-vendita/panorama-castrette,"di, Via A. Meucci, 25, 31020 Villorba TV, Italy",25,Via A. Meucci,Lancenigo,Villorba,Provincia di Treviso,Veneto,Italy,IT,31020,45.7307784,12.2604653
Agliana,"Via della Libertà, 53, 51031 Agliana , PT","05741940457, ",43.903166,11.009776,https://www.pampanorama.it/punti-vendita/pam-agliana,"Via della Libertà, 51C, 51031 Agliana PT, Italy",51C,Via della Libertà,Agliana,Agliana,Provincia di Pistoia,Toscana,Italy,IT,51031,43.9032601,11.0097543
Quarrata,"Via Statale, 173, 51039 Quarrata , PT","0573/717186, ",43.8776016,10.9776001,https://www.pampanorama.it/punti-vendita/quarrata,"Via Statale, 173, 51039 Sant'Antonio PT, Italy",173,Via Statale,Sant'Antonio,Quarrata,Provincia di Pistoia,Toscana,Italy,IT,51039,43.8776957,10.9777913
Pistoia,"Via Bure Vecchia Nord, 95, 51100 Pistoia , PT","0573-966900, ",43.9303017,10.9078999,https://www.pampanorama.it/punti-vendita/panorama-pistoia,"Via Sergio Sacconi, 18, 51100 Pistoia PT, Italy",18,Via Sergio Sacconi,Pistoia,Pistoia,Provincia di Pistoia,Toscana,Italy,IT,51100,43.9302757,10.9079095
Montale,"Via Buozzi, 9, 51037 Montale , PT","0573558557, ",43.938587,11.025958,https://www.pampanorama.it/punti-vendita/pam-montale,"Via Bruno Buozzi, 7, 51037 Montale PT, Italy",7,Via Bruno Buozzi,Montale,Montale,Provincia di Pistoia,Toscana,Italy,IT,51037,43.93855070000001,11.0257523
Sottomarina,"Via Marco Polo, 70, 30019 Chioggia , VE","041/5544177, ",45.2043991,12.2938995,https://www.pampanorama.it/punti-vendita/sottomarina,"Via M. Polo, 68/A, 30015 Chioggia VE, Italy",68/A,Via M. Polo,Chioggia,Chioggia,Città Metropolitana di Venezia,Veneto,Italy,IT,30015,45.2043584,12.2938425
Chioggia,"Corso del Popolo, 1207, 30015 Chioggia , VE","041400400, ",45.217864,12.278068,https://www.pampanorama.it/punti-vendita/pam-chioggia,"Corso del Popolo, 939, 30015 Chioggia VE, Italy",939,Corso del Popolo,Chioggia,Chioggia,Città Metropolitana di Venezia,Veneto,Italy,IT,30015,45.2177335,12.2781717
Signorelli,"Via Signorelli, 23, 05018 Orvieto , TR","0763.450570, ",42.71777,12.110568,https://www.pampanorama.it/punti-vendita/orvieto-signorelli,"Piazza Ippolito Scalza, 11, 05018 Orvieto TR, Italy",11,Piazza Ippolito Scalza,Orvieto,Orvieto,Provincia di Terni,Umbria,Italy,IT,05018,42.71774389999999,12.110405
Orvieto,"Corso Cavour, 100, 05018 Orvieto , TR","0763 343749, ",42.71869,12.11326,https://www.pampanorama.it/punti-vendita/orvieto,"Corso Cavour, 130, 05018 Orvieto TR, Italy",130,Corso Cavour,Orvieto,Orvieto,Provincia di Terni,Umbria,Italy,IT,05018,42.7186867,12.1132843
Siena Banchi di Sotto,"Via Banchi di Sotto, 45, 53100 Siena , SI","0577052127, ",43.31923,11.33238,https://www.pampanorama.it/punti-vendita/siena-banchi-sotto,"Banchi di Sotto, 43, 53100 Siena SI, Italy",43,Banchi di Sotto,Siena,Siena,Provincia di Siena,Toscana,Italy,IT,53100,43.3192265,11.332341
Siena Camollia,"Via Camollia 76, 53100 Siena , SI",", ",43.32514,11.32749,https://www.pampanorama.it/punti-vendita/local-siena-camollia,"Via Camollia, 85, 53100 Siena SI, Italy",85,Via Camollia,Siena,Siena,Provincia di Siena,Toscana,Italy,IT,53100,43.32513,11.3274147
Siena,"P.zza Rosselli, 21 int. 1, 53100 Siena , SI","0577/287526, ",43.3306007,11.3241997,https://www.pampanorama.it/punti-vendita/siena,"Piazzale Rosselli, 26, 53100 Siena SI, Italy",26,Piazzale Rosselli,Siena,Siena,Provincia di Siena,Toscana,Italy,IT,53100,43.33071289999999,11.324205
Verona Valverde,"via della Valverde 46, Verona ,",", ",45.434873,10.986125,https://www.pampanorama.it/punti-vendita/verona-valverde,"Via della Valverde, 69, 37122 Verona VR, Italy",69,Via della Valverde,Verona,Verona,Provincia di Verona,Veneto,Italy,IT,37122,45.4347504,10.9861253
Verona IV Novembre,"Via IV novembre, 6/A, 37126 Verona , VR","045/8343485, ",45.4458008,10.9891005,https://www.pampanorama.it/punti-vendita/verona-iv-novembre,"Via Giuseppe Cesare Abba, 12/A, 37126 Verona VR, Italy",12/A,Via Giuseppe Cesare Abba,Verona,Verona,Provincia di Verona,Veneto,Italy,IT,37126,45.4459029,10.9891338
Verona Bra,"Via dei Mutilati, 3, 37122 Verona , VR","045/8032822, ",45.4379997,10.9905005,https://www.pampanorama.it/punti-vendita/verona-bra,"Via dei Mutilati, 3, 37122 Verona VR, Italy",3,Via dei Mutilati,Verona,Verona,Provincia di Verona,Veneto,Italy,IT,37122,45.4379996,10.9904544
Verona Anfiteatro,"via Anfiteatro 9/A, Verona , VR",", ",45.44026,10.99658,https://www.pampanorama.it/punti-vendita/verona-anfiteatro,"Piazza Nogara, 3, 37121 Verona VR, Italy",3,Piazza Nogara,Verona,Verona,Provincia di Verona,Veneto,Italy,IT,37121,45.4402178,10.9965887
