Store Name,Address,Contact,Latitude,Longitude,Store URL
Pietramelara,"Via San Pasquale . snc, 81051 Pietramelara , CE","08231211734, ",41.27276,14.181592,https://www.pampanorama.it/punti-vendita/pietramelara
Bologna Costa,"Via Andrea Costa, 129, 40134 Bologna , BO","051/6141309, ",44.49530030,11.31480030,https://www.pampanorama.it/punti-vendita/bologna-costa
Bologna San Felice,"Via San Felice, 105, 40121 Bologna , BO","051/0569146, ",44.49810030,11.32839970,https://www.pampanorama.it/punti-vendita/bo-sanfelice
Bologna Zanardi,"Via Bovi Campeggi - angolo Via Zanardi, 40131 Bologna , BO","051 3781342, ",44.50547000,11.33500000,https://www.pampanorama.it/punti-vendita/bologna-zanardi
Bologna Marconi,"Via Marconi, 20, 40122 Bologna , BO","051/236984, ",44.49829870,11.33800030,https://www.pampanorama.it/punti-vendita/pam-local-bologna-marconi
Bologna Via Marconi,"Via Marconi, 28/A, 40122 Bologna , BO","051/520404, ",44.49929810,11.33839990,https://www.pampanorama.it/punti-vendita/bologna-marconi
Bologna IV Novembre,"Via IV Novembre, 16, 40123 Bologna , BO","051/3780738, ",44.49380110,11.33889960,https://www.pampanorama.it/punti-vendita/bologna-novembre
Bologna D'Azeglio,"Via D'Azeglio, 78, 40123 Bologna , BO","051/3780784, ",44.48870090,11.34029960,https://www.pampanorama.it/punti-vendita/pam-local-bologna-azeglio
Bologna Clavature,"Clavature, 17B, 40124 Bologna , BO","051/6100852, ",44.49319840,11.34609990,https://www.pampanorama.it/punti-vendita/pam-local-bologna-clavature
Bologna Strada Maggiore,"Strada Maggiore 15, 40125 Bologna , BO","051 3780798, ",44.49359890,11.34840010,https://www.pampanorama.it/punti-vendita/bologna-strada-maggiore
Bologna S. Stefano,"Via S. Stefano, 29, 40125 Bologna , BO","051/273039, ",44.49129870,11.34910010,https://www.pampanorama.it/punti-vendita/pam-local-bologna-s-stefano
Irnerio,"Via Irnerio, 24, 40126 Bologna , BO","051/253398, ",44.49971010,11.34881690,https://www.pampanorama.it/punti-vendita/bologna-irnerio
Bologna Corticella,"Via di Corticella, 3, 40139 Bologna , BO","051/356403, ",44.51300050,11.34760000,https://www.pampanorama.it/punti-vendita/bologna-corticella
Bologna Berti Pichat,"Viale Carlo Berti Pichat, 32 ang. San Donato, 40132 Bologna , BO","051/5885955, ",44.49879840,11.35460000,https://www.pampanorama.it/punti-vendita/bologna-berti-pichat
Bologna Murri,"Via Murri, 4, 40122 Bologna , BO","051344490, ",44.48389440,11.35550500,https://www.pampanorama.it/punti-vendita/bologna-murri
Bologna Piazza Trento e Trieste,"Piazza Trento e Trieste 1, 40137 Bologna , BO","051/3781347, ",44.48780060,11.36240010,https://www.pampanorama.it/punti-vendita/bologna-trento-trieste
Bologna Orti,"Via degli Orti, 13, 40137 Bologna , BO","051/5880077, ",44.47819900,11.36810020,https://www.pampanorama.it/punti-vendita/pam-local-bologna-orti
Bologna Dagnini,"Via Dagnini, 46, 40137 Bologna , BO","051/0563637, ",44.48229980,11.37049960,https://www.pampanorama.it/punti-vendita/bologna-dagnini
Vairano Patenora,"Via Patenara, Vairano Patenora , CE","0823744715, ",41.333468,14.115413,https://www.pampanorama.it/punti-vendita/vairano-patenora
Pignataro Maggiore,"Via Siani, 7, 81052 Pignataro Maggiore , CE","0823-1444249, ",41.190925,14.159177,https://www.pampanorama.it/punti-vendita/pignataro-maggiore
Ferrara Bersaglieri,"Via Bersaglieri del Po’, 58, 44121 Ferrara , FE","05321864379, ",44.83572,11.621682,https://www.pampanorama.it/punti-vendita/pam-ferrara-bersaglieri
Mazzini,"Via G. Mazzini, 90, 44121 Ferrara , FE","0532229614, ",44.83357000,11.62216000,https://www.pampanorama.it/punti-vendita/ferrara-mazzini
Curti Biagio Rosato,"Via Biagio Rosato, 86, Curti , CA",", ",41.07449,14.26641,https://www.pampanorama.it/punti-vendita/curti-via-biagio-rosato
Giugliano Palumbo,"Via Palumbo, 117, 80014 Giugliano in Campania , NA","081 8941709, ",40.92533,14.198421,https://www.pampanorama.it/punti-vendita/giugliano-via-palumbo-retail-pro
Marigliano Vittorio Emanuele,"Corso Vittorio Emanuele, 58, 80034 Marigliano , NA","081 8333986, ",40.923441,14.455853,https://www.pampanorama.it/punti-vendita/marigliano-corso-vittorio-emanuele-retail-pro
Marigliano S.Francesco,"Via San Francesco, 72, 80034 Merigliano , NA","081 8416374, ",40.92899,14.46249,https://www.pampanorama.it/punti-vendita/marigliano-s-francesco-retail-pro
Melito di Napoli Circumvallazione,"Circumvallazione Esterna, 54, 80017 Melito Di Napoli , NA","0817013148, ",40.91011,14.23015,https://www.pampanorama.it/punti-vendita/melito-di-napoli-circumvallazione
Mugnano Sp Melito Mugnano,"Strada Provinciale Melito Mugnago, 184, 80018 Mugnano Di Napoli , NA","081 7100080, ",40.91815,14.22507,https://www.pampanorama.it/punti-vendita/mugnano-sp-melito-mugnano-retail-pro
Retailpro Casoria,"Via Don Luigi Sturzo - 26/36, Casoria , NA","0817580533, ",40.90142,14.28272,https://www.pampanorama.it/punti-vendita/retailpro-casoria
Napoli Stadera,"Via Stadera, 76, 80143 Napoli , NA","081 5846434, ",40.87216,14.30169,https://www.pampanorama.it/punti-vendita/napoli-via-stadera-retail-pro
Napoli Bramante,"Via Donato Bramante, 28, 80126 Napoli , NA","081 7145458, ",40.83621,14.21109,https://www.pampanorama.it/punti-vendita/napoli-via-bramante-retail-pro
Napoli Giordani,"Via Francesco Giordani, 10, 80122 Napoli , NA","081-168142, ",40.83532,14.22105,https://www.pampanorama.it/punti-vendita/napoli-giordani-retail-pro
Angri,"Via Semetelle - 46, Angri , SA","08118098264, ",40.743384,14.572542,https://www.pampanorama.it/punti-vendita/angri
Pagani Tramontano,"Via Guido Tramontano, 34/36, 84016 Pagani , SA","081 5150991, ",40.74506,14.60884,https://www.pampanorama.it/punti-vendita/pagani-via-tramontano-retail-pro
Pago Del Vallo Di Lauro,"Via Nazionale - 98 , Pago Del Vallo Di Lauro, Pago Del Vallo Di Lauro , AV",", ",N/A,N/A,https://www.pampanorama.it/punti-vendita/pago-del-vallo-di-lauro
Napoli Minichini,"Via Abate Minichini, 27 Bis, 80137 Napoli , NA","081 5991679, ",40.8685,14.2268,https://www.pampanorama.it/punti-vendita/napoli-via-minichini-retail-pro
Sant'Anastasia Somma,"Via Somma, 74, Sant'Anastasia , NA","081 5315215, ",40.87043,14.41242,https://www.pampanorama.it/punti-vendita/sant-anastasia-via-somma
San Salvo San Rocco,"Via San Rocco, SNC, 66100 San Salvo , CH","0873 452541, ",42.05197,14.73417,https://www.pampanorama.it/punti-vendita/san-salvo-via-san-rocco-retail-pro
Pam Castellarano,"Centro commerciale Vittoria Via Radici Nord 31/T 42014 Castellarano (RE), Castellarano , Castellarano",", ",N/A,N/A,https://www.pampanorama.it/punti-vendita/pam-castellarano
San Giorgio Galante,"Via Galante, 38/50, 80046 San Giorgio A Cremano , NA","081 275173, ",40.82584,14.33594,https://www.pampanorama.it/punti-vendita/san-giorgio-via-galante-retail-pro
San Giorgio Manzoni,"Via Manzoni, 116/118, 80046 San Giorgio A C , NA","081 7714589, ",40.83737,14.34301,https://www.pampanorama.it/punti-vendita/san-giorgio-via-manzoni-retail-pro
San Giorgio a Cremano Cappiello,"Via Cappiello, 39, 80046 San Giorgio A Cremano , NA","081 6075764, ",40.82937,14.32678,https://www.pampanorama.it/punti-vendita/s-g-a-cremano-v-cappiello-retail-pro
Napoli Rubinacci,"Via Cupa Rubinacci, 103, 80147 Napoli , NA","0812561653, ",40.83574,14.33076,https://www.pampanorama.it/punti-vendita/napoli-via-rubinacci-retail-pro
San Giorgio Tufarelli,"Via Tufarelli, 78, 80046 San Giorgio A C , NA","081 5960059, ",40.84421,14.34622,https://www.pampanorama.it/punti-vendita/san-giorgio-via-tufarelli-retail-pro
Napoli Bartolo Longo,"Via Bartolo Longo, 298, 80147 Napoli , NA","081 5965451, ",40.84483,14.33866,https://www.pampanorama.it/punti-vendita/napoli-vi-bartolo-longo-retail-pro
S.Giovanni A Teduccio,"Via Delle Marinare, 222, 80146 Napoli , NA","081 5721988, ",40.83763,14.31342,https://www.pampanorama.it/punti-vendita/s-giovanni-a-teduccio-retail-pro
Napoli Cilea,"Via Francesco Cilea, 85/87/89, 80127 Napoli , NA","0813508750, ",40.84318,14.2241,https://www.pampanorama.it/punti-vendita/napoli-cilea-retail-pro
Pam Casalgrande,"Via Aldo Moro, 2 - 42013 Casalgrande (RE), Casalgrande , RE",", ",44.589649,10.739565,https://www.pampanorama.it/punti-vendita/pam-casalgrande
Napoli Sigmund Freud,"Sigmund Freud, 81/89, 80131 Napoli , NA","081 5457330, ",40.86035,14.21916,https://www.pampanorama.it/punti-vendita/napoli-via-sigmund-freud-retail-pro
Pam Cercola,"Via Silvio Pellico, 25 Cercola (NA), Cercola ,",", ",N/A,N/A,https://www.pampanorama.it/punti-vendita/pam-cercola
Napoli Volpicella,"Via Volpicella, 344, 80147 Napoli , NA","0815962165, ",40.8488,14.32472,https://www.pampanorama.it/punti-vendita/napoli-via-volpicella-retail-pro
Napoli C.P. Casanova,"Via Calata Ponte Casanova, 05/13, 80143 Napoli , NA","081 283976, ",40.857,14.27093,https://www.pampanorama.it/punti-vendita/napoli-via-c-p-casanova-retail-pro
Napoli Fiumicello,"Via Fiumicello A Loreto, 7, 80142 Napoli , NA","081 281081, ",40.847,14.26992,https://www.pampanorama.it/punti-vendita/napoli-via-fiumicello-retail-pro
Ottaviano San Leonardo,"Via S.Leonardo, 117, 80044 Ottaviano , NA","081 5289636, ",40.84755,14.48496,https://www.pampanorama.it/punti-vendita/ottaviano-san-leonardo-retail-pro
Napoli Caruso,"Via Severo Caruso, 4/8/10, 80129 Napoli , NA","810206295, ",40.84722,14.23204,https://www.pampanorama.it/punti-vendita/napoli-caruso-retail-pro
Vignola,"Via Falcone e Borsellino, 94, 41058 Vignola , MO","059/9772451, ",44.48889920,11.00189970,https://www.pampanorama.it/punti-vendita/vignola
Pianura - Napoli,"Via Parmenide - 4/6, Napoli, Napoli , NA","0815888956, ",40.854813,14.174683,https://www.pampanorama.it/punti-vendita/pianura-napoli
Napoli Francesco Arnaldi,"Via Francesco Arnaldi, 44/46, Napoli , NA",", ",40.85820,14.16774,https://www.pampanorama.it/punti-vendita/napoli-francesco-arnaldi
Parma,"Via Silvio Pellico, 20, 43100 Parma , PR","0521/947811, ",44.79370120,10.30480000,https://www.pampanorama.it/punti-vendita/parma
Pam Carpaneto,"Via Pallastrelli, 1 – 29013 Carpaneto Piacentino (PC), Piacenza ,",", ",N/A,N/A,https://www.pampanorama.it/punti-vendita/pam-carpaneto
PAM XXIV Maggio,"Via XXIV Maggio, 20 - 29021 Bettola (PC), Bettola , Piacenza",", ",N/A,N/A,https://www.pampanorama.it/punti-vendita/pam-xxiv-maggio
Pam Gossolengo,"Via dei Rivi, 62 - 29020 Gossolengo (PC), Gossolengo , Piacenza",", ",44.999954,9.619590,https://www.pampanorama.it/punti-vendita/pam-gossolengo
Battipaglia,"Corso Garibaldi - 21, Battipaglia , SA","334 94 10 261, ",40.61022,14.98476,https://www.pampanorama.it/punti-vendita/battipaglia
Eboli Bruno Buozzi,"Via Bruno Buozzi, 9, 84025 Eboli , SA","0828-1892524, ",40.615665,15.054671,https://www.pampanorama.it/punti-vendita/eboli-via-bruno-buozzi-retail-pro
Eboli,"Via Veneto, 63, Eboli , SA",", ",40.617740,15.061038,https://www.pampanorama.it/punti-vendita/eboli-veneto
Eboli Tavoliello,"Via Tavoliello, 195, 84025 Eboli , SA","0828 366397, ",40.61653,15.07191,https://www.pampanorama.it/punti-vendita/eboli-via-tavoliello-retail-pro
Imola,"Via Zello, 1/A, 40026 Imola , BO","054/231054, ",44.34400180,11.73960020,https://www.pampanorama.it/punti-vendita/imola
Imola Punta,"Via Punta, 1 – 40026 Imola (BO), Imola , BO",", ",N/A,N/A,https://www.pampanorama.it/punti-vendita/imola-punta
Omignano Scalo Via Nazionale,"Via Nazionale, 6, 84070 Omignano Scalo , SA","0974 716028, ",40.25736,15.13359,https://www.pampanorama.it/punti-vendita/omignano-scalo-via-nazionale-retail-pro
Capaccio Fraz. Licinella,"Via Cesare Pavese, 48, 84047 Capaccio Paestum , SA","0828 721155, ",40.40413,15.00495,https://www.pampanorama.it/punti-vendita/capaccio-fraz-licinella-retail-pro
Ravenna Diaz,"Via Armando Diaz, 19-21, 48121 Ravenna , RA","0544 1881618, ",44.418054,12.201348,https://www.pampanorama.it/punti-vendita/pam-local-ravenna-diaz
Pam Fogliano,"Via Louis Daniel Armstrong 2, 42122 Fogliano (RE), Fogliano , RE",", ",44.651803,10.643837,https://www.pampanorama.it/punti-vendita/pam-fogliano
Pam Quinzio,"Via Alberto Ferioli, 18 – 42122 Reggio nell’Emilia (RE) Centro commerciale Quinzio, Reggio Emilia , reggio emilia",", ",N/A,N/A,https://www.pampanorama.it/punti-vendita/pam-quinzio
Reggio Emilia,"Via Emilia San Pietro, 49, 42121 Reggio Emilia , RE","0522/046413, ",44.69590000,10.63770010,https://www.pampanorama.it/punti-vendita/reggio-emilia
Atripalda Cassese,"Piazza Cassese, 10, 83042 Atripalda , AV","0825 610237, ",40.91825,14.82955,https://www.pampanorama.it/punti-vendita/atripalda-p-zza-cassese-retail-pro
Atripalda San Lorenzo,"Via San Lorenzo, 36, 83042 Atripalda , AV","0825 1728016, ",40.9201964,14.8248815,https://www.pampanorama.it/punti-vendita/atripalda-san-lorenzo
Avellino Due Principati,"Via Due Principati, 32, 83100 Avellino , AV","0825 769123, ",40.91306,14.79231,https://www.pampanorama.it/punti-vendita/avellino-san-tommaso-retail-pro
Contrada Nazionale,"Via Nazionale, 27, 83020 Contrada , AV","0825 674492, ",40.87047,14.77744,https://www.pampanorama.it/punti-vendita/contrada-via-nazionale-retail-pro
Ariano Irpino Fontananuova,"Via Fontananuova, SNC, 83031 Ariano Irpino , AV","0825872203, ",41.1552,15.09833,https://www.pampanorama.it/punti-vendita/ariano-irpino-fontananuova-retail-pro
Ariano Irpino Cda Cardito,"Via Cardito, SNC, 83031 Ariano Irpino , AV","0825892222, ",41.13713,15.08192,https://www.pampanorama.it/punti-vendita/ariano-irpino-cda-cardito-retail-pro
Ariano Irpino Martiri,"Via dei Martiri, SNC, 83031 Ariano Irpino , AV","0825824521, ",41.16162,15.11185,https://www.pampanorama.it/punti-vendita/ariano-irpino-via-martiri-retail-pro
Avellino Cda Scrofeta,"Contrada Scrofeta, SNC, 83100 Avellino , AV","0825 39565, ",40.93344,14.80068,https://www.pampanorama.it/punti-vendita/avellino-cda-scrofeta-retail-pro
Grottaminarda Cda Piani,"Contrada Piani, SNC, 83035 Grottaminarda , AV","0825445375, ",41.06710,15.07930,https://www.pampanorama.it/punti-vendita/grottaminarda-cda-piani-retail-pro
Mirabella San Michele,"Via S.Michele C/C. Il Carro, SNC, 83036 Mirabella Eclano , AV","0825 449849, ",41.0534,15.0223,https://www.pampanorama.it/punti-vendita/mirabella-via-san-michele-retail-pro
Mirabella Calore,"Via Nazionale Calore, SNC, 83036 Mirabella Eclano , AV","0285-431015, ",41.05343,14.95453,https://www.pampanorama.it/punti-vendita/mirabella-via-calore-retail-pro
Pietradefusi Industrie,"Via Delle Industrie Zona Pip, SNC, 83030 Pietradefusi , AV","0825 962604, ",41.04017,14.89898,https://www.pampanorama.it/punti-vendita/pietradefusi-v-industrie-retail-pro
Lioni Serro di Morra,"Via Serro di Morra, 6, Avellino , AV",", ",40.87874,15.19116,https://www.pampanorama.it/punti-vendita/lioni-serro-di-morra
Bentivoglio,"Via Marconi 48, 40010 Bentivoglio , BO","0516643224, ",44.63572,11.418095,https://www.pampanorama.it/punti-vendita/pam-bentivoglio
Bologna Bellaria,"Via Bellaria, 47, 40139 Bologna , BO","051/544759, ",44.47600170,11.38700010,https://www.pampanorama.it/punti-vendita/bologna-bellaria
San Giorgio Del Sannio,"Via Falcone E Borsellino, SNC, 82018 San Giorgio Del Sannio , BN",", ",41.0678,14.85626,https://www.pampanorama.it/punti-vendita/san-giorgio-del-sannio-retail-pro
Taurasi Maffei,"Via Maffei, SNC, 83030 Taurasi , AV",", ",41.00909,14.95492,https://www.pampanorama.it/punti-vendita/taurasi-via-maffei-retail-pro
Lignano Sabbiadoro,"V.le Europa, 33/34, 33054 Lignano Sabbiadoro , UD","0431/722151, ",45.68099980,13.11499980,https://www.pampanorama.it/punti-vendita/lignano-sabbiadoro
Bologna Corticella 2,"Via di Corticella, 101, Bologna , BO",", ",44.5490591,11.3551801,https://www.pampanorama.it/punti-vendita/pam-di-bologna
Bologna Castel San Pietro Terme,"Via Emilia Ponente, 211, 40024 Bologna , BO","05119987531, ",44.41706000,11.54953000,https://www.pampanorama.it/punti-vendita/bologna-castelpietro
Pam Imola,"Via G. Di Vittorio, 70 - 40026 Imola (BO), Imola , BO",", ",N/A,N/A,https://www.pampanorama.it/punti-vendita/pam-imola
Spilimbergo,"Via Cavour, 57, 33097 Spilimbergo , PN","0427/40259, ",46.11100010,12.89360050,https://www.pampanorama.it/punti-vendita/spilimbergo
Sturno Aufiero,"Via Aufiero, 7, 83055 Sturno , AV","0825-448524, ",41.01741,15.10984,https://www.pampanorama.it/punti-vendita/sturno-via-f-aufiero-retail-pro
Benevento,"Via Ruffilli - 3, Benevento , BN",", ",41.11746250423804,14.79645392763751,https://www.pampanorama.it/punti-vendita/benevento
Benevento Oderisio,"Via Oderisio, 3/5, 82100 Benevento , BN","0824315524, ",41.13052,14.78364,https://www.pampanorama.it/punti-vendita/benevento-via-oderisio
Benevento Napoli,"Via Napoli, 123, 82100 Benevento , BN","0824 363144, ",41.1232,14.7734,https://www.pampanorama.it/punti-vendita/benevento-via-napoli-retail-pro
Pordenone Garibaldi,"C.so Garibaldi, 30, 33170 Pordenone , PN","0434/28016, ",45.96030050,12.65690040,https://www.pampanorama.it/punti-vendita/pordenone-garibaldi
Pordenone Grigoletti,"Via Grigoletti, 74, 33170 Pordenone , PN","0434/366892, ",45.96551330263758,12.64464736445893,https://www.pampanorama.it/punti-vendita/pordenone-grigoletti
Airola,"Via Lavatoio - 104, Airola , BN",", ",41.061903,14.567714,https://www.pampanorama.it/punti-vendita/airola
Moiano Variante,"Via Variante Caudina SP16, 26, 80069 Moiano , BN","3516913052, ",41.07637,14.54996,https://www.pampanorama.it/punti-vendita/moiano-via-variante-retail-pro
Cervinara Rettifilo,"Via Rettifilo, 38, 83012 Cervinara , AV","0824 1810464, ",41.02543,14.61502,https://www.pampanorama.it/punti-vendita/cervinara-via-rettifilo-retail-pro
Montesarchio,"Via Napoli, 82016 Montesarchio BN, Montesarchio , BN",", ",41.061424,14.635149,https://www.pampanorama.it/punti-vendita/montesarchio
Montesarchio S.Martino,"Via San Martino Vescovo, 149A, 82016 Montesarchio , BN",", ",41.05833,14.64431,https://www.pampanorama.it/punti-vendita/montesarchio-v-smartino-retail-pro
San Martino Valle Caudina,"Via San Martino Vescovo, 5, 83018 San Martino Valle Caudina , AV","0824 841034, ",41.02713,14.66325,https://www.pampanorama.it/punti-vendita/san-martino-valle-caudina-retail-pro
Foglianise Provinciale Vitulanese,"Via Provinciale Vitulanese SNC, 82030 Foglianise , BN",", ",41.16018,14.67107,https://www.pampanorama.it/punti-vendita/foglianise-via-provinciale-vitulanese-snc-retail-pro
Sant'Agata Dei Goti Cap.,"Via Cappellino, SNC, 82019 Sant'Agata De' Goti , BN","3791338758, ",41.09522,14.48992,https://www.pampanorama.it/punti-vendita/sant-agata-dei-goti-cap-retail-pro
Torrecuso Cda Collepiano,"Contrada Collepiano, SNC, 82030 Torrecuso , BN","0824 875485, ",41.20752,14.69851,https://www.pampanorama.it/punti-vendita/torrecuso-cda-collepiano-retail-pro
Udine Sud,"Viale Palmanova, 109, 33100 Udine , UD","0432/627011, ",46.05239870,13.24689960,https://www.pampanorama.it/punti-vendita/panorama-udine-sud
Udine Battisti,"Via Battisti, 9, 33100 Udine , UD","373 8864192, ",46.060512,13.233766,https://www.pampanorama.it/punti-vendita/pam-udine-battisti
Udine,"Viale Venezia, 327/329, 33010 Udine , UD","0432537600, ",46.05369950,13.21350000,https://www.pampanorama.it/punti-vendita/panorama-udine
Trieste Elisi,"Via Campi Elisi-ang.Via D'Aviano, 34143 Trieste , TS","040/767923, ",45.64199830,13.76799970,https://www.pampanorama.it/punti-vendita/trieste-elisi
Trieste Battisti,"Via Battisti, 22, 34125 Trieste , TS","040/9852437, ",45.65340040,13.77929970,https://www.pampanorama.it/punti-vendita/trieste-battisti
Trieste Miramare,"Via Miramare, 1, 34135 Trieste , TS","040/4261004, ",45.65779880,13.77280050,https://www.pampanorama.it/punti-vendita/trieste-miramare-ra
Trieste Giulia,"Via Giulia, 75/3, 34126 Trieste , TS","040/571470, ",45.65530010,13.79459950,https://www.pampanorama.it/punti-vendita/trieste-giulia
Trieste Stock,"Via Lionello Stock, 4, 34135 Trieste , TS","040/4528146, ",45.66490170,13.77070050,https://www.pampanorama.it/punti-vendita/trieste-stock
Cassino,"Viale Dante, 65, 03043 Cassino , FR","077621391, ",41.489159,13.830384,https://www.pampanorama.it/punti-vendita/pam-cassino
Cassino,"Via Casilina Sud, 141, 03043 Cassino , FR","0776/37081, ",41.48400120,13.86100010,https://www.pampanorama.it/punti-vendita/panorama-cassino
Genova Archi,"Via alla Porta degli Archi, 48 - salita Salvatore Viale 11r, 16121 Genova , GE","010 0954181‬, ",44.40570000,8.93796000,https://www.pampanorama.it/punti-vendita/pam-genova-archi
Genova Fiasella,"Via Fiasella, 81, 16121 Genova , GE","010/0898120, ",44.40399000,8.94134000,https://www.pampanorama.it/punti-vendita/pam-fiasella
Genova Galata,"Via Galata, 50b rosso, 16121 Genova , GE","010/8174164, ",44.40679930,8.94365030,https://www.pampanorama.it/punti-vendita/genova-galata
Genova Ruspoli,"Via Ruspoli, 53, 16129 Genova , GE","010 7967171, ",44.39889700,8.94679000,https://www.pampanorama.it/punti-vendita/genova-ruspoli
Genova Lagaccio,"Via Lagaccio, 48/R, 16158 Genova , GE","010/2850054, ",44.42449950,8.91637040,https://www.pampanorama.it/punti-vendita/genova-lagaccio
Genova Manuzio,"Via Manuzio, 11, 16143 Genova , GE","010/500044, ",44.40869900,8.96588040,https://www.pampanorama.it/punti-vendita/genova-manuzio
Genova Cantore,"via Cantore 99 Rosso, 16149 Genova , GE","010/8174760, ",44.41080090,8.90353970,https://www.pampanorama.it/punti-vendita/genova-cantore
Genova Ragazzi,"Piazza Ragazzi del '99, 5, 16132 Genova , GE","010392549, ",44.400341,8.98162,https://www.pampanorama.it/punti-vendita/pam-genova-ragazzi
Genova Chiaravagna,"Via Chiaravagna, 54R, 16153 Genova , GE","010/8981109, ",44.43370060,8.85453030,https://www.pampanorama.it/punti-vendita/genova-chiaravagna
Genova Sestri,"Via Sestri Ponente, 46, 16154 Genova , GE","010/2899008, ",44.42511700,8.84759500,https://www.pampanorama.it/punti-vendita/genova-sestri
Brescia,"Via F.lli Porcellaga, 26 - ang. Via Malvezzi, 25122 Brescia , BS","030/40325, ",45.53879930,10.21689990,https://www.pampanorama.it/punti-vendita/brescia
Alatri,"Via Casilina Nord, Km 81,6, 03011 Alatri , FR","0775/8271, ",41.65700150,13.32339950,https://www.pampanorama.it/punti-vendita/panorama-alatri
Quinzano D'Oglio,"Via De Gasperi, 3, 25027 Quinzano D'Oglio , BS","030933002, ",45.312458,10.007159,https://www.pampanorama.it/punti-vendita/pam-quinzano-d-oglio
Bordighera,"Via dei Colli, 3, 18012 Bordighera , IM","0184 260737, ",N/A,N/A,https://www.pampanorama.it/punti-vendita/bordighera
Sanremo Agosti,"Via Pietro Agosti, 307, 18038 Sanremo , IM","0184 1912048, ",43.82293,7.76586,https://www.pampanorama.it/punti-vendita/pam-sanremo-agosti
Sanremo,"Piazza Colombo, ang. Via Canessa, 1, Sanremo , IM","0184 1914484‬, ",43.81870000,7.77774000,https://www.pampanorama.it/punti-vendita/sanremo
Cervo,"Piazza Martiri della Libertà, 3, 18018 Cervo , IM","0183/409486, ",43.92546000,8.11005000,https://www.pampanorama.it/punti-vendita/cervo
San Bartolomeo al Mare,"Via Aurelia, 136, 18016 San Bartolomeo al mare , IM","0183 408300, ",43.92049000,8.09859000,https://www.pampanorama.it/punti-vendita/san-bartolomeo
Diano Marina Kennedy,"Viale Kennedy, 107, 18013 Diano Marina , IM","0183 402924, ",43.913475,8.086075,https://www.pampanorama.it/punti-vendita/diano-marina-kennedy-107
Diano Marina,"Via Biancheri, 32, 18013 Diano Marina , IM","0183 493127, ",43.91022000,8.08203000,https://www.pampanorama.it/punti-vendita/diano-marina
Imperia Bianchi,"Piazza Bianchi, 13, 18100 Imperia , IM","0183 753799, ",43.88933000,8.04251000,https://www.pampanorama.it/punti-vendita/imperia-bianchi
Imperia Repubblica,"Via della Repubblica, 28, 18100 Imperia , IM","0183 754219, ",43.88999000,8.03827000,https://www.pampanorama.it/punti-vendita/imperia-repubblica
Laigueglia,"Via Roma, 36D, 17053 Liguria , SV","0182 1905360, ",43.97624000,8.15781000,https://www.pampanorama.it/punti-vendita/laigueglia
Imperia Aurelia,"via Aurelia, 2, 18100 Imperia , IM","0183 654125, ",43.86965000,8.00150000,https://www.pampanorama.it/punti-vendita/imperia-aurelia
Taggia,"Viale Mazzini, 12, 18018 TAGGIA , IM","0184 462464, ",43.860633,7.853687,https://www.pampanorama.it/punti-vendita/taggia
Molteno,"Via Alcide de Gasperi 14 – 23847 Molteno (LC), Molteno , LC",", ",45.777129,9.309877,https://www.pampanorama.it/punti-vendita/pam-molteno
Formia,"Via del Commercio, 3 - Località Santa Croce, 04023 Formia , LT","0771/738800, ",41.26720050,13.67249970,https://www.pampanorama.it/punti-vendita/formia
La Spezia,"Piazza Kennedy, 34, 19124 La Spezia , SP","0187026181, ",44.112516,9.835811,https://www.pampanorama.it/punti-vendita/pam-la-spezia
Fosdinovo,"V.le Malaspina, 1, 54035 Fosdinovo , MS","0187/675428, ",44.09749990,9.98696040,https://www.pampanorama.it/punti-vendita/fosdinovo
Monza Italia,"Via Italia 39, 20900 Monza , MB","0399718807, ",45.58129880,9.27381040,https://www.pampanorama.it/punti-vendita/monza
Milano Tartini,"via Tartini 3, Milano, Milano , MI","02 39314929, ",45.503734,9.176437,https://www.pampanorama.it/punti-vendita/milano-tartini
Milano Padova,"Via Padova, 111, 20131 Milano , MI","02/2827892, ",45.49679950,9.23068050,https://www.pampanorama.it/punti-vendita/milano-padova
Milano Teodosio,"Via Teodosio 52, 20131 Milano , MI",", ",45.48637,9.23011,https://www.pampanorama.it/punti-vendita/local-milano-teodosio
Milano Bazzini,"Via Bazzini, 33, 20131 Milano , MI","02/2363551, ",45.48350140,9.22498990,https://www.pampanorama.it/punti-vendita/milano-bazzini
Milano Costa,"Via Padova, 22, 20127 Milano , MI","02/2827786, ",45.48789980,9.21910950,https://www.pampanorama.it/punti-vendita/milano-costa
Milano Monza,"Viale Monza 43/A, 20127 Milano , MI","02/32329715, ",45.49051000,9.21776000,https://www.pampanorama.it/punti-vendita/milano-monza
Milano Piccinni,"Via Piccinni, 2, 20131 Milano , MI","02/29512715, ",45.48329930,9.21389010,https://www.pampanorama.it/punti-vendita/milano-piccinni
Milano Settembrini,"Via Settembrini, 46, 20124 Milano , MI","02/45388676, ",45.48440170,9.20726970,https://www.pampanorama.it/punti-vendita/milano-settembrini
Milano Filzi,"Via Fabio Filzi, 12, 20124 Milano , MI","02/91976219, ",45.48323580,9.19767570,https://www.pampanorama.it/punti-vendita/milano-filzi
Milano Stelvio,"Viale Stelvio, 3, 20159 Milano , MI","0236552023, ",45.492627,9.191948,https://www.pampanorama.it/punti-vendita/milano-stelvio
Milano Mac Mahon,"Via Mac Mahon 8 - Ang. Via Cucchiari, 20155 Milano , MI",", ",45.48860170,9.16493990,https://www.pampanorama.it/punti-vendita/milano-mahon
Milano Varesina,"Via Varesina, 92, 20156 Milano , MI","0222179514, ",45.498914,9.144027,https://www.pampanorama.it/punti-vendita/pam-milano-varesina
Milano Inganni,"Via Inganni, 87, 20147 Milano , MI","02/48302966, ",45.45539860,9.12322040,https://www.pampanorama.it/punti-vendita/milano-inganni
Milano Forze Armate,"Via Forze Armate, 44, 20147 Milano , MI","02/40090184, ",45.46319960,9.13259980,https://www.pampanorama.it/punti-vendita/milano-forze-armate
Milano De Angeli,"Piazza De Angeli, 3, 20146 Milano , MI",", ",45.46653,9.14941,https://www.pampanorama.it/punti-vendita/milano-de-angeli
Milano Tolstoi,"Via Tolstoi, 61, 20146 Milano , MI","02/48952997, ",45.45420070,9.14914040,https://www.pampanorama.it/punti-vendita/milano-tolstoi
Milano Giambellino,"Via Giambellino, 7, 20144 Milano , MI","02/83419447, ",45.45169830,9.15254020,https://www.pampanorama.it/punti-vendita/pam-giambellino
Milano Foppa,"Via Foppa, 33, 20144 Milano , MI","02/48952220, ",45.45700070,9.15870950,https://www.pampanorama.it/punti-vendita/milano-foppa
Milano Olona,"V.le Olona, 1/3, 20123 Milano , MI","02/58104009, ",45.46129990,9.17294980,https://www.pampanorama.it/punti-vendita/milano-olona
Milano De Amicis,"Via E. De Amicis, 59, 20123 Milano , MI","02/91975696, ",45.46141000,9.17343000,https://www.pampanorama.it/punti-vendita/de-amicis
Milano Gorizia,"Corso Colombo - angolo Viale Gorizia, 20144 Milano , MI",", ",45.45473,9.172147,https://www.pampanorama.it/punti-vendita/milano-gorizia
Milano Vigna,", , MI",", ",45.464105,9.179349,https://www.pampanorama.it/punti-vendita/milano-vigna
Milano Correnti,"Via Correnti, 6, Milano , MI",", ",45.45996540182299,9.180377402477003,https://www.pampanorama.it/punti-vendita/milano-correnti
Milano Medici,"via Medici 10 ⁰⁵, ang. via Circo, Milano , MI","0280500025, ",45.461363,9.180836,https://www.pampanorama.it/punti-vendita/pam-local-via-medici
Milano Porta Ticinese,"Corso di Porta Ticinese, 62, 20123 Milano , MI","0236705359, ",45.45543000,9.18052000,https://www.pampanorama.it/punti-vendita/milano-cso-porta-ticinese
Milano Col di Lana,"Viale Col di Lana, 7, 20136 Milano , MI",", ",45.45214000,9.18358000,https://www.pampanorama.it/punti-vendita/milano-col-di-lana
Milano Beltrade,"Piazza Beltrade, 1, 20123 Milano , MI","02/45402570, ",45.46276000,9.18648000,https://www.pampanorama.it/punti-vendita/milano-beltrade
Milano Corso Porta Romana,"Corso di Porta Romana 51, 20122 Milano , MI",", ",45.45708,9.19438,https://www.pampanorama.it/punti-vendita/local-milano-corso-porta-romana
Milano Porta Vigentina,"Corso di Porta Vigentina, 33, 20122 Milano , MI",", ",45.452807,9.196461,https://www.pampanorama.it/punti-vendita/milano-porta-vigentina
Milano Freguglia,"Via Freguglia, 2, 20122 Milano , MI","02/36728867, ",45.46161,9.20024,https://www.pampanorama.it/punti-vendita/milano-freguglia
Milano Corso di Porta Vittoria,"Corso di Porta Vittoria, 56, 20122 Milano , MI","02/45375795, ",45.46210100,9.20598030,https://www.pampanorama.it/punti-vendita/milano-vittoria
Milano XXII Marzo,"Corso XXII Marzo, 5, 20129 Milano , MI","02 36525238, ",45.46239000,9.20819000,https://www.pampanorama.it/punti-vendita/milano-xxii-marzo
Milano VIII Novembre,"Piazza VIII Novembre, 6, 20129 Milano , MI","02/36697514, ",45.47430040,9.21074010,https://www.pampanorama.it/punti-vendita/milano-otto-novembre
Milano Archimede,"Via Archimede, 8, 20129 Milano , MI","02/55196003, ",45.46459960,9.20936970,https://www.pampanorama.it/punti-vendita/milano-archimede
Milano Morosini,"Via Morosini 7, 20135 Milano , MI","02 3651 8933, ",45.46120070,9.21144010,https://www.pampanorama.it/punti-vendita/morosini
Milano Indipendenza,"Corso Indipendenza 24, 20129 Milano , MI","02/32329731, ",45.46749880,9.21605020,https://www.pampanorama.it/punti-vendita/milano-indipendenza
Milano Strigelli,"Via Strigelli, 8, 20135 Milano , MI","02/59900511, ",45.45600130,9.21804050,https://www.pampanorama.it/punti-vendita/milano-strigelli
Milano Aselli,"Via Aselli, 7, 20133 Milano , MI",", ",45.46953,9.22989,https://www.pampanorama.it/punti-vendita/milano-aselli
Rozzano,"V.le Liguria, 15, 20089 Milano , MI","02/8254229, ",45.38119890,9.15769960,https://www.pampanorama.it/punti-vendita/rozzano
Milano Medeghino,"Via Medeghino, 11, 20141 Milano , MI","02/84894640, ",45.43199920,9.18223950,https://www.pampanorama.it/punti-vendita/milano-medeghino
Milano Tibaldi,"Via Tibaldi, 35, 20136 Milano , MI","02/89407883, ",45.44419860,9.18206980,https://www.pampanorama.it/punti-vendita/milano-tibaldi
Milano Sabotino,"V.le Sabotino, 6, 20135 Milano , MI","02/58320536, ",45.45090100,9.19906040,https://www.pampanorama.it/punti-vendita/milano-sabotino
Milano Lodi,"Corso Lodi, 9, 20135 Milano , MI",", ",45.45100000,9.20462000,https://www.pampanorama.it/punti-vendita/milano-corso-lodi
Albenga Mazzini,"Via Mazzini, 17031 Albenga , SV","0182 190 7945, ",44.049571,8.216331,https://www.pampanorama.it/punti-vendita/albenga-mazzini
Albenga Martiri della Libertà,"Viale Martiri della Libertà, 37/39, 17031 Albenga , SV","0182019025, ",44.04748,8.21883,https://www.pampanorama.it/punti-vendita/albenga-martiri-liberta
Villanova d'Albenga,"Via Albenga, 18, 17038 Villanova d'Albenga , SV","0182 583959, ",44.04638000,8.14278000,https://www.pampanorama.it/punti-vendita/villanova
Albisola,"Corso Filippo Ferrari, 99, 17011 Savona , SV","019.8892088, ",44.33069,8.51232,https://www.pampanorama.it/punti-vendita/pam-savona-albisola
Finalborgo,"Via per Calice, 14 Finalborgo, 17024 Finale Ligure , SV","0192046382, ",44.17578000,8.32411000,https://www.pampanorama.it/punti-vendita/finalborgo
Finale,"Via Torino, 10, 17024 Finale , SV","019 680417, ",44.16961000,8.34283000,https://www.pampanorama.it/punti-vendita/finale
Loano,"Via all'Orto, 6, 17025 Loano , SV","019 8895346, ",44.12617000,8.25829000,https://www.pampanorama.it/punti-vendita/pam-loano
Toirano,"Via Mainero, 8, 17055 Toirano , SV","0182 98372, ",44.12474100,8.21070700,https://www.pampanorama.it/punti-vendita/toirano
Borghetto Santo Spirito,"Via Ponti, 53/R, 17052 Borghetto Santo Spirito , SV","0182973362, ",44.115801,8.246224,https://www.pampanorama.it/punti-vendita/pam-borghetto-santo-spirito
Ispra Fermi,"Via Enrico Fermi, 857, 21027 Ispra , VA","0332780092, ",45.800374,8.627888,https://www.pampanorama.it/punti-vendita/ispra-fermi
Vado,"Via Diaz, 23, 17047 Vado Ligure , SV","019 882274, ",44.27010000,8.43751000,https://www.pampanorama.it/punti-vendita/vado
Bergamo Largo Porta Nuova,"Via Largo Porta Nuova, 9, 24122 Bergamo , BG",", ",45.69371000,9.67015000,https://www.pampanorama.it/punti-vendita/pam-largo-porta-nuova
Bergamo,"Via Camozzi, 115, 24121 Bergamo , BG","0351/9909238, ",45.69810100,9.67689040,https://www.pampanorama.it/punti-vendita/bergamo-metro
Bergamo Borgo Palazzo,"via Borgo Palazzo 35, 24125 Bergamo , BG","035/19909288, ",45.69739910,9.68103030,https://www.pampanorama.it/punti-vendita/borgo-palazzo
Albano Laziale,"Corso Matteotti, 66, 00041 Albano Laziale , RM","0693269567, ",41.72763000,12.65984000,https://www.pampanorama.it/punti-vendita/albano-laziale
Albano Risorgimento,"Piazza Risorgimento, 9, 00041 Albano Laziale , RM","069321476, ",41.72528000,12.66357000,https://www.pampanorama.it/punti-vendita/albano-risorgimento
Ariccia,"Via Nettunense, 25, 00072 Ariccia - Pavona , RM","06/930182200, ",41.71689990,12.62409970,https://www.pampanorama.it/punti-vendita/panorama-ariccia
Formello,"V.le Africa, 134 - Loc. Le Rughe, 00060 Formello , RM","06/9087280, ",42.06840130,12.37790010,https://www.pampanorama.it/punti-vendita/formello
Nettuno,"Via Ugo La Malfa, 48, 00048 Nettuno , RM","06/9807386, ",41.46329880,12.66699980,https://www.pampanorama.it/punti-vendita/roma-nettuno
Marino,"Via Costa Batocchi, 24, 00047 Marino , RM","069367482, ",41.77041000,12.65582000,https://www.pampanorama.it/punti-vendita/marino-batocchi
Roma Meldola,"Via Meldola 57/63, 00143 Roma , RM","0689371426, ",41.823626,12.505654,https://www.pampanorama.it/punti-vendita/pam-roma-meldola
Granai,"Via M. Rigamonti, 100, 00142 Roma , RM","06/5159011, ",41.83700180,12.50370030,https://www.pampanorama.it/punti-vendita/roma-granai
Roma Biondi,"Via Gian Francesco Biondi, 15, 00143 Roma , RM","065012545, ",41.81719970,12.48960020,https://www.pampanorama.it/punti-vendita/roma-biondi
Roma Simone Martini,"Via Simone Martini 19, 00142 Roma , RM","06 51963498, ",41.83020020,12.48830030,https://www.pampanorama.it/punti-vendita/roma-simonemartini
Roma Laurentino,"Via Laurentina, 865, 00143 Roma , RM","06/93379290, ",41.83922,12.48074,https://www.pampanorama.it/punti-vendita/roma-laurentino
Roma Montagne Rocciose,"Via Montagne Rocciose, 95, 00144 Roma , RM","06/89371448, ",41.82488000,12.47541000,https://www.pampanorama.it/punti-vendita/roma-montagne-rocciose
ROMA Cesare Pavese,"Via Cesare Pavese, 397, Roma , RM",", ",N/A,N/A,https://www.pampanorama.it/punti-vendita/roma-cesare-pavese
Roma Torrino,"Via A. di Decima - ang. Via C. Troiani, 00144 Roma , RM","06/52205596, ",41.81299970,12.45180040,https://www.pampanorama.it/punti-vendita/roma-torrino
Roma Fiume Bianco,"Via Fiume Bianco, 42, 00144 Roma , RM","06 44245302, ",41.814963,12.440235,https://www.pampanorama.it/punti-vendita/roma-fiume-bianco
Civitavecchia,"Piazza Vittorio Emanuele 11/13, 00053 Civitavecchia , RM",", ",42.09209820,11.79080010,https://www.pampanorama.it/punti-vendita/civitavecchia
Civitavecchia Nenni,"Via Nenni 32, 00053 Civitavecchia , RM","0766546226, ",42.095092,11.816212,https://www.pampanorama.it/punti-vendita/pam-civitavecchia-nenni
Ostia,"Via dell'Appagliatore, 00121 Roma , RM","06/56200311, ",41.74129870,12.27359960,https://www.pampanorama.it/punti-vendita/panorama-ostia
Ostia Gondole,"Via delle Gondole, 94, 00121 Ostia , RM","06/89320375, ",41.73569870,12.27649980,https://www.pampanorama.it/punti-vendita/pam-local-ostia-gondole
Roma Acilia,"Via G. Usellini, 287, 00125 Roma , RM","06/52453334, ",41.77239990,12.37810040,https://www.pampanorama.it/punti-vendita/roma-acilia
Roma Bufalotta,"Via Passo di Falzarego, 19, 00139 Roma , RM","06/87132627, ",41.98690030,12.56420040,https://www.pampanorama.it/punti-vendita/roma-bufalotta
Roma Camerata Picena,"Via Camerata Picena, 385, 00138 Roma , RM","06 81177524, ",41.98515,12.51365,https://www.pampanorama.it/punti-vendita/roma-via-camerata-picena-retail-pro
Roma De Filippo,"Via Titina De Filippo, 101, 00139 Roma , RM","06 8811837, ",41.96899,12.51589,https://www.pampanorama.it/punti-vendita/roma-via-de-filippo-retail-pro
Pavia XX Settembre,"Via XX Settembre, 22, 27100 Pavia , PV","0382 1755164, ",45.186318,9.15336,https://www.pampanorama.it/punti-vendita/pavia-xx-settembre
Pavia Via Varese,"Via Varese, 5, 27100 Pavia , PV","3757095383, ",45.184650418179466,9.156041002421034,https://www.pampanorama.it/punti-vendita/pam-pavia-varese
Torrimpietra,"Via Aurelia Km 28, 00050 Torrimpietra , RM","0661697385, ",41.916836,12.200711,https://www.pampanorama.it/punti-vendita/pam-torrimpietra
Monterotondo,"Viale Bruno Buozzi, 15, 00015 Monterotondo , RM","06/90624007, ",42.04980090,12.62489990,https://www.pampanorama.it/punti-vendita/monterotondo
Torvaianica Dora Riparia,"Via Dora Riparia, 36A ang. Via Lambro, 3, 00071 Pomezia Loc. Torvaianica , RM","333.9316719, ",41.656003,12.427767,https://www.pampanorama.it/punti-vendita/torvaianica-dora-riparia-pam
Roma Botteghe Oscure,"Via delle Botteghe Oscure, 3, 00186 Roma , RM","06/89320361, ",41.89519880,12.47970010,https://www.pampanorama.it/punti-vendita/pam-local-roma-botteghe-oscure
Roma Funari,"Via dei Funari 21, Roma, Roma , RM",", ",41.89382042144752,12.478327164840602,https://www.pampanorama.it/punti-vendita/roma-funari
Roma Fontanella di Borghese,"Via della Fontanella di Borghese, 20, 00186 Roma , RM","066876392, ",41.903901,12.47704,https://www.pampanorama.it/punti-vendita/pam-roma-fontanella-di-borghese
Roma Panisperna,"Via Panisperna, 75, 00184 Roma , RM","06 45502583, ",41.896643,12.491728,https://www.pampanorama.it/punti-vendita/roma-panisperna
Roma Barberini,"via Barberini 10-16, 00187 Roma , RM","0645751857, ",41.90409850,12.48849960,https://www.pampanorama.it/punti-vendita/roma-barberini
Roma Quattro Fontane,"Via delle Quattro Fontane, 38, 00184 Roma , RM","06 / 45519032, ",41.90079880,12.49279980,https://www.pampanorama.it/punti-vendita/pam-local-roma-quattro-fontane
Roma Urbana,"via Urbana, 9, 00184 Roma , RM","06/93567284, ",41.89759830,12.49429990,https://www.pampanorama.it/punti-vendita/roma-urbana
Roma C.so V. Emanuele,"C.so Vittorio Emanuele II, 235, 00186 Roma , RM","0645424663, ",41.89789960,12.46930030,https://www.pampanorama.it/punti-vendita/pam-local-roma-c-so
Roma Santi Quattro,"Via dei Santi Quattro 35/A – 00184 Roma (RM), Roma , RM",", ",41.88920473947076,12.495694093635125,https://www.pampanorama.it/punti-vendita/roma-santi-quattro
Roma XX Settembre,"Via XX Settembre, 20/E, 00187 Roma , RM","06/87936937, ",41.90530010,12.49530030,https://www.pampanorama.it/punti-vendita/roma-settembre
Roma Boncompagni,"Via Boncompagni, 95, 00187 Roma , RM","06/45674227, ",41.90900040,12.49510000,https://www.pampanorama.it/punti-vendita/pam-local-boncompagni
Roma Vitelleschi,"Via Giovanni Vitelleschi, 2, 00193 Roma , RM","06/45654972, ",41.904392,12.46286,https://www.pampanorama.it/punti-vendita/roma-vitelleschi
Roma Terenzio,"Via Terenzio, 29, 00186 Roma , RM","06/45493276, ",41.90639880,12.46329980,https://www.pampanorama.it/punti-vendita/pam-local-terenzio
Roma Piave,"Via Piave 45, 00187 Roma , RM","06/45751859, ",41.90999990,12.49909970,https://www.pampanorama.it/punti-vendita/roma-piave
Roma Salaria,"Via Salaria 55-57, 00198 Roma , RM","06 45519198, ",41.91249850,12.49769970,https://www.pampanorama.it/punti-vendita/roma-salaria
Roma S.M. della Battaglia,"Via San Martino della Battaglia, 30, 00185 Roma , RM","06/87720478, ",41.90579990,12.50440030,https://www.pampanorama.it/punti-vendita/pam-local-roma-s-m
Roma Mordini,"Via Antonio Mordini 11, 00195 Roma , RM","06/87716036, ",41.91389850,12.46409990,https://www.pampanorama.it/punti-vendita/roma-mordini
Roma Alessandria,"Via Alessandria 177, 00198 Roma , RM","06/45569783, ",41.91349950,12.50270120,https://www.pampanorama.it/punti-vendita/roma-alessandria
Roma Carini,"Via Carini 85, 00152 Roma , RM","06 45552392, ",41.88320160,12.45880030,https://www.pampanorama.it/punti-vendita/local-carini
Roma Quattro Venti,"Viale dei Quattro Venti 81 - 83, 00152 Roma , RM","06/45751870, ",41.88209920,12.45880030,https://www.pampanorama.it/punti-vendita/roma-quattroventi
Roma Filiberto,"Via Emanuele Filiberto, 180, 00185 Roma , RM",", ",41.88729860,12.50860020,https://www.pampanorama.it/punti-vendita/roma-filiberto
Roma San Paolo II,"Via San Paolo II, 9a, 00165 Roma , RM","06 94358039, ",41.89816,12.453519,https://www.pampanorama.it/punti-vendita/city-roma-san-paolo-ii
Roma Taranto,"Via Taranto, 2, 00182 Roma , RM",", ",41.885163,12.511522,https://www.pampanorama.it/punti-vendita/pam-local-roma-taranto
Roma Circonvallazione Ostiense,"Circonvallazione Ostiense, 270/280, 00154 Roma , RM","0645519304, ",41.86709980,12.49409960,https://www.pampanorama.it/punti-vendita/roma-ostiense
Roma Caselli,"Via Caselli 71, 00149 Roma , RM","065561945, ",41.86964,12.463702,https://www.pampanorama.it/punti-vendita/pam-roma-caselli
Roma Fermi,"via Fermi, 29, Roma , RM",", ",41.864552,12.470440,https://www.pampanorama.it/punti-vendita/roma-fermi
Roma Appia,"Via Appia Nuova, 189, 00183 Roma , RM","0642990495, ",41.88034,12.51621,https://www.pampanorama.it/punti-vendita/roma-appia
Roma Baccarini,"Via Baccarini 22a, angolo via Amari 1, 00149 Roma , RM","0687663377, ",41.87530140,12.51650050,https://www.pampanorama.it/punti-vendita/roma-baccarini
Roma Ravenna,"Via Ravenna, 47, 00161 Roma , RM","06/45590545, ",41.91332,12.51954,https://www.pampanorama.it/punti-vendita/roma-ravenna
Valle Aurelia,"Viale di Valle Aurelia, 32, 00147 Roma , RM","06 9667 8013, ",41.90259930,12.43890000,https://www.pampanorama.it/punti-vendita/pam-valle-aurelia
Roma Colli Portuensi,"Via dei Colli Portuensi, 191, 00151 Roma , RM","065373736, ",41.870679,12.443484,https://www.pampanorama.it/punti-vendita/pam-roma-colli-portuensi
Roma Furio Camillo,"Viale Furio Camillo, 57, 00179 Roma , RM",", ",41.87582000,12.52419000,https://www.pampanorama.it/punti-vendita/furio-camillo
Roma Balduina,"Piazza della Balduina, 48, 00136 Roma , RM","0635340309, ",41.91899870,12.44079970,https://www.pampanorama.it/punti-vendita/roma-balduina
Roma Tiburtina,"P.le della Stazione Tiburtina 11, 00162 Roma , RM","06/45519210, ",41.90980150,12.53050040,https://www.pampanorama.it/punti-vendita/roma-tiburtina
Roma Boccea,"Via Di Boccea, 45, 00165 Roma , RM","06 / 89371431, ",41.90000150,12.42850020,https://www.pampanorama.it/punti-vendita/pam-local-roma-boccea
Roma Serafini,"Via Serafini, 98, 00164 Roma , RM","0645429270, ",41.877194,12.428505,https://www.pampanorama.it/punti-vendita/roma-serafini
Tiburtina,"Via Tiburtina, 757, 00159 Roma , RM","06/41790701, ",41.91260150,12.55420020,https://www.pampanorama.it/punti-vendita/tiburtina
Aurelia,"Via Aurelia, 822, 00165 Roma , RM","06 6650051, ",41.88790130,12.40410040,https://www.pampanorama.it/punti-vendita/aurelia
Boccea,"Via G. Frontali, 14, 00166 Roma , RM","06/61523811, ",41.91239930,12.38969990,https://www.pampanorama.it/punti-vendita/boccea
Santa Marinella,"Via Etruria 70, 00058 Santa Marinella , RM","0766536700, ",42.039594,11.832954,https://www.pampanorama.it/punti-vendita/pam-santa-marinella
Altopascio,"Via Romana, 55011 Altopascio , LU","0583/276053, ",43.82820130,10.64770030,https://www.pampanorama.it/punti-vendita/altopascio
Grosio,"Via Roma, 41 – 23033 Grosio (S0), Grosio , SO",", ",46.298654,10.274893,https://www.pampanorama.it/punti-vendita/pam-grosio
Genova Voltri,"Via Don Giovanni Verità, 6/R, 16158 Genova , GE","010/6121304, ",44.42829900,8.75275040,https://www.pampanorama.it/punti-vendita/genova-voltri
Roma Giulio Agricola,"Viale Giulio Agricola 20, 00174 Roma , RM","06/96678489, ",41.85626310,12.55955420,https://www.pampanorama.it/punti-vendita/roma-giulio-agricola
Roma Anicio Gallo,"Viale Anicio Gallo, 96, 00174 Roma , RM","06/45751869, ",41.85319900,12.56289960,https://www.pampanorama.it/punti-vendita/roma-anicio-gallo
Roma Lemonia,"Via Lemonia, 183, 00174 Roma , RM","067108214, ",41.852791,12.559048,https://www.pampanorama.it/punti-vendita/pam-roma-lemonia
Alessandria Corso Roma,"Corso Roma, 74, 15121 Alessandria , AL",", ",44.91159,8.61277,https://www.pampanorama.it/punti-vendita/alessandria-corso-roma
Alessandria,"Corso Romita, 15121 Alessandria , AL","0131/281611, ",44.90729900,8.61168000,https://www.pampanorama.it/punti-vendita/panorama-alessandria
Asti,"Corso Torino, 30, 14010 Asti , AT","0141/419417, ",44.90230180,8.19095040,https://www.pampanorama.it/punti-vendita/asti
Gignese,"Vicolo Balilla 1, 28836 Gignese , VB","032320708, ",45.860843,8.508743,https://www.pampanorama.it/punti-vendita/pam-gignese
Pino Torinese,"via Chieri, 96, 10025 Pino Torinese , TO","011/8112977, ",45.02880100,7.79757980,https://www.pampanorama.it/punti-vendita/pino-torinese
Torino Volturno,"Via Volturno, 14, 10133 Torino , TO","0116602005, ",45.056103,7.695204,https://www.pampanorama.it/punti-vendita/pam-torino-volturno
Torino Montebello,"Via Montebello, 21, 10121 Torino , TO","011-19239947, ",45.07040020,7.69350000,https://www.pampanorama.it/punti-vendita/pam-local-torino-montebello
Torino Bogino,"Via Giambattista Bogino, 15, 10123 Torino , TO","327.7580201, ",45.067698,7.687134,https://www.pampanorama.it/punti-vendita/pam-torino-bogino
Torino Madama Cristina,"Via Madama Cristina, 24, Torino , TO",", ",45.05690000,7.68206980,https://www.pampanorama.it/punti-vendita/torino-madamacristina
Torino Bramante,"C.so Bramante, 93, 10126 Torino , TO","011/6963626, ",45.04199980,7.67578980,https://www.pampanorama.it/punti-vendita/torino-bramante
Torino Lagrange,"Via Lagrange, 47/A, 10123 Torino , TO","011/19697066, ",45.06330110,7.68111990,https://www.pampanorama.it/punti-vendita/torino-lagrange
Torino XX Settembre,"Via XX Settembre, 64, 10121 Torino , TO","011/19529739, ",45.06990050,7.68217990,https://www.pampanorama.it/punti-vendita/pam-local-torino-xx-settembre
Torino Nizza,"Via Nizza 111, 10126 Torino , TO","011/19235131, ",45.04850010,7.67353010,https://www.pampanorama.it/punti-vendita/torino-nizza
Torino Nizza 162,"Via Nizza 162 - ang. Via Alassio, 10125 Torino , TO",", ",45.03906,7.66974,https://www.pampanorama.it/punti-vendita/torino-nizza-162
Torino Filiberto,"Piazza Emanuele Filiberto, 12, 10122 Torino , TO","011 19235171, ",45.07720180,7.68095020,https://www.pampanorama.it/punti-vendita/torino-filiberto
Torino Botero,"Via Botero, 18, 10122 Torino , TO","011/0464562, ",45.07070160,7.67784980,https://www.pampanorama.it/punti-vendita/pam-local-torino-botero
Torino Lingotto,"Via Nizza, 230, 10126 Torino , TO","011/6648661, ",45.03430180,7.66798020,https://www.pampanorama.it/punti-vendita/torino-lingotto
Torino San Secondo,"Via San Secondo, 33, 10100 Torino , TO","011/5683428, ",45.05870060,7.67281010,https://www.pampanorama.it/punti-vendita/pam-local-torino-san-secondo
Torino Carmine,"Via del Carmine, ang. Via Bligny, 10122 Torino , TO","011/19697029, ",45.07529830,7.67463020,https://www.pampanorama.it/punti-vendita/torino-carmine
Torino Palestro,"Corso Palestro, 3, 10122 Torino , TO","011/19524296, ",45.07460020,7.67300990,https://www.pampanorama.it/punti-vendita/pam-local-torino-palestro
San Domenico,"Via San Domenico, 35, 10122 Torino , TO","0114362008, ",45.07720180,7.67073010,https://www.pampanorama.it/punti-vendita/local-san-domenico
Torino Corso Francia,"Corso Francia, 3, 10138 Torino , TO",", ",45.076266,7.667061,https://www.pampanorama.it/punti-vendita/torino-corso-francia
Torino Acaja,"via Principi d'Acaja, 45/A, 10138 Torino , TO","011/19687998, ",45.07279970,7.66230010,https://www.pampanorama.it/punti-vendita/torino-acaja
Torino Cibrario,"Via Cibrario, 35, 10144 Torino , TO","011/19529770, ",45.07880020,7.66450980,https://www.pampanorama.it/punti-vendita/pam-local-torino-cibrario
Torino Racconigi,"Corso Racconigi, 236/A, Torino , TO","011/19697041, ",45.05260090,7.65042020,https://www.pampanorama.it/punti-vendita/torino-racconigi
Torino Traiano,"C.so Traiano, 58, 10135 Torino , TO","011/615379, ",45.02379990,7.64452980,https://www.pampanorama.it/punti-vendita/torino-traiano
Torino Santa Rita da Cascia,"Piazza Santa Rita Da Cascia 9, 10136 Torino , TO","011/19697053, ",45.04759980,7.64694020,https://www.pampanorama.it/punti-vendita/torino-cascia
Torino San Paolo,"Via S. Paolo, 36, 10141 Torino , TO","011/3352820, ",45.06299970,7.65051990,https://www.pampanorama.it/punti-vendita/torino-san-paolo
Torino Cosenza,"C.so Cosenza, 46/B, 10137 Torino , TO","011/322581, ",45.03559880,7.64218000,https://www.pampanorama.it/punti-vendita/torino-cosenza
Torino Svizzera,"C.so Svizzera, 52, 10143 Torino , TO","011/7764110, ",45.08060070,7.65066000,https://www.pampanorama.it/punti-vendita/torino-svizzera
Torino Orbassano,"C.so Orbassano, 212, 10137 Torino , TO","011/396061, ",45.04209900,7.63781020,https://www.pampanorama.it/punti-vendita/torino-orbassano
Torino Frejus 92,"Via Frejus, 92, 10100 Torino , TO","01119239936, ",45.070449,7.643841,https://www.pampanorama.it/punti-vendita/pam-torino-frejus-92
Torino Delleani,"Via Lorenzo Delleani, 8, 10141 Torino , TO","01119524248, ",45.06732,7.636415,https://www.pampanorama.it/punti-vendita/pam-torino-delleani
Torino Salbertrand,"Via Salbertrand, 67, 10146 Torino , TO","011/7493362, ",45.08119970,7.63639020,https://www.pampanorama.it/punti-vendita/torino-salbertrand
Torino Peschiera,"Corso Peschiera 325, 10141 Torino , TO","011/0362012, ",45.07300400,7.62740000,https://www.pampanorama.it/punti-vendita/torino-peschiera
Collegno,"V.le Piemonte, 32/34, 10093 Collegno , TO","011-19687912, ",45.07659910,7.57597020,https://www.pampanorama.it/punti-vendita/collegno
Torino,"Strada Settimo Torinese, 371, 10099 San Mauro Torinese , TO","011/2230811, ",45.11830140,7.73861980,https://www.pampanorama.it/punti-vendita/torino
Leinì,"Viale Europa, 10040 Leinì , TO","011/9982189, ",45.18389890,7.71999980,https://www.pampanorama.it/punti-vendita/leini
Venaria Reale,"Via Goito, 8, 10078 Venaria Reale , TO","0114591343, ",45.129724,7.63264,https://www.pampanorama.it/punti-vendita/pam-venaria-reale
Torino Potenza,"C.so Potenza, 60, 10149 Torino , TO","011/2629581, ",45.09429930,7.65648990,https://www.pampanorama.it/punti-vendita/torino-potenza
Torino Porpora,"Via Porpora, 38/bis C, 10154 Torino , TO","011/201030, ",45.09809880,7.69848010,https://www.pampanorama.it/punti-vendita/torino-porpora
Piobesi Torinese,"Piazza Primo Maggio, 6, 10040 Piobesi Torinese , TO","0119657944, ",44.931292,7.61286,https://www.pampanorama.it/punti-vendita/pam-piobesi-torinese
Rivarolo,"C.so Indipendenza, 50, 10086 Rivarolo Canavese , TO","0124/26738, ",45.33459850,7.72174980,https://www.pampanorama.it/punti-vendita/rivarolo
San Severo Terranova,"Via Terranova, SNC, 71016 San Severo , FG","0882 433780, ",41.68759,15.37,https://www.pampanorama.it/punti-vendita/san-severo-via-terranova-retail-pro
San Severo Togliatti,"Via Togliatti, 34, 71121 San Severo , FG","0882-248098, ",41.69444,15.37587,https://www.pampanorama.it/punti-vendita/san-severo-via-togliatti-retail-pro
Craveggia,"Via Provinciale, 12, 28852 Craveggia , VB",", ",46.134546,8.326354,https://www.pampanorama.it/punti-vendita/pam-craveggia
Guglionesi Molise,"Via Molise, SNC, 86034 Guglionesi , CB","0875 81878, ",41.91565,14.91880,https://www.pampanorama.it/punti-vendita/guglionesi-via-molise-retail-pro
Termoli Elba,"Via Elba, Snc, 86039 Termoli , CB",", ",41.99078,14.99448,https://www.pampanorama.it/punti-vendita/termoli-via-elba-retail-pro
Foggia Spagna,"Viale Spagna, 4 D/E/F, 71122 Foggia , FG","0881 662930, ",41.44571,15.5587,https://www.pampanorama.it/punti-vendita/foggia-via-spagna-retail-pro
Foggia,"Via Annino Gentile, 60 - Angolo Via Lucera SNC, Foggia , FG",", ",41.468427,15.523006,https://www.pampanorama.it/punti-vendita/foggia
Foggia Gentile,"Via Gentile, 9, 71122 Foggia , FG","0881 663577, ",41.43936,15.55840,https://www.pampanorama.it/punti-vendita/foggia-via-gentile-retail-pro
Arezzo San Lorentino,"Via M. Perennio, 23, 52100 Arezzo , AR","0575047924, ",43.46889880,11.87360000,https://www.pampanorama.it/punti-vendita/arezzo-san-lorentino
Arezzo Campo Marzio,"Via Calò, 12 - ang. Via Curina, 52100 Arezzo , AR","0575/354455, ",43.46160130,11.89640050,https://www.pampanorama.it/punti-vendita/arezzo-campo-marzio
San Giovanni Valdarno,"V.le Giotto, 28, 52027 San Giovanni Valdarno , AR","0559/121857, ",43.56769940,11.53989980,https://www.pampanorama.it/punti-vendita/san-giovanni-valdarno
Sansepolcro,"Via Montefeltro, 1/C, 52037 Sansepolcro , AR","0575/735493, ",43.57130050,12.14509960,https://www.pampanorama.it/punti-vendita/sansepolcro
Firenze Nazionale,"Via Nazionale, 108, 50123 Firenze , FI","055/9060558, ",43.75241,11.318558,https://www.pampanorama.it/punti-vendita/firenze-nazionale
Firenze Mazzini,"Viale G. Mazzini, 15/R, Firenze , FI","055 – 1998 8470, ",43.7742596,11.2699218,https://www.pampanorama.it/punti-vendita/firenze-mazzini
Firenze dei Mille,"Viale dei Mille, 62, 50131 Firenze , FI","0555300093, ",43.78412,11.27326,https://www.pampanorama.it/punti-vendita/firenze-viale-dei-mille
Firenze Proconsolo,"Via del Proconsolo 85, Firenze , FI",", ",43.772128,11.257814,https://www.pampanorama.it/punti-vendita/firenze-proconsolo
Firenze Cavour,"Via Cavour 64/R, 50121 Firenze , FI","055 0944672, ",43.77619930,11.25689980,https://www.pampanorama.it/punti-vendita/pam-local-cavour
Firenze Ottaviani,"Piazza degli Ottaviani 13/R, 50123 Firenze , FI","055/5308553, ",43.77259830,11.24890040,https://www.pampanorama.it/punti-vendita/firenze-ottaviani
Firenze Francavilla,"Via Francavilla, 13/15, 50142 Firenze , FI","055/0518445, ",43.77339940,11.22420030,https://www.pampanorama.it/punti-vendita/firenze-francavilla
Firenze Legnaia,"Via Andrea da Pontedera, 30, 50143 Firenze , FI","0559061526, ",43.76839830,11.21109960,https://www.pampanorama.it/punti-vendita/firenze-legnaia
Trento,"Via G. B. Trener, 16, 38121 Trento , TN","0461/821256, ",46.09360120,11.11460020,https://www.pampanorama.it/punti-vendita/trento
Borgo San Lorenzo,"Piazza Gramsci, 12, 50032 Borgo San Lorenzo , FI","0555370524, ",43.954119,11.3891,https://www.pampanorama.it/punti-vendita/pam-borgo-san-lorenzo
Campi Bisenzio,"Via S.Quirico, 165, 50121 Firenze , FI","055/897651, ",43.84659960,11.14319990,https://www.pampanorama.it/punti-vendita/panorama-campi-bisenzio
Prato Ferrucci,"Via Ferrucci, 132, 59100 Prato , PO","0574/593356, ",43.873322,11.105170,https://www.pampanorama.it/punti-vendita/prato-ferrucci
Poggio a Caiano,"V.le Matteotti, 18, 59016 Poggio a Caiano , PO","055/8778939, ",43.81900020,11.05099960,https://www.pampanorama.it/punti-vendita/poggio-a-caiano
San Miniato,"Via Pestalozzi, 10/12, 56028 San Miniato , PI","0571/43763, ",43.69350050,10.83430000,https://www.pampanorama.it/punti-vendita/san-miniato
Follonica,"Via Massetana - Loc. Le Corti Nuove, 58022 Follonica , GR","0566/264158, ",42.92269900,10.75930020,https://www.pampanorama.it/punti-vendita/follonica
Grosseto Barberi,"Via De Barberi, 58100 Grosseto , GR","0564/417200, ",42.75600050,11.11629960,https://www.pampanorama.it/punti-vendita/grosseto-barberi
Grosseto Sabotino,"Via del Sabotino, 6, 58100 Grosseto , GR","0564/455318, ",42.77140050,11.10690020,https://www.pampanorama.it/punti-vendita/grosseto-sabotino
Piove di Sacco,"Via Michiel, 5, 35028 Piove di Sacco , PD","0495841049, ",45.295187,12.03836,https://www.pampanorama.it/punti-vendita/pam-piove-di-sacco
Padova Santa Croce,"P.tta S. Croce, 17/18, 35123 Padova , PD","049/8803222, ",45.39170070,11.87069990,https://www.pampanorama.it/punti-vendita/padova-santa-croce
Padova Corso Milano,"Corso Milano, 90, 1241 Padova , PD",", ",45.41109850,11.86709980,https://www.pampanorama.it/punti-vendita/padova-milano
Cadorna,"Via Cadorna, 22, 35123 Padova , PD",", ",45.39665000,11.87042000,https://www.pampanorama.it/punti-vendita/padova-cadorna
Umberto I,"Via Umberto I, 14, 35123 Padova , PD","0499863586, ",45.40283200,11.87335110,https://www.pampanorama.it/punti-vendita/padova-umberto
Padova Mazzini,"Piazzale Mazzini, 10, 35137 Padova , PD","049 7300419, ",45.41378000,11.87337000,https://www.pampanorama.it/punti-vendita/padova-mazzini
Padova Piazza delle Erbe,"Piazza delle Erbe, 19, 35122 Padova , PD",", ",45.40750120,11.87520030,https://www.pampanorama.it/punti-vendita/pam-erbe
Padova Garzeria,"P.tta Garzeria, 3, 35122 Padova , PD","049/657006, ",45.40750120,11.87740040,https://www.pampanorama.it/punti-vendita/padova-garzeria
Padova San Francesco 32/B,"Via San Francesco, 32/B, 35121 Padova , PD",", ",45.40589910,11.87860010,https://www.pampanorama.it/punti-vendita/padova-sanfrancesco32
Padova San Francesco,"Via San Francesco, 181, 35121 Padova , PD","049 7446211, ",45.40219880,11.88340000,https://www.pampanorama.it/punti-vendita/padova-sanfrancesco
Padova Altinate,"Via Altinate, 121, 35121 Padova , PD","049.9863591, ",45.40769960,11.88350010,https://www.pampanorama.it/punti-vendita/padova-altinate
Padova Scrovegni,"Via Enrico degli Scrovegni 20/22/24 – 35131 Padova (PD), Padova , PD",", pamlocal2022@pamfranchising.it",45.412617,11.885856,https://www.pampanorama.it/punti-vendita/padova-scrovegni
Padova Portello,"Via del Portello, 13, 35129 Padova , PD","049 9863554, ",45.40779880,11.89200020,https://www.pampanorama.it/punti-vendita/padova-portello
Padova San Carlo,"Galleria San Carlo, 15 (zona Arcella), 35133 Padova , PD","049/8644761, ",45.43009950,11.89000030,https://www.pampanorama.it/punti-vendita/padova-san-carlo
Padova Grassi,"Via Maroncelli, 25 - ang. via A. Grassi, 35129 Padova , PD","0497300406, ",45.41414800,11.90238600,https://www.pampanorama.it/punti-vendita/padova-grassi
Enrico degli Scrovegni,"Via Enrico degli Scrovegni 20,22,24 35131 Padova, Padova , PD","3426160172, pamlocal2022@pamfranchising.it",45.435418,11.950242,https://www.pampanorama.it/punti-vendita/pam-local-enrico-degli-scrovegni
Livorno Corea,"P.zza Saragat, 10/2, 57121 Livorno , LI","0586/423481, ",43.56349950,10.32629970,https://www.pampanorama.it/punti-vendita/livorno-corea
Livorno,"Piazza Grande, 33/37, 57123 Livorno , LI","02/55196003, ",43.55039980,10.30669980,https://www.pampanorama.it/punti-vendita/pam-local-livorno
Livorno Capuccini,"Borgo Cappuccini 24, Livorno, Livorno , LI",", ",43.54595214124554,10.304985328836148,https://www.pampanorama.it/punti-vendita/pam-local-livorno-capiccini
Livorno Corso Amedeo,"Corso Amedeo, 227, 57125 Livorno , LI",", ",43.548544,10.317191,https://www.pampanorama.it/punti-vendita/pam-local-livorno-corso-amedeo
Livorno Roma,"Via del Bosco - ang. Via Roma, 57126 Livorno , LI","0586/808306, ",43.54209900,10.31320000,https://www.pampanorama.it/punti-vendita/livorno-roma
Spinea,"Via delle Industrie, 10/B, 30038 Venezia , VE","041/5413761, ",45.49319840,12.14550020,https://www.pampanorama.it/punti-vendita/spinea
Oriago,"Via Venezia 216, Oriago , VE","0418944714, ",45.453454,12.177968,https://www.pampanorama.it/punti-vendita/pam-oriago
Marghera,"Via S. Orsato, 13, 30100 Venezia , VE","041/2584211, ",45.46939850,12.24009990,https://www.pampanorama.it/punti-vendita/panorama-marghera
Mestre Popolo,"C.so del Popolo, 209, 30172 Venezia , VE","041/5310448, ",45.48339840,12.24050050,https://www.pampanorama.it/punti-vendita/mestre-popolo
Mestre local Popolo,"Corso del popolo 54/B, 30172 Mestre , VE","0419654617, ",45.488219,12.243083,https://www.pampanorama.it/punti-vendita/mestre-local-popolo
Mestre Barche,"P.zza XXVII ottobre, 1, 30172 Venezia , VE","041/956670, ",45.49200060,12.24289990,https://www.pampanorama.it/punti-vendita/mestre-barche
Mestre local Garibaldi,"Viale Garibaldi, 61/b, 30170 Mestre , VE","0415349291, ",45.49959950,12.24429990,https://www.pampanorama.it/punti-vendita/mestre-local-garibaldi
Vicenza Trento,"Viale Trento - ang. Via Pecori Giraldi, 36100 Vicenza , VI","0444/288396, ",45.55519870,11.52229980,https://www.pampanorama.it/punti-vendita/vicenza-trento
Lucca San Paolino,"Via San Paolino 16/18, 55100 Lucca , LU",", ",43.84289930,10.50179960,https://www.pampanorama.it/punti-vendita/lucca-paolino
Viareggio Risorgimento,"Largo Risorgimento, 13, 55049 Viareggio , LU","0584/1760181, ",43.868415,10.257329,https://www.pampanorama.it/punti-vendita/pam-viareggio-risorgimento-1
Treviso,"Via Zorzetto, 12, 31100 Treviso , TV","0422/583913, ",45.66389850,12.24499990,https://www.pampanorama.it/punti-vendita/treviso
Treviso,"Viale della Repubblica, 11, 31100 Treviso , TV","0422/214511, ",45.66870120,12.22480010,https://www.pampanorama.it/punti-vendita/panorama-treviso
Pontedera,"Via del Gelso, 6A, 56025 Pontedera , PI","0587/21061, ",43.66249850,10.63640020,https://www.pampanorama.it/punti-vendita/panorama-pontedera
Fornacette,"P.zza Kolbe, 2-15 Loc. Fornacette, 56012 Calcinaia , PI","0587/422240, ",43.67060090,10.58119970,https://www.pampanorama.it/punti-vendita/fornacette
Perugia Olmo,"Str. Fontana La Trinità , 2/A - Loc.Olmo, 06074 Perugia , PG","0755171700, ",43.10896,12.329604,https://www.pampanorama.it/punti-vendita/perugia-olmo
Perugia San Marco,"Str. Com. Perugia S. Marco, 85/A, 6100 Perugia , PG","0755/848579, ",43.129083,12.364311,https://www.pampanorama.it/punti-vendita/perugia-san-marco
Baglioni,"Via Baglioni, 7, 06121 Perugia , PG","0754659610, ",43.11031000,12.38934000,https://www.pampanorama.it/punti-vendita/perugia-baglioni
Marconi,"Via Guglielmo Marconi, 16, 06121 Perugia , PG","0755727456, ",43.10740000,12.39017000,https://www.pampanorama.it/punti-vendita/perugia-marconi
Pisa San Lorenzo,"Via San Lorenzo, 77, 56127 Pisa , PI",", ",43.71965000,10.40261000,https://www.pampanorama.it/punti-vendita/pam-san-lorenzo
Pisa Santa Maria,"Via Santa Maria, 84, 56126 Pisa , PI","050 9910587, ",43.72059,10.39713,https://www.pampanorama.it/punti-vendita/pisa-santa-maria
Pisa Borgo Stretto,"Borgo Stretto, 40, 56127 Pisa , PI","050/8933397, ",43.717617,10.402306,https://www.pampanorama.it/punti-vendita/pisa-borgo-stretto
Pisa Cascine,"V.le delle Cascine, 1, 56122 Pisa , PI","050/562255, ",43.72460180,10.38959980,https://www.pampanorama.it/punti-vendita/pisa-cascine
Gubbio,"Via Giotto, 9, 06024 Gubbio , PG","0759/220223, ",43.35620120,12.56379990,https://www.pampanorama.it/punti-vendita/gubbio
Chiusi,"Loc. Querce al Pino, 53043 Chiusi , SI","0578/274611, ",43.01499940,11.90680030,https://www.pampanorama.it/punti-vendita/chiusi
Castrette,"Via della Cartiera, 5 (Castrette), 31020 Villorba , TV","0422/920511, ",45.73080060,12.26050000,https://www.pampanorama.it/punti-vendita/panorama-castrette
Agliana,"Via della Libertà, 53, 51031 Agliana , PT","05741940457, ",43.903166,11.009776,https://www.pampanorama.it/punti-vendita/pam-agliana
Quarrata,"Via Statale, 173, 51039 Quarrata , PT","0573/717186, ",43.87760160,10.97760010,https://www.pampanorama.it/punti-vendita/quarrata
Pistoia,"Via Bure Vecchia Nord, 95, 51100 Pistoia , PT","0573-966900, ",43.93030170,10.90789990,https://www.pampanorama.it/punti-vendita/panorama-pistoia
Montale,"Via Buozzi, 9, 51037 Montale , PT","0573558557, ",43.938587,11.025958,https://www.pampanorama.it/punti-vendita/pam-montale
Sottomarina,"Via Marco Polo, 70, 30019 Chioggia , VE","041/5544177, ",45.20439910,12.29389950,https://www.pampanorama.it/punti-vendita/sottomarina
Chioggia,"Corso del Popolo, 1207, 30015 Chioggia , VE","041400400, ",45.217864,12.278068,https://www.pampanorama.it/punti-vendita/pam-chioggia
Signorelli,"Via Signorelli, 23, 05018 Orvieto , TR","0763.450570, ",42.71777000,12.11056800,https://www.pampanorama.it/punti-vendita/orvieto-signorelli
Orvieto,"Corso Cavour, 100, 05018 Orvieto , TR","0763 343749, ",42.71869000,12.11326000,https://www.pampanorama.it/punti-vendita/orvieto
Siena Banchi di Sotto,"Via Banchi di Sotto, 45, 53100 Siena , SI","0577052127, ",43.31923,11.33238,https://www.pampanorama.it/punti-vendita/siena-banchi-sotto
Siena Camollia,"Via Camollia 76, 53100 Siena , SI",", ",43.32514,11.32749,https://www.pampanorama.it/punti-vendita/local-siena-camollia
Siena,"P.zza Rosselli, 21 int. 1, 53100 Siena , SI","0577/287526, ",43.33060070,11.32419970,https://www.pampanorama.it/punti-vendita/siena
Verona Valverde,"via della Valverde 46, Verona ,",", ",45.434873,10.986125,https://www.pampanorama.it/punti-vendita/verona-valverde
Verona IV Novembre,"Via IV novembre, 6/A, 37126 Verona , VR","045/8343485, ",45.44580080,10.98910050,https://www.pampanorama.it/punti-vendita/verona-iv-novembre
Verona Bra,"Via dei Mutilati, 3, 37122 Verona , VR","045/8032822, ",45.43799970,10.99050050,https://www.pampanorama.it/punti-vendita/verona-bra
Verona Anfiteatro,"via Anfiteatro 9/A, Verona , VR",", ",45.440260,10.996580,https://www.pampanorama.it/punti-vendita/verona-anfiteatro
